{
"type": "FeatureCollection",
"name": "hotosm_twn_railways_points_geojson",
"features": [
{ "type": "Feature", "properties": { "name": "新和國小", "name:en": "Xinhe Elementary School", "railway": "station", "ele": null, "operator:type": null, "layer": null, "addr:full": null, "addr:city": null, "source": null, "name:zh": "新和國小", "osm_id": 8041597964, "osm_type": "nodes" }, "geometry": { "type": "Point", "coordinates": [ 121.5186782, 24.9834836 ] } },
{ "type": "Feature", "properties": { "name": "烏樹林", "name:en": null, "railway": "station", "ele": null, "operator:type": null, "layer": null, "addr:full": null, "addr:city": null, "source": null, "name:zh": null, "osm_id": 2730628408, "osm_type": "nodes" }, "geometry": { "type": "Point", "coordinates": [ 120.3737764, 23.3286636 ] } },
{ "type": "Feature", "properties": { "name": "樂活農場", "name:en": null, "railway": "station", "ele": null, "operator:type": null, "layer": null, "addr:full": null, "addr:city": null, "source": null, "name:zh": null, "osm_id": 10093201585, "osm_type": "nodes" }, "geometry": { "type": "Point", "coordinates": [ 120.3056801, 23.4772974 ] } },
{ "type": "Feature", "properties": { "name": "輕軌鼓山站", "name:en": "Gushan", "railway": "station", "ele": null, "operator:type": null, "layer": null, "addr:full": null, "addr:city": null, "source": "survay;教育部", "name:zh": "鼓山", "osm_id": 8057987302, "osm_type": "nodes" }, "geometry": { "type": "Point", "coordinates": [ 120.2810929, 22.6420358 ] } },
{ "type": "Feature", "properties": { "name": "楠梓", "name:en": "Nanzi", "railway": "station", "ele": null, "operator:type": null, "layer": null, "addr:full": null, "addr:city": "高雄市", "source": null, "name:zh": "楠梓", "osm_id": 257398442, "osm_type": "nodes" }, "geometry": { "type": "Point", "coordinates": [ 120.324127, 22.7271409 ] } },
{ "type": "Feature", "properties": { "name": "吉安", "name:en": "Ji'an", "railway": "station", "ele": null, "operator:type": null, "layer": null, "addr:full": null, "addr:city": null, "source": null, "name:zh": "吉安", "osm_id": 289126242, "osm_type": "nodes" }, "geometry": { "type": "Point", "coordinates": [ 121.5827939, 23.9678249 ] } },
{ "type": "Feature", "properties": { "name": "新埔", "name:en": "Xinpu", "railway": "station", "ele": null, "operator:type": null, "layer": null, "addr:full": null, "addr:city": null, "source": null, "name:zh": "新埔", "osm_id": 343035293, "osm_type": "nodes" }, "geometry": { "type": "Point", "coordinates": [ 120.6955034, 24.5402681 ] } },
{ "type": "Feature", "properties": { "name": "濁水", "name:en": "Zhuoshui", "railway": "station", "ele": null, "operator:type": null, "layer": null, "addr:full": null, "addr:city": null, "source": null, "name:zh": "濁水", "osm_id": 448090196, "osm_type": "nodes" }, "geometry": { "type": "Point", "coordinates": [ 120.704792, 23.8345345 ] } },
{ "type": "Feature", "properties": { "name": "北湖", "name:en": "Beihu", "railway": "station", "ele": null, "operator:type": null, "layer": null, "addr:full": null, "addr:city": null, "source": null, "name:zh": "北湖", "osm_id": 2016804222, "osm_type": "nodes" }, "geometry": { "type": "Point", "coordinates": [ 121.0559002, 24.9224913 ] } },
{ "type": "Feature", "properties": { "name": "東竹", "name:en": "Dongzhu", "railway": "station", "ele": null, "operator:type": null, "layer": null, "addr:full": null, "addr:city": null, "source": "NLSC", "name:zh": "東竹", "osm_id": 3931764481, "osm_type": "nodes" }, "geometry": { "type": "Point", "coordinates": [ 121.2782583, 23.225984 ] } },
{ "type": "Feature", "properties": { "name": "後壁", "name:en": "Houbi", "railway": "station", "ele": null, "operator:type": null, "layer": null, "addr:full": null, "addr:city": "台南市", "source": null, "name:zh": "後壁", "osm_id": 4573485149, "osm_type": "nodes" }, "geometry": { "type": "Point", "coordinates": [ 120.3603524, 23.3661495 ] } },
{ "type": "Feature", "properties": { "name": "沙崙", "name:en": "Shalun", "railway": "station", "ele": null, "operator:type": null, "layer": null, "addr:full": null, "addr:city": "臺南市", "source": null, "name:zh": "沙崙", "osm_id": 1070479244, "osm_type": "nodes" }, "geometry": { "type": "Point", "coordinates": [ 120.2863114, 22.9238957 ] } },
{ "type": "Feature", "properties": { "name": "大武", "name:en": "Dawu", "railway": "station", "ele": null, "operator:type": null, "layer": null, "addr:full": null, "addr:city": null, "source": null, "name:zh": "大武", "osm_id": 945711089, "osm_type": "nodes" }, "geometry": { "type": "Point", "coordinates": [ 120.9006493, 22.3654846 ] } },
{ "type": "Feature", "properties": { "name": "玉里", "name:en": "Yuli", "railway": "station", "ele": null, "operator:type": null, "layer": null, "addr:full": null, "addr:city": "花蓮縣", "source": null, "name:zh": "玉里", "osm_id": 206218985, "osm_type": "nodes" }, "geometry": { "type": "Point", "coordinates": [ 121.3115556, 23.3315585 ] } },
{ "type": "Feature", "properties": { "name": "桃園", "name:en": "Taoyuan", "railway": "station", "ele": null, "operator:type": null, "layer": null, "addr:full": null, "addr:city": null, "source": null, "name:zh": "桃園", "osm_id": 246416407, "osm_type": "nodes" }, "geometry": { "type": "Point", "coordinates": [ 121.3137769, 24.988726 ] } },
{ "type": "Feature", "properties": { "name": "中壢", "name:en": "Zhongli", "railway": "station", "ele": null, "operator:type": null, "layer": null, "addr:full": null, "addr:city": null, "source": null, "name:zh": "中壢", "osm_id": 247059970, "osm_type": "nodes" }, "geometry": { "type": "Point", "coordinates": [ 121.2261602, 24.9533168 ] } },
{ "type": "Feature", "properties": { "name": "新左營", "name:en": "Xinzuoying", "railway": "station", "ele": null, "operator:type": null, "layer": null, "addr:full": "高雄市左營區尾北里站前北路1號", "addr:city": "高雄市", "source": null, "name:zh": "新左營", "osm_id": 256249596, "osm_type": "nodes" }, "geometry": { "type": "Point", "coordinates": [ 120.3073523, 22.6875679 ] } },
{ "type": "Feature", "properties": { "name": "臺南", "name:en": "Tainan", "railway": "station", "ele": null, "operator:type": null, "layer": null, "addr:full": null, "addr:city": "臺南市", "source": null, "name:zh": "臺南", "osm_id": 257398161, "osm_type": "nodes" }, "geometry": { "type": "Point", "coordinates": [ 120.2130434, 22.9972146 ] } },
{ "type": "Feature", "properties": { "name": "保安", "name:en": "Bao'an", "railway": "station", "ele": null, "operator:type": null, "layer": null, "addr:full": null, "addr:city": "臺南市", "source": null, "name:zh": "保安", "osm_id": 257398220, "osm_type": "nodes" }, "geometry": { "type": "Point", "coordinates": [ 120.2317049, 22.9330439 ] } },
{ "type": "Feature", "properties": { "name": "大湖", "name:en": "Dahu", "railway": "station", "ele": null, "operator:type": null, "layer": null, "addr:full": null, "addr:city": null, "source": null, "name:zh": "大湖", "osm_id": 257398238, "osm_type": "nodes" }, "geometry": { "type": "Point", "coordinates": [ 120.254112, 22.8783412 ] } },
{ "type": "Feature", "properties": { "name": "岡山", "name:en": "Gangshan", "railway": "station", "ele": null, "operator:type": null, "layer": null, "addr:full": null, "addr:city": null, "source": null, "name:zh": "岡山", "osm_id": 257398374, "osm_type": "nodes" }, "geometry": { "type": "Point", "coordinates": [ 120.3004673, 22.7923148 ] } },
{ "type": "Feature", "properties": { "name": "橋頭", "name:en": "Qiaotou", "railway": "station", "ele": null, "operator:type": null, "layer": null, "addr:full": null, "addr:city": "高雄市", "source": null, "name:zh": "橋頭", "osm_id": 257398405, "osm_type": "nodes" }, "geometry": { "type": "Point", "coordinates": [ 120.3102547, 22.7610975 ] } },
{ "type": "Feature", "properties": { "name": "屏東", "name:en": "Pingtung", "railway": "station", "ele": null, "operator:type": null, "layer": null, "addr:full": null, "addr:city": "屏東市", "source": null, "name:zh": "屏東", "osm_id": 261696269, "osm_type": "nodes" }, "geometry": { "type": "Point", "coordinates": [ 120.4861857, 22.668856 ] } },
{ "type": "Feature", "properties": { "name": "大肚", "name:en": "Dadu", "railway": "station", "ele": null, "operator:type": null, "layer": null, "addr:full": "43242臺中市大肚區頂街村平和街121號", "addr:city": "臺中市", "source": null, "name:zh": "大肚", "osm_id": 263012008, "osm_type": "nodes" }, "geometry": { "type": "Point", "coordinates": [ 120.5421809, 24.1543321 ] } },
{ "type": "Feature", "properties": { "name": "彰化", "name:en": "Changhua", "railway": "station", "ele": null, "operator:type": null, "layer": null, "addr:full": null, "addr:city": null, "source": null, "name:zh": "彰化", "osm_id": 263012105, "osm_type": "nodes" }, "geometry": { "type": "Point", "coordinates": [ 120.538205, 24.081673 ] } },
{ "type": "Feature", "properties": { "name": "大林", "name:en": "Dalin", "railway": "station", "ele": null, "operator:type": null, "layer": null, "addr:full": null, "addr:city": null, "source": null, "name:zh": "大林", "osm_id": 268936274, "osm_type": "nodes" }, "geometry": { "type": "Point", "coordinates": [ 120.455979, 23.6008136 ] } },
{ "type": "Feature", "properties": { "name": "斗六", "name:en": "Douliu", "railway": "station", "ele": null, "operator:type": null, "layer": "1", "addr:full": null, "addr:city": null, "source": null, "name:zh": "斗六", "osm_id": 268936504, "osm_type": "nodes" }, "geometry": { "type": "Point", "coordinates": [ 120.5411553, 23.7118077 ] } },
{ "type": "Feature", "properties": { "name": "社頭", "name:en": "Shetou", "railway": "station", "ele": null, "operator:type": null, "layer": null, "addr:full": null, "addr:city": null, "source": null, "name:zh": "社頭", "osm_id": 268936583, "osm_type": "nodes" }, "geometry": { "type": "Point", "coordinates": [ 120.5804852, 23.8958254 ] } },
{ "type": "Feature", "properties": { "name": "竹北", "name:en": "Zhubei", "railway": "station", "ele": null, "operator:type": null, "layer": null, "addr:full": null, "addr:city": "新竹縣", "source": null, "name:zh": "竹北", "osm_id": 279154134, "osm_type": "nodes" }, "geometry": { "type": "Point", "coordinates": [ 121.0092345, 24.8391734 ] } },
{ "type": "Feature", "properties": { "name": "後龍", "name:en": "Houlong", "railway": "station", "ele": null, "operator:type": null, "layer": null, "addr:full": null, "addr:city": null, "source": null, "name:zh": "後龍", "osm_id": 279159134, "osm_type": "nodes" }, "geometry": { "type": "Point", "coordinates": [ 120.7872242, 24.6162489 ] } },
{ "type": "Feature", "properties": { "name": "白沙屯", "name:en": "Baishatun", "railway": "station", "ele": null, "operator:type": null, "layer": null, "addr:full": null, "addr:city": null, "source": null, "name:zh": "白沙屯", "osm_id": 279159254, "osm_type": "nodes" }, "geometry": { "type": "Point", "coordinates": [ 120.7079453, 24.5649309 ] } },
{ "type": "Feature", "properties": { "name": "通霄", "name:en": "Tongxiao", "railway": "station", "ele": null, "operator:type": null, "layer": null, "addr:full": null, "addr:city": null, "source": null, "name:zh": "通霄", "osm_id": 279159289, "osm_type": "nodes" }, "geometry": { "type": "Point", "coordinates": [ 120.6783718, 24.4917497 ] } },
{ "type": "Feature", "properties": { "name": "九曲堂", "name:en": "Jiuqutang", "railway": "station", "ele": null, "operator:type": null, "layer": null, "addr:full": null, "addr:city": "高雄市", "source": null, "name:zh": "九曲堂", "osm_id": 280074470, "osm_type": "nodes" }, "geometry": { "type": "Point", "coordinates": [ 120.4212016, 22.6559651 ] } },
{ "type": "Feature", "properties": { "name": "光復", "name:en": "Guangfu", "railway": "station", "ele": null, "operator:type": null, "layer": null, "addr:full": null, "addr:city": null, "source": null, "name:zh": "光復", "osm_id": 289125172, "osm_type": "nodes" }, "geometry": { "type": "Point", "coordinates": [ 121.4209722, 23.6663752 ] } },
{ "type": "Feature", "properties": { "name": "南平", "name:en": "Nanping", "railway": "station", "ele": null, "operator:type": null, "layer": null, "addr:full": null, "addr:city": null, "source": null, "name:zh": "南平", "osm_id": 289125269, "osm_type": "nodes" }, "geometry": { "type": "Point", "coordinates": [ 121.4580926, 23.7824277 ] } },
{ "type": "Feature", "properties": { "name": "豐田", "name:en": "Fengtian", "railway": "station", "ele": null, "operator:type": null, "layer": null, "addr:full": null, "addr:city": null, "source": null, "name:zh": "豐田", "osm_id": 289125315, "osm_type": "nodes" }, "geometry": { "type": "Point", "coordinates": [ 121.4959813, 23.8485329 ] } },
{ "type": "Feature", "properties": { "name": "壽豐", "name:en": "Shoufeng", "railway": "station", "ele": null, "operator:type": null, "layer": null, "addr:full": "花蓮縣壽豐鄉壽豐村壽山路1號", "addr:city": "花蓮縣", "source": null, "name:zh": "壽豐", "osm_id": 289125343, "osm_type": "nodes" }, "geometry": { "type": "Point", "coordinates": [ 121.5108128, 23.868919 ] } },
{ "type": "Feature", "properties": { "name": "志學", "name:en": "Zhixue", "railway": "station", "ele": null, "operator:type": null, "layer": null, "addr:full": null, "addr:city": "花蓮縣", "source": null, "name:zh": "志學", "osm_id": 289125508, "osm_type": "nodes" }, "geometry": { "type": "Point", "coordinates": [ 121.5292809, 23.9078171 ] } },
{ "type": "Feature", "properties": { "name": "頭城", "name:en": "Toucheng", "railway": "station", "ele": null, "operator:type": null, "layer": null, "addr:full": "26146宜蘭縣頭城鎮纘祥路59號", "addr:city": "宜蘭縣", "source": null, "name:zh": "頭城", "osm_id": 4066090282, "osm_type": "nodes" }, "geometry": { "type": "Point", "coordinates": [ 121.822294, 24.8590462 ] } },
{ "type": "Feature", "properties": { "name": "高雄", "name:en": "Kaohsiung", "railway": "station", "ele": null, "operator:type": null, "layer": null, "addr:full": null, "addr:city": "高雄市", "source": null, "name:zh": "高雄", "osm_id": 5981456317, "osm_type": "nodes" }, "geometry": { "type": "Point", "coordinates": [ 120.3025585, 22.6395321 ] } },
{ "type": "Feature", "properties": { "name": "四城", "name:en": "Sicheng", "railway": "station", "ele": null, "operator:type": null, "layer": null, "addr:full": null, "addr:city": null, "source": null, "name:zh": "四城", "osm_id": 289128984, "osm_type": "nodes" }, "geometry": { "type": "Point", "coordinates": [ 121.7629029, 24.7868587 ] } },
{ "type": "Feature", "properties": { "name": "龜山", "name:en": "Guishan", "railway": "station", "ele": null, "operator:type": null, "layer": null, "addr:full": null, "addr:city": null, "source": null, "name:zh": "龜山", "osm_id": 289129958, "osm_type": "nodes" }, "geometry": { "type": "Point", "coordinates": [ 121.8687456, 24.9050658 ] } },
{ "type": "Feature", "properties": { "name": "大里", "name:en": "Dali", "railway": "station", "ele": null, "operator:type": null, "layer": null, "addr:full": null, "addr:city": null, "source": null, "name:zh": "大里", "osm_id": 289130410, "osm_type": "nodes" }, "geometry": { "type": "Point", "coordinates": [ 121.9226512, 24.9666095 ] } },
{ "type": "Feature", "properties": { "name": "雙溪", "name:en": "Shuangxi", "railway": "station", "ele": null, "operator:type": null, "layer": null, "addr:full": null, "addr:city": null, "source": null, "name:zh": "雙溪", "osm_id": 289131166, "osm_type": "nodes" }, "geometry": { "type": "Point", "coordinates": [ 121.8669739, 25.0388277 ] } },
{ "type": "Feature", "properties": { "name": "長榮大學", "name:en": "Chang Jung Christian University", "railway": "station", "ele": null, "operator:type": null, "layer": null, "addr:full": null, "addr:city": "台南市", "source": null, "name:zh": "長榮大學", "osm_id": 1116599246, "osm_type": "nodes" }, "geometry": { "type": "Point", "coordinates": [ 120.2723678, 22.9071796 ] } },
{ "type": "Feature", "properties": { "name": "牡丹", "name:en": "Mudan", "railway": "station", "ele": null, "operator:type": null, "layer": null, "addr:full": null, "addr:city": null, "source": null, "name:zh": "牡丹", "osm_id": 289131366, "osm_type": "nodes" }, "geometry": { "type": "Point", "coordinates": [ 121.8520609, 25.0585151 ] } },
{ "type": "Feature", "properties": { "name": "三貂嶺", "name:en": "Sandiaoling", "railway": "station", "ele": null, "operator:type": null, "layer": null, "addr:full": null, "addr:city": null, "source": null, "name:zh": "三貂嶺", "osm_id": 289131380, "osm_type": "nodes" }, "geometry": { "type": "Point", "coordinates": [ 121.8223757, 25.0661013 ] } },
{ "type": "Feature", "properties": { "name": "猴硐", "name:en": "Houtong", "railway": "station", "ele": null, "operator:type": null, "layer": null, "addr:full": null, "addr:city": "新北市", "source": null, "name:zh": "猴硐", "osm_id": 289131479, "osm_type": "nodes" }, "geometry": { "type": "Point", "coordinates": [ 121.8272142, 25.0870188 ] } },
{ "type": "Feature", "properties": { "name": "瑞芳", "name:en": "Ruifang", "railway": "station", "ele": null, "operator:type": null, "layer": null, "addr:full": null, "addr:city": null, "source": null, "name:zh": "瑞芳", "osm_id": 289131555, "osm_type": "nodes" }, "geometry": { "type": "Point", "coordinates": [ 121.8065585, 25.1090106 ] } },
{ "type": "Feature", "properties": { "name": "四腳亭", "name:en": "Sijiaoting", "railway": "station", "ele": null, "operator:type": null, "layer": null, "addr:full": null, "addr:city": null, "source": null, "name:zh": "四腳亭", "osm_id": 289131594, "osm_type": "nodes" }, "geometry": { "type": "Point", "coordinates": [ 121.7618206, 25.1026362 ] } },
{ "type": "Feature", "properties": { "name": "七堵", "name:en": "Qidu", "railway": "station", "ele": null, "operator:type": null, "layer": null, "addr:full": null, "addr:city": null, "source": null, "name:zh": "七堵", "osm_id": 289131843, "osm_type": "nodes" }, "geometry": { "type": "Point", "coordinates": [ 121.7138567, 25.0929751 ] } },
{ "type": "Feature", "properties": { "name": "五堵", "name:en": "Wudu", "railway": "station", "ele": null, "operator:type": null, "layer": null, "addr:full": null, "addr:city": null, "source": null, "name:zh": "五堵", "osm_id": 289131922, "osm_type": "nodes" }, "geometry": { "type": "Point", "coordinates": [ 121.6676308, 25.0779051 ] } },
{ "type": "Feature", "properties": { "name": "汐科", "name:en": "Xike", "railway": "station", "ele": null, "operator:type": null, "layer": null, "addr:full": null, "addr:city": null, "source": null, "name:zh": "汐科", "osm_id": 289281847, "osm_type": "nodes" }, "geometry": { "type": "Point", "coordinates": [ 121.6486238, 25.0628293 ] } },
{ "type": "Feature", "properties": { "name": "汐止", "name:en": "Xizhi", "railway": "station", "ele": null, "operator:type": null, "layer": null, "addr:full": null, "addr:city": null, "source": "http://www.railway.gov.tw/tw/cp.aspx?sn=7397", "name:zh": "汐止", "osm_id": 289281848, "osm_type": "nodes" }, "geometry": { "type": "Point", "coordinates": [ 121.6606848, 25.0674211 ] } },
{ "type": "Feature", "properties": { "name": "福隆", "name:en": "Fulong", "railway": "station", "ele": null, "operator:type": null, "layer": null, "addr:full": null, "addr:city": null, "source": null, "name:zh": "福隆", "osm_id": 289339351, "osm_type": "nodes" }, "geometry": { "type": "Point", "coordinates": [ 121.9445761, 25.015692 ] } },
{ "type": "Feature", "properties": { "name": "二結", "name:en": "Erjie", "railway": "station", "ele": null, "operator:type": null, "layer": null, "addr:full": null, "addr:city": null, "source": null, "name:zh": "二結", "osm_id": 289440210, "osm_type": "nodes" }, "geometry": { "type": "Point", "coordinates": [ 121.7742103, 24.7060004 ] } },
{ "type": "Feature", "properties": { "name": "羅東", "name:en": "Luodong", "railway": "station", "ele": null, "operator:type": null, "layer": null, "addr:full": null, "addr:city": null, "source": null, "name:zh": "羅東", "osm_id": 289440212, "osm_type": "nodes" }, "geometry": { "type": "Point", "coordinates": [ 121.7745987, 24.6779776 ] } },
{ "type": "Feature", "properties": { "name": "萬榮", "name:en": "Wanrong", "railway": "station", "ele": null, "operator:type": null, "layer": null, "addr:full": null, "addr:city": null, "source": null, "name:zh": "萬榮", "osm_id": 289680442, "osm_type": "nodes" }, "geometry": { "type": "Point", "coordinates": [ 121.4188366, 23.7120001 ] } },
{ "type": "Feature", "properties": { "name": "富源", "name:en": "Fuyuan", "railway": "station", "ele": null, "operator:type": null, "layer": null, "addr:full": null, "addr:city": null, "source": null, "name:zh": "富源", "osm_id": 289680443, "osm_type": "nodes" }, "geometry": { "type": "Point", "coordinates": [ 121.3802659, 23.5803194 ] } },
{ "type": "Feature", "properties": { "name": "瑞穗", "name:en": "Ruisui", "railway": "station", "ele": null, "operator:type": null, "layer": null, "addr:full": "花蓮縣瑞穗鄉瑞穗村四維街13號", "addr:city": "花蓮縣", "source": null, "name:zh": "瑞穗", "osm_id": 289680444, "osm_type": "nodes" }, "geometry": { "type": "Point", "coordinates": [ 121.3765669, 23.497742 ] } },
{ "type": "Feature", "properties": { "name": "三民", "name:en": "Sanmin", "railway": "station", "ele": null, "operator:type": null, "layer": null, "addr:full": null, "addr:city": null, "source": null, "name:zh": "三民", "osm_id": 289680445, "osm_type": "nodes" }, "geometry": { "type": "Point", "coordinates": [ 121.3452414, 23.4246636 ] } },
{ "type": "Feature", "properties": { "name": "后里", "name:en": "Houli", "railway": "station", "ele": null, "operator:type": null, "layer": null, "addr:full": null, "addr:city": null, "source": null, "name:zh": "后里", "osm_id": 290975873, "osm_type": "nodes" }, "geometry": { "type": "Point", "coordinates": [ 120.733107, 24.3092058 ] } },
{ "type": "Feature", "properties": { "name": "銅鑼", "name:en": "Tongluo", "railway": "station", "ele": null, "operator:type": null, "layer": null, "addr:full": null, "addr:city": null, "source": null, "name:zh": "銅鑼", "osm_id": 290976119, "osm_type": "nodes" }, "geometry": { "type": "Point", "coordinates": [ 120.7860071, 24.4863255 ] } },
{ "type": "Feature", "properties": { "name": "苗栗", "name:en": "Miaoli", "railway": "station", "ele": null, "operator:type": null, "layer": null, "addr:full": null, "addr:city": "苗栗縣", "source": null, "name:zh": "苗栗", "osm_id": 290976531, "osm_type": "nodes" }, "geometry": { "type": "Point", "coordinates": [ 120.8222649, 24.5692318 ] } },
{ "type": "Feature", "properties": { "name": "三義", "name:en": "Sanyi", "railway": "station", "ele": null, "operator:type": null, "layer": null, "addr:full": null, "addr:city": null, "source": null, "name:zh": "三義", "osm_id": 290976540, "osm_type": "nodes" }, "geometry": { "type": "Point", "coordinates": [ 120.7742376, 24.4205666 ] } },
{ "type": "Feature", "properties": { "name": "田中", "name:en": "Tianzhong", "railway": "station", "ele": null, "operator:type": null, "layer": null, "addr:full": null, "addr:city": null, "source": null, "name:zh": "田中", "osm_id": 290976642, "osm_type": "nodes" }, "geometry": { "type": "Point", "coordinates": [ 120.5915688, 23.8583694 ] } },
{ "type": "Feature", "properties": { "name": "斗南", "name:en": "Dounan", "railway": "station", "ele": null, "operator:type": null, "layer": null, "addr:full": null, "addr:city": null, "source": null, "name:zh": "斗南", "osm_id": 290976647, "osm_type": "nodes" }, "geometry": { "type": "Point", "coordinates": [ 120.481102, 23.6726985 ] } },
{ "type": "Feature", "properties": { "name": "三坑", "name:en": "Sankeng", "railway": "station", "ele": null, "operator:type": null, "layer": null, "addr:full": null, "addr:city": null, "source": null, "name:zh": "三坑", "osm_id": 402296986, "osm_type": "nodes" }, "geometry": { "type": "Point", "coordinates": [ 121.7420983, 25.1222174 ] } },
{ "type": "Feature", "properties": { "name": "基隆", "name:en": "Keelung", "railway": "station", "ele": null, "operator:type": null, "layer": null, "addr:full": null, "addr:city": "基隆市", "source": null, "name:zh": "基隆", "osm_id": 402297001, "osm_type": "nodes" }, "geometry": { "type": "Point", "coordinates": [ 121.7392299, 25.1330324 ] } },
{ "type": "Feature", "properties": { "name": "湖口", "name:en": "Hukou", "railway": "station", "ele": null, "operator:type": null, "layer": null, "addr:full": null, "addr:city": null, "source": null, "name:zh": "湖口", "osm_id": 418760121, "osm_type": "nodes" }, "geometry": { "type": "Point", "coordinates": [ 121.043748, 24.9028021 ] } },
{ "type": "Feature", "properties": { "name": "新豐", "name:en": "Xinfeng", "railway": "station", "ele": null, "operator:type": null, "layer": null, "addr:full": null, "addr:city": null, "source": null, "name:zh": "新豐", "osm_id": 418760215, "osm_type": "nodes" }, "geometry": { "type": "Point", "coordinates": [ 120.9965344, 24.8692766 ] } },
{ "type": "Feature", "properties": { "name": "大山", "name:en": "Dashan", "railway": "station", "ele": null, "operator:type": null, "layer": null, "addr:full": null, "addr:city": null, "source": null, "name:zh": "大山", "osm_id": 529468675, "osm_type": "nodes" }, "geometry": { "type": "Point", "coordinates": [ 120.8036297, 24.6456915 ] } },
{ "type": "Feature", "properties": { "name": "後庄", "name:en": "Houzhuang", "railway": "station", "ele": null, "operator:type": null, "layer": null, "addr:full": null, "addr:city": "高雄市", "source": null, "name:zh": "後庄", "osm_id": 581949129, "osm_type": "nodes" }, "geometry": { "type": "Point", "coordinates": [ 120.3910467, 22.6404643 ] } },
{ "type": "Feature", "properties": { "name": "嶺腳", "name:en": "Lingjiao", "railway": "station", "ele": null, "operator:type": null, "layer": null, "addr:full": null, "addr:city": null, "source": null, "name:zh": "嶺腳", "osm_id": 765335733, "osm_type": "nodes" }, "geometry": { "type": "Point", "coordinates": [ 121.7484854, 25.0295899 ] } },
{ "type": "Feature", "properties": { "name": "望古", "name:en": "Wanggu", "railway": "station", "ele": null, "operator:type": null, "layer": null, "addr:full": null, "addr:city": null, "source": null, "name:zh": "望古", "osm_id": 765335740, "osm_type": "nodes" }, "geometry": { "type": "Point", "coordinates": [ 121.7635976, 25.0345064 ] } },
{ "type": "Feature", "properties": { "name": "十分", "name:en": "Shifen", "railway": "station", "ele": null, "operator:type": null, "layer": null, "addr:full": null, "addr:city": null, "source": null, "name:zh": "十分", "osm_id": 765335750, "osm_type": "nodes" }, "geometry": { "type": "Point", "coordinates": [ 121.7752471, 25.0410902 ] } },
{ "type": "Feature", "properties": { "name": "勝興", "name:en": "Shengxing", "railway": "station", "ele": "406", "operator:type": null, "layer": null, "addr:full": null, "addr:city": null, "source": null, "name:zh": "勝興", "osm_id": 774940331, "osm_type": "nodes" }, "geometry": { "type": "Point", "coordinates": [ 120.7817416, 24.3880295 ] } },
{ "type": "Feature", "properties": { "name": "泰安", "name:en": "Tai'an", "railway": "station", "ele": null, "operator:type": null, "layer": null, "addr:full": "臺中市后里區泰安里福興路52號", "addr:city": "臺中市", "source": null, "name:zh": "泰安", "osm_id": 774940566, "osm_type": "nodes" }, "geometry": { "type": "Point", "coordinates": [ 120.7492097, 24.3225724 ] } },
{ "type": "Feature", "properties": { "name": "魚藤坪", "name:en": "Yutengping", "railway": "station", "ele": null, "operator:type": null, "layer": null, "addr:full": null, "addr:city": null, "source": null, "name:zh": "魚藤坪", "osm_id": 774940743, "osm_type": "nodes" }, "geometry": { "type": "Point", "coordinates": [ 120.7756342, 24.3611632 ] } },
{ "type": "Feature", "properties": { "name": "水上", "name:en": "Shuishang", "railway": "station", "ele": null, "operator:type": null, "layer": null, "addr:full": null, "addr:city": null, "source": null, "name:zh": "水上", "osm_id": 819223893, "osm_type": "nodes" }, "geometry": { "type": "Point", "coordinates": [ 120.3996323, 23.4337049 ] } },
{ "type": "Feature", "properties": { "name": "大村", "name:en": "Dacun", "railway": "station", "ele": null, "operator:type": null, "layer": null, "addr:full": null, "addr:city": null, "source": null, "name:zh": "大村", "osm_id": 879629959, "osm_type": "nodes" }, "geometry": { "type": "Point", "coordinates": [ 120.5605718, 23.9900522 ] } },
{ "type": "Feature", "properties": { "name": "花壇", "name:en": "Huatan", "railway": "station", "ele": null, "operator:type": null, "layer": null, "addr:full": null, "addr:city": null, "source": null, "name:zh": "花壇", "osm_id": 879629981, "osm_type": "nodes" }, "geometry": { "type": "Point", "coordinates": [ 120.537228, 24.0249917 ] } },
{ "type": "Feature", "properties": { "name": "二水", "name:en": "Ershui", "railway": "station", "ele": null, "operator:type": null, "layer": null, "addr:full": null, "addr:city": null, "source": null, "name:zh": "二水", "osm_id": 879629983, "osm_type": "nodes" }, "geometry": { "type": "Point", "coordinates": [ 120.6183999, 23.813291 ] } },
{ "type": "Feature", "properties": { "name": "大慶", "name:en": "Daqing", "railway": "station", "ele": null, "operator:type": null, "layer": null, "addr:full": "臺中市南區大慶街二段130號", "addr:city": "臺中市", "source": null, "name:zh": "大慶", "osm_id": 879629984, "osm_type": "nodes" }, "geometry": { "type": "Point", "coordinates": [ 120.6487741, 24.1194255 ] } },
{ "type": "Feature", "properties": { "name": "林內", "name:en": "Linnei", "railway": "station", "ele": null, "operator:type": null, "layer": null, "addr:full": null, "addr:city": null, "source": null, "name:zh": "林內", "osm_id": 879629994, "osm_type": "nodes" }, "geometry": { "type": "Point", "coordinates": [ 120.6145629, 23.7597748 ] } },
{ "type": "Feature", "properties": { "name": "瀧溪", "name:en": "Longxi", "railway": "station", "ele": null, "operator:type": null, "layer": null, "addr:full": null, "addr:city": null, "source": null, "name:zh": "瀧溪", "osm_id": 945711003, "osm_type": "nodes" }, "geometry": { "type": "Point", "coordinates": [ 120.9420192, 22.4609113 ] } },
{ "type": "Feature", "properties": { "name": "太麻里", "name:en": "Taimali", "railway": "station", "ele": null, "operator:type": null, "layer": null, "addr:full": "臺東縣太麻里鄉大王村276-13號", "addr:city": "臺東縣", "source": null, "name:zh": "太麻里", "osm_id": 945711032, "osm_type": "nodes" }, "geometry": { "type": "Point", "coordinates": [ 121.004692, 22.6189626 ] } },
{ "type": "Feature", "properties": { "name": "枋寮", "name:en": "Fangliao", "railway": "station", "ele": null, "operator:type": null, "layer": null, "addr:full": "屏東縣枋寮鄉枋寮村儲運路18號", "addr:city": "屏東縣", "source": null, "name:zh": "枋寮", "osm_id": 945711079, "osm_type": "nodes" }, "geometry": { "type": "Point", "coordinates": [ 120.5952894, 22.3682489 ] } },
{ "type": "Feature", "properties": { "name": "金崙", "name:en": "Jinlun", "railway": "station", "ele": null, "operator:type": null, "layer": null, "addr:full": null, "addr:city": null, "source": null, "name:zh": "金崙", "osm_id": 945711105, "osm_type": "nodes" }, "geometry": { "type": "Point", "coordinates": [ 120.967496, 22.5313295 ] } },
{ "type": "Feature", "properties": { "name": "內壢", "name:en": "Neili", "railway": "station", "ele": null, "operator:type": null, "layer": null, "addr:full": null, "addr:city": null, "source": null, "name:zh": "內壢", "osm_id": 1255618458, "osm_type": "nodes" }, "geometry": { "type": "Point", "coordinates": [ 121.2583532, 24.9725599 ] } },
{ "type": "Feature", "properties": { "name": "楊梅", "name:en": "Yangmei", "railway": "station", "ele": null, "operator:type": null, "layer": null, "addr:full": null, "addr:city": null, "source": null, "name:zh": "楊梅", "osm_id": 1263487518, "osm_type": "nodes" }, "geometry": { "type": "Point", "coordinates": [ 121.1465072, 24.9143522 ] } },
{ "type": "Feature", "properties": { "name": "善化", "name:en": "Shanhua", "railway": "station", "ele": null, "operator:type": null, "layer": null, "addr:full": null, "addr:city": "台南市", "source": null, "name:zh": "善化", "osm_id": 4573421581, "osm_type": "nodes" }, "geometry": { "type": "Point", "coordinates": [ 120.3066223, 23.1330374 ] } },
{ "type": "Feature", "properties": { "name": "拔林", "name:en": "Balin", "railway": "station", "ele": null, "operator:type": null, "layer": null, "addr:full": null, "addr:city": "台南市", "source": null, "name:zh": "拔林", "osm_id": 4573433819, "osm_type": "nodes" }, "geometry": { "type": "Point", "coordinates": [ 120.3213224, 23.1727888 ] } },
{ "type": "Feature", "properties": { "name": "新營", "name:en": "Xinying", "railway": "station", "ele": null, "operator:type": null, "layer": null, "addr:full": null, "addr:city": "台南市", "source": null, "name:zh": "新營", "osm_id": 4573481121, "osm_type": "nodes" }, "geometry": { "type": "Point", "coordinates": [ 120.3233376, 23.306398 ] } },
{ "type": "Feature", "properties": { "name": "隆田", "name:en": "Longtian", "railway": "station", "ele": null, "operator:type": null, "layer": null, "addr:full": null, "addr:city": "台南市", "source": null, "name:zh": "隆田", "osm_id": 4573481127, "osm_type": "nodes" }, "geometry": { "type": "Point", "coordinates": [ 120.3194897, 23.1927466 ] } },
{ "type": "Feature", "properties": { "name": "林鳳營", "name:en": "Linfengying", "railway": "station", "ele": null, "operator:type": null, "layer": null, "addr:full": null, "addr:city": "台南市", "source": null, "name:zh": "林鳳營", "osm_id": 4573481162, "osm_type": "nodes" }, "geometry": { "type": "Point", "coordinates": [ 120.3211345, 23.242596 ] } },
{ "type": "Feature", "properties": { "name": "板橋", "name:en": "Banqiao", "railway": "station", "ele": null, "operator:type": null, "layer": null, "addr:full": "220新北市板橋區縣民大道二段7號", "addr:city": "新北市", "source": null, "name:zh": "板橋", "osm_id": 4732262582, "osm_type": "nodes" }, "geometry": { "type": "Point", "coordinates": [ 121.4641275, 25.0138099 ] } },
{ "type": "Feature", "properties": { "name": "樹林", "name:en": "Shulin", "railway": "station", "ele": null, "operator:type": null, "layer": null, "addr:full": null, "addr:city": null, "source": null, "name:zh": "樹林", "osm_id": 4802842931, "osm_type": "nodes" }, "geometry": { "type": "Point", "coordinates": [ 121.4245352, 24.991216 ] } },
{ "type": "Feature", "properties": { "name": "山佳", "name:en": "Shanjia", "railway": "station", "ele": null, "operator:type": null, "layer": null, "addr:full": null, "addr:city": null, "source": null, "name:zh": "山佳", "osm_id": 4802842932, "osm_type": "nodes" }, "geometry": { "type": "Point", "coordinates": [ 121.3925867, 24.9726886 ] } },
{ "type": "Feature", "properties": { "name": "鳳林", "name:en": "Fenglin", "railway": "station", "ele": null, "operator:type": null, "layer": null, "addr:full": "花蓮縣鳳林鎮中山路43號", "addr:city": "花蓮縣", "source": null, "name:zh": "鳳林", "osm_id": 5014093061, "osm_type": "nodes" }, "geometry": { "type": "Point", "coordinates": [ 121.4467128, 23.746295 ] } },
{ "type": "Feature", "properties": { "name": "潮州", "name:en": "Chaozhou", "railway": "station", "ele": null, "operator:type": null, "layer": null, "addr:full": null, "addr:city": "屏東縣", "source": null, "name:zh": "潮州", "osm_id": 5071899732, "osm_type": "nodes" }, "geometry": { "type": "Point", "coordinates": [ 120.5360618, 22.5499793 ] } },
{ "type": "Feature", "properties": { "name": "東海", "name:en": "Donghai", "railway": "station", "ele": null, "operator:type": null, "layer": null, "addr:full": null, "addr:city": null, "source": null, "name:zh": "東海", "osm_id": 5154875300, "osm_type": "nodes" }, "geometry": { "type": "Point", "coordinates": [ 120.5723161, 22.3989423 ] } },
{ "type": "Feature", "properties": { "name": "海科館", "name:en": "Haikeguan", "railway": "station", "ele": null, "operator:type": null, "layer": null, "addr:full": null, "addr:city": null, "source": null, "name:zh": "海科館", "osm_id": 5248950676, "osm_type": "nodes" }, "geometry": { "type": "Point", "coordinates": [ 121.8000503, 25.1374024 ] } },
{ "type": "Feature", "properties": { "name": "鼓山", "name:en": "Gushan", "railway": "station", "ele": null, "operator:type": null, "layer": null, "addr:full": null, "addr:city": "高雄市", "source": null, "name:zh": "鼓山", "osm_id": 5528502177, "osm_type": "nodes" }, "geometry": { "type": "Point", "coordinates": [ 120.2809263, 22.641978 ] } },
{ "type": "Feature", "properties": { "name": "成功", "name:en": "Chenggong", "railway": "station", "ele": null, "operator:type": null, "layer": null, "addr:full": "臺中市烏日區中山路三段550號", "addr:city": "臺中市", "source": null, "name:zh": "成功", "osm_id": 5542215183, "osm_type": "nodes" }, "geometry": { "type": "Point", "coordinates": [ 120.5905597, 24.1143357 ] } },
{ "type": "Feature", "properties": { "name": "三塊厝", "name:en": "Sankuaicuo", "railway": "station", "ele": null, "operator:type": null, "layer": null, "addr:full": null, "addr:city": "高雄市", "source": null, "name:zh": "三塊厝", "osm_id": 5622257947, "osm_type": "nodes" }, "geometry": { "type": "Point", "coordinates": [ 120.2939211, 22.6392309 ] } },
{ "type": "Feature", "properties": { "name": "美術館", "name:en": "Fine Art Museum", "railway": "station", "ele": null, "operator:type": null, "layer": null, "addr:full": null, "addr:city": "高雄市", "source": null, "name:zh": "美術館", "osm_id": 5622257948, "osm_type": "nodes" }, "geometry": { "type": "Point", "coordinates": [ 120.2815509, 22.6519869 ] } },
{ "type": "Feature", "properties": { "name": "內惟", "name:en": "Neiwei", "railway": "station", "ele": null, "operator:type": null, "layer": null, "addr:full": null, "addr:city": "高雄市", "source": null, "name:zh": "內惟", "osm_id": 5622257949, "osm_type": "nodes" }, "geometry": { "type": "Point", "coordinates": [ 120.2869788, 22.6658791 ] } },
{ "type": "Feature", "properties": { "name": "宜蘭", "name:en": "Yilan", "railway": "station", "ele": null, "operator:type": null, "layer": null, "addr:full": null, "addr:city": null, "source": null, "name:zh": "宜蘭", "osm_id": 5658284323, "osm_type": "nodes" }, "geometry": { "type": "Point", "coordinates": [ 121.7583109, 24.7545601 ] } },
{ "type": "Feature", "properties": { "name": "花蓮", "name:en": "Hualien", "railway": "station", "ele": null, "operator:type": null, "layer": null, "addr:full": null, "addr:city": null, "source": null, "name:zh": "花蓮", "osm_id": 5659925908, "osm_type": "nodes" }, "geometry": { "type": "Point", "coordinates": [ 121.6009524, 23.9926399 ] } },
{ "type": "Feature", "properties": { "name": "臺東", "name:en": "Taitung", "railway": "station", "ele": null, "operator:type": null, "layer": null, "addr:full": null, "addr:city": "臺東縣", "source": null, "name:zh": "臺東", "osm_id": 5695400434, "osm_type": "nodes" }, "geometry": { "type": "Point", "coordinates": [ 121.1224316, 22.7934597 ] } },
{ "type": "Feature", "properties": { "name": "知本", "name:en": "Zhiben", "railway": "station", "ele": null, "operator:type": null, "layer": null, "addr:full": null, "addr:city": null, "source": null, "name:zh": "知本", "osm_id": 5729145255, "osm_type": "nodes" }, "geometry": { "type": "Point", "coordinates": [ 121.0606572, 22.7101703 ] } },
{ "type": "Feature", "properties": { "name": "路竹", "name:en": "Luzhu", "railway": "station", "ele": null, "operator:type": null, "layer": null, "addr:full": null, "addr:city": null, "source": null, "name:zh": "路竹", "osm_id": 5868117952, "osm_type": "nodes" }, "geometry": { "type": "Point", "coordinates": [ 120.2666339, 22.8538605 ] } },
{ "type": "Feature", "properties": { "name": "左營(舊城)", "name:en": "Zuoying(Jiucheng)", "railway": "station", "ele": null, "operator:type": null, "layer": null, "addr:full": null, "addr:city": "高雄市", "source": null, "name:zh": "左營(舊城)", "osm_id": 5981431121, "osm_type": "nodes" }, "geometry": { "type": "Point", "coordinates": [ 120.2937537, 22.6739898 ] } },
{ "type": "Feature", "properties": { "name": "鳳山", "name:en": "Fengshan", "railway": "station", "ele": null, "operator:type": null, "layer": null, "addr:full": null, "addr:city": "高雄市", "source": null, "name:zh": "鳳山", "osm_id": 5981481116, "osm_type": "nodes" }, "geometry": { "type": "Point", "coordinates": [ 120.3566769, 22.6315973 ] } },
{ "type": "Feature", "properties": { "name": "桃園", "name:en": "Taoyuan", "railway": "station", "ele": null, "operator:type": null, "layer": null, "addr:full": null, "addr:city": null, "source": null, "name:zh": "桃園", "osm_id": 6073153485, "osm_type": "nodes" }, "geometry": { "type": "Point", "coordinates": [ 121.2148277, 25.0130247 ] } },
{ "type": "Feature", "properties": { "name": "茂興", "name:en": null, "railway": "station", "ele": null, "operator:type": null, "layer": null, "addr:full": null, "addr:city": null, "source": null, "name:zh": "茂興", "osm_id": 6154524938, "osm_type": "nodes" }, "geometry": { "type": "Point", "coordinates": [ 121.5359008, 24.4783401 ] } },
{ "type": "Feature", "properties": { "name": "太平山", "name:en": null, "railway": "station", "ele": null, "operator:type": null, "layer": null, "addr:full": null, "addr:city": null, "source": null, "name:zh": "太平山", "osm_id": 6154524939, "osm_type": "nodes" }, "geometry": { "type": "Point", "coordinates": [ 121.5350854, 24.4928932 ] } },
{ "type": "Feature", "properties": { "name": "竹中", "name:en": "Zhuzhong", "railway": "station", "ele": null, "operator:type": null, "layer": null, "addr:full": null, "addr:city": "新竹縣", "source": null, "name:zh": "竹中", "osm_id": 6548984264, "osm_type": "nodes" }, "geometry": { "type": "Point", "coordinates": [ 121.0312003, 24.7817132 ] } },
{ "type": "Feature", "properties": { "name": "萬華", "name:en": "Wanhua", "railway": "station", "ele": null, "operator:type": null, "layer": null, "addr:full": "臺北市萬華區富福里康定路382號;臺北市萬華區富福里康定路319號", "addr:city": "臺北市", "source": null, "name:zh": "萬華", "osm_id": 1273038428, "osm_type": "nodes" }, "geometry": { "type": "Point", "coordinates": [ 121.4999266, 25.0334399 ] } },
{ "type": "Feature", "properties": { "name": "浮洲", "name:en": "Fuzhou", "railway": "station", "ele": null, "operator:type": null, "layer": null, "addr:full": null, "addr:city": null, "source": null, "name:zh": "浮洲", "osm_id": 1320065245, "osm_type": "nodes" }, "geometry": { "type": "Point", "coordinates": [ 121.4447619, 25.0041917 ] } },
{ "type": "Feature", "properties": { "name": "竹南", "name:en": "Zhunan", "railway": "station", "ele": null, "operator:type": null, "layer": null, "addr:full": null, "addr:city": null, "source": null, "name:zh": "竹南", "osm_id": 1362012027, "osm_type": "nodes" }, "geometry": { "type": "Point", "coordinates": [ 120.8807486, 24.6865595 ] } },
{ "type": "Feature", "properties": { "name": "竹東", "name:en": "Zhudong", "railway": "station", "ele": null, "operator:type": null, "layer": null, "addr:full": null, "addr:city": null, "source": null, "name:zh": "竹東", "osm_id": 1374041041, "osm_type": "nodes" }, "geometry": { "type": "Point", "coordinates": [ 121.0949176, 24.7383459 ] } },
{ "type": "Feature", "properties": { "name": "鹿野", "name:en": "Luye", "railway": "station", "ele": null, "operator:type": null, "layer": null, "addr:full": null, "addr:city": null, "source": null, "name:zh": "鹿野", "osm_id": 1450781905, "osm_type": "nodes" }, "geometry": { "type": "Point", "coordinates": [ 121.1371405, 22.9123929 ] } },
{ "type": "Feature", "properties": { "name": "山里", "name:en": "Shanli", "railway": "station", "ele": null, "operator:type": null, "layer": null, "addr:full": null, "addr:city": null, "source": null, "name:zh": "山里", "osm_id": 1464098386, "osm_type": "nodes" }, "geometry": { "type": "Point", "coordinates": [ 121.1379913, 22.8618154 ] } },
{ "type": "Feature", "properties": { "name": "富里", "name:en": "Fuli", "railway": "station", "ele": null, "operator:type": null, "layer": null, "addr:full": null, "addr:city": null, "source": null, "name:zh": "富里", "osm_id": 1464098684, "osm_type": "nodes" }, "geometry": { "type": "Point", "coordinates": [ 121.2484471, 23.1791523 ] } },
{ "type": "Feature", "properties": { "name": "千甲", "name:en": "Qianjia", "railway": "station", "ele": null, "operator:type": null, "layer": null, "addr:full": null, "addr:city": null, "source": null, "name:zh": "千甲", "osm_id": 1543862084, "osm_type": "nodes" }, "geometry": { "type": "Point", "coordinates": [ 121.0034491, 24.8065917 ] } },
{ "type": "Feature", "properties": { "name": "北新竹", "name:en": "North Hsinchu", "railway": "station", "ele": null, "operator:type": null, "layer": null, "addr:full": null, "addr:city": null, "source": null, "name:zh": "北新竹", "osm_id": 1543862087, "osm_type": "nodes" }, "geometry": { "type": "Point", "coordinates": [ 120.9837899, 24.8086305 ] } },
{ "type": "Feature", "properties": { "name": "新莊", "name:en": "Xinzhuang", "railway": "station", "ele": null, "operator:type": null, "layer": null, "addr:full": null, "addr:city": null, "source": null, "name:zh": "新莊", "osm_id": 1553495847, "osm_type": "nodes" }, "geometry": { "type": "Point", "coordinates": [ 121.0219578, 24.7880929 ] } },
{ "type": "Feature", "properties": { "name": "柳營", "name:en": "Liuying", "railway": "station", "ele": null, "operator:type": null, "layer": null, "addr:full": null, "addr:city": "台南市", "source": null, "name:zh": "柳營", "osm_id": 1642974419, "osm_type": "nodes" }, "geometry": { "type": "Point", "coordinates": [ 120.3225151, 23.2774311 ] } },
{ "type": "Feature", "properties": { "name": "松山", "name:en": "Songshan", "railway": "station", "ele": null, "operator:type": null, "layer": null, "addr:full": null, "addr:city": "臺北市", "source": null, "name:zh": "松山", "osm_id": 1666865098, "osm_type": "nodes" }, "geometry": { "type": "Point", "coordinates": [ 121.5781643, 25.0491542 ] } },
{ "type": "Feature", "properties": { "name": "烏來", "name:en": "Wulai", "railway": "station", "ele": null, "operator:type": null, "layer": null, "addr:full": null, "addr:city": null, "source": null, "name:zh": "烏來", "osm_id": 1726116984, "osm_type": "nodes" }, "geometry": { "type": "Point", "coordinates": [ 121.5511735, 24.8608983 ] } },
{ "type": "Feature", "properties": { "name": "瀑布", "name:en": "Waterfall", "railway": "station", "ele": null, "operator:type": null, "layer": null, "addr:full": null, "addr:city": null, "source": null, "name:zh": "瀑布", "osm_id": 1726117679, "osm_type": "nodes" }, "geometry": { "type": "Point", "coordinates": [ 121.5517714, 24.8492141 ] } },
{ "type": "Feature", "properties": { "name": "南勢", "name:en": "Nanshi", "railway": "station", "ele": null, "operator:type": null, "layer": null, "addr:full": null, "addr:city": null, "source": null, "name:zh": "南勢", "osm_id": 1741147816, "osm_type": "nodes" }, "geometry": { "type": "Point", "coordinates": [ 120.7914276, 24.5226332 ] } },
{ "type": "Feature", "properties": { "name": "石龜", "name:en": "Shigui", "railway": "station", "ele": null, "operator:type": null, "layer": null, "addr:full": null, "addr:city": null, "source": null, "name:zh": "石龜", "osm_id": 1741147823, "osm_type": "nodes" }, "geometry": { "type": "Point", "coordinates": [ 120.4709579, 23.6395621 ] } },
{ "type": "Feature", "properties": { "name": "竹田", "name:en": "Zhutian", "railway": "station", "ele": null, "operator:type": null, "layer": null, "addr:full": "屏東縣竹田鄉履豐村豐明路27號之1", "addr:city": "屏東縣", "source": null, "name:zh": "竹田", "osm_id": 1741147824, "osm_type": "nodes" }, "geometry": { "type": "Point", "coordinates": [ 120.5397507, 22.5865768 ] } },
{ "type": "Feature", "properties": { "name": "談文", "name:en": "Tanwen", "railway": "station", "ele": null, "operator:type": null, "layer": null, "addr:full": null, "addr:city": null, "source": null, "name:zh": "談文", "osm_id": 1741147827, "osm_type": "nodes" }, "geometry": { "type": "Point", "coordinates": [ 120.8582251, 24.6565554 ] } },
{ "type": "Feature", "properties": { "name": "水里", "name:en": "Shuili", "railway": "station", "ele": null, "operator:type": null, "layer": null, "addr:full": null, "addr:city": null, "source": null, "name:zh": "水里", "osm_id": 1793032914, "osm_type": "nodes" }, "geometry": { "type": "Point", "coordinates": [ 120.8532773, 23.8185042 ] } },
{ "type": "Feature", "properties": { "name": "車埕", "name:en": "Checheng", "railway": "station", "ele": null, "operator:type": null, "layer": null, "addr:full": "南投縣水里鄉車埕村民權巷2號", "addr:city": "南投縣", "source": null, "name:zh": "車埕", "osm_id": 1793032917, "osm_type": "nodes" }, "geometry": { "type": "Point", "coordinates": [ 120.8659221, 23.8324779 ] } },
{ "type": "Feature", "properties": { "name": "集集", "name:en": "Jiji", "railway": "station", "ele": null, "operator:type": null, "layer": null, "addr:full": null, "addr:city": null, "source": null, "name:zh": "集集", "osm_id": 1793032918, "osm_type": "nodes" }, "geometry": { "type": "Point", "coordinates": [ 120.7849582, 23.8262675 ] } },
{ "type": "Feature", "properties": { "name": "龍泉", "name:en": "Longquan", "railway": "station", "ele": null, "operator:type": null, "layer": null, "addr:full": null, "addr:city": null, "source": null, "name:zh": "龍泉", "osm_id": 1793130419, "osm_type": "nodes" }, "geometry": { "type": "Point", "coordinates": [ 120.7500417, 23.8352758 ] } },
{ "type": "Feature", "properties": { "name": "池上", "name:en": "Chishang", "railway": "station", "ele": null, "operator:type": null, "layer": null, "addr:full": null, "addr:city": "臺東縣", "source": null, "name:zh": "池上", "osm_id": 2014766929, "osm_type": "nodes" }, "geometry": { "type": "Point", "coordinates": [ 121.2194323, 23.1263204 ] } },
{ "type": "Feature", "properties": { "name": "豐富", "name:en": "Fengfu", "railway": "station", "ele": null, "operator:type": null, "layer": null, "addr:full": "苗栗縣後龍鎮校椅里高鐵一路66號", "addr:city": "苗栗縣", "source": null, "name:zh": "豐富", "osm_id": 6776111810, "osm_type": "nodes" }, "geometry": { "type": "Point", "coordinates": [ 120.8262242, 24.6043348 ] } },
{ "type": "Feature", "properties": { "name": "平溪", "name:en": "Pingxi", "railway": "station", "ele": null, "operator:type": null, "layer": null, "addr:full": null, "addr:city": null, "source": null, "name:zh": "平溪", "osm_id": 6982390423, "osm_type": "nodes" }, "geometry": { "type": "Point", "coordinates": [ 121.7400116, 25.0256629 ] } },
{ "type": "Feature", "properties": { "name": "中洲", "name:en": "Zhongzhou", "railway": "station", "ele": null, "operator:type": null, "layer": null, "addr:full": "臺南市仁德區中洲里中洲五街236號", "addr:city": "臺南市", "source": null, "name:zh": "中洲", "osm_id": 2078257658, "osm_type": "nodes" }, "geometry": { "type": "Point", "coordinates": [ 120.2526302, 22.9039058 ] } },
{ "type": "Feature", "properties": { "name": "九讚頭", "name:en": "Jiuzantou", "railway": "station", "ele": null, "operator:type": null, "layer": null, "addr:full": null, "addr:city": null, "source": null, "name:zh": "九讚頭", "osm_id": 2218584744, "osm_type": "nodes" }, "geometry": { "type": "Point", "coordinates": [ 121.1358875, 24.7204536 ] } },
{ "type": "Feature", "properties": { "name": "富岡", "name:en": "Fugang", "railway": "station", "ele": null, "operator:type": null, "layer": null, "addr:full": "32649桃園市楊梅區成功路37號", "addr:city": "桃園市", "source": null, "name:zh": "富岡", "osm_id": 2387066709, "osm_type": "nodes" }, "geometry": { "type": "Point", "coordinates": [ 121.0828217, 24.9340905 ] } },
{ "type": "Feature", "properties": { "name": "南樹林", "name:en": "South Shulin", "railway": "station", "ele": null, "operator:type": null, "layer": null, "addr:full": null, "addr:city": "新北市", "source": null, "name:zh": "南樹林", "osm_id": 2437055060, "osm_type": "nodes" }, "geometry": { "type": "Point", "coordinates": [ 121.4083869, 24.9803684 ] } },
{ "type": "Feature", "properties": { "name": "貢寮", "name:en": "Gongliao", "railway": "station", "ele": null, "operator:type": null, "layer": null, "addr:full": "新北市貢寮區貢寮里朝陽街33號", "addr:city": "新北市", "source": null, "name:zh": "貢寮", "osm_id": 2542659596, "osm_type": "nodes" }, "geometry": { "type": "Point", "coordinates": [ 121.9088262, 25.0218121 ] } },
{ "type": "Feature", "properties": { "name": "仁德", "name:en": "Rende", "railway": "station", "ele": null, "operator:type": null, "layer": null, "addr:full": null, "addr:city": "臺南市", "source": null, "name:zh": "仁德", "osm_id": 2653313335, "osm_type": "nodes" }, "geometry": { "type": "Point", "coordinates": [ 120.2405179, 22.9233962 ] } },
{ "type": "Feature", "properties": { "name": "民雄", "name:en": "Minxiong", "railway": "station", "ele": null, "operator:type": null, "layer": null, "addr:full": null, "addr:city": null, "source": null, "name:zh": "民雄", "osm_id": 2702429253, "osm_type": "nodes" }, "geometry": { "type": "Point", "coordinates": [ 120.4316823, 23.5552283 ] } },
{ "type": "Feature", "properties": { "name": "大溪", "name:en": "Daxi", "railway": "station", "ele": null, "operator:type": null, "layer": null, "addr:full": null, "addr:city": null, "source": null, "name:zh": "大溪", "osm_id": 2955658619, "osm_type": "nodes" }, "geometry": { "type": "Point", "coordinates": [ 121.8897547, 24.938463 ] } },
{ "type": "Feature", "properties": { "name": "源泉", "name:en": "Yuanquan", "railway": "station", "ele": null, "operator:type": null, "layer": null, "addr:full": null, "addr:city": null, "source": null, "name:zh": "源泉", "osm_id": 3053061849, "osm_type": "nodes" }, "geometry": { "type": "Point", "coordinates": [ 120.6421333, 23.7984833 ] } },
{ "type": "Feature", "properties": { "name": "八斗子", "name:en": "Badouzi", "railway": "station", "ele": null, "operator:type": null, "layer": null, "addr:full": null, "addr:city": null, "source": null, "name:zh": "八斗子", "osm_id": 3074331175, "osm_type": "nodes" }, "geometry": { "type": "Point", "coordinates": [ 121.8036798, 25.1349699 ] } },
{ "type": "Feature", "properties": { "name": "員林", "name:en": "Yuanlin", "railway": "station", "ele": null, "operator:type": null, "layer": null, "addr:full": "51041彰化縣員林市民權街55號", "addr:city": "彰化縣", "source": null, "name:zh": "員林", "osm_id": 3198282781, "osm_type": "nodes" }, "geometry": { "type": "Point", "coordinates": [ 120.5696323, 23.9593485 ] } },
{ "type": "Feature", "properties": { "name": "南靖", "name:en": "Nanjing", "railway": "station", "ele": null, "operator:type": null, "layer": null, "addr:full": null, "addr:city": null, "source": null, "name:zh": "南靖", "osm_id": 3285338897, "osm_type": "nodes" }, "geometry": { "type": "Point", "coordinates": [ 120.3868344, 23.4131904 ] } },
{ "type": "Feature", "properties": { "name": "嘉義", "name:en": "Chiayi", "railway": "station", "ele": null, "operator:type": null, "layer": null, "addr:full": "嘉義市西區番社里13鄰中山路528號", "addr:city": "嘉義市", "source": null, "name:zh": "嘉義", "osm_id": 3285339077, "osm_type": "nodes" }, "geometry": { "type": "Point", "coordinates": [ 120.4415839, 23.4799042 ] } },
{ "type": "Feature", "properties": { "name": "嘉北", "name:en": "Jiabei", "railway": "station", "ele": null, "operator:type": null, "layer": null, "addr:full": null, "addr:city": null, "source": null, "name:zh": "嘉北", "osm_id": 3287145214, "osm_type": "nodes" }, "geometry": { "type": "Point", "coordinates": [ 120.4484233, 23.4998419 ] } },
{ "type": "Feature", "properties": { "name": "太原", "name:en": "Taiyuan", "railway": "station", "ele": null, "operator:type": null, "layer": null, "addr:full": null, "addr:city": "臺中市", "source": null, "name:zh": "太原", "osm_id": 3292850280, "osm_type": "nodes" }, "geometry": { "type": "Point", "coordinates": [ 120.6999517, 24.1641899 ] } },
{ "type": "Feature", "properties": { "name": "造橋", "name:en": "Zaoqiao", "railway": "station", "ele": null, "operator:type": null, "layer": null, "addr:full": "苗栗縣造橋鄉造橋村平仁路54號", "addr:city": "苗栗縣", "source": null, "name:zh": "造橋", "osm_id": 3302457943, "osm_type": "nodes" }, "geometry": { "type": "Point", "coordinates": [ 120.8674346, 24.641736 ] } },
{ "type": "Feature", "properties": { "name": "新竹", "name:en": "Hsinchu", "railway": "station", "ele": null, "operator:type": null, "layer": null, "addr:full": null, "addr:city": "新竹市", "source": null, "name:zh": "新竹", "osm_id": 3372916575, "osm_type": "nodes" }, "geometry": { "type": "Point", "coordinates": [ 120.971678, 24.8014026 ] } },
{ "type": "Feature", "properties": { "name": "大甲", "name:en": "Dajia", "railway": "station", "ele": null, "operator:type": null, "layer": null, "addr:full": "43744臺中市大甲區中山路一段828號", "addr:city": "臺中市", "source": null, "name:zh": "大甲", "osm_id": 3399470977, "osm_type": "nodes" }, "geometry": { "type": "Point", "coordinates": [ 120.6272898, 24.3442542 ] } },
{ "type": "Feature", "properties": { "name": "臺中港", "name:en": "Taichung Port", "railway": "station", "ele": null, "operator:type": null, "layer": null, "addr:full": "43642臺中市清水區頂湳里甲南路2號", "addr:city": "臺中市", "source": null, "name:zh": "台中港", "osm_id": 3408280607, "osm_type": "nodes" }, "geometry": { "type": "Point", "coordinates": [ 120.6026813, 24.304341 ] } },
{ "type": "Feature", "properties": { "name": "清水", "name:en": "Qingshui", "railway": "station", "ele": null, "operator:type": null, "layer": null, "addr:full": "43653臺中市清水區南社里中正街115號", "addr:city": "臺中市", "source": null, "name:zh": "清水", "osm_id": 3415457737, "osm_type": "nodes" }, "geometry": { "type": "Point", "coordinates": [ 120.5688397, 24.2635258 ] } },
{ "type": "Feature", "properties": { "name": "追分", "name:en": "Zhuifen", "railway": "station", "ele": null, "operator:type": null, "layer": null, "addr:full": "臺中市大肚區追分街13號", "addr:city": "臺中市", "source": null, "name:zh": "追分", "osm_id": 3444470335, "osm_type": "nodes" }, "geometry": { "type": "Point", "coordinates": [ 120.5701241, 24.1202267 ] } },
{ "type": "Feature", "properties": { "name": "新烏日", "name:en": "Xinwuri", "railway": "station", "ele": null, "operator:type": null, "layer": null, "addr:full": "41456臺中市烏日區高鐵東一路26號", "addr:city": "臺中市", "source": null, "name:zh": "新烏日", "osm_id": 3449996899, "osm_type": "nodes" }, "geometry": { "type": "Point", "coordinates": [ 120.6141012, 24.109857 ] } },
{ "type": "Feature", "properties": { "name": "龍井", "name:en": "Longjing", "railway": "station", "ele": null, "operator:type": null, "layer": null, "addr:full": "43450臺中市龍井區龍泉村龍新路1號", "addr:city": "臺中市", "source": null, "name:zh": "龍井", "osm_id": 3450848999, "osm_type": "nodes" }, "geometry": { "type": "Point", "coordinates": [ 120.5431394, 24.1975317 ] } },
{ "type": "Feature", "properties": { "name": "沙鹿", "name:en": "Shalu", "railway": "station", "ele": null, "operator:type": null, "layer": null, "addr:full": null, "addr:city": null, "source": null, "name:zh": "沙鹿", "osm_id": 3451894604, "osm_type": "nodes" }, "geometry": { "type": "Point", "coordinates": [ 120.5573677, 24.2371296 ] } },
{ "type": "Feature", "properties": { "name": "海端", "name:en": "Haiduan", "railway": "station", "ele": null, "operator:type": null, "layer": null, "addr:full": "臺東縣關山鎮西莊49號", "addr:city": "臺東縣", "source": null, "name:zh": "海端", "osm_id": 3514971883, "osm_type": "nodes" }, "geometry": { "type": "Point", "coordinates": [ 121.1773012, 23.1021207 ] } },
{ "type": "Feature", "properties": { "name": "關山", "name:en": "Guanshan", "railway": "station", "ele": null, "operator:type": null, "layer": null, "addr:full": "95662臺東縣關山鎮博愛路2號", "addr:city": "臺東縣", "source": null, "name:zh": "關山", "osm_id": 3521771200, "osm_type": "nodes" }, "geometry": { "type": "Point", "coordinates": [ 121.1644913, 23.0456214 ] } },
{ "type": "Feature", "properties": { "name": "瑞源", "name:en": "Ruiyuan", "railway": "station", "ele": null, "operator:type": null, "layer": null, "addr:full": null, "addr:city": null, "source": null, "name:zh": "瑞源", "osm_id": 3522858415, "osm_type": "nodes" }, "geometry": { "type": "Point", "coordinates": [ 121.1592121, 22.9560275 ] } },
{ "type": "Feature", "properties": { "name": "六家", "name:en": "Liujia", "railway": "station", "ele": null, "operator:type": null, "layer": null, "addr:full": null, "addr:city": null, "source": null, "name:zh": "六家", "osm_id": 3560261986, "osm_type": "nodes" }, "geometry": { "type": "Point", "coordinates": [ 121.039374, 24.8073437 ] } },
{ "type": "Feature", "properties": { "name": "正義", "name:en": "Zhengyi", "railway": "station", "ele": null, "operator:type": null, "layer": null, "addr:full": null, "addr:city": "高雄市", "source": null, "name:zh": "正義", "osm_id": 3627048344, "osm_type": "nodes" }, "geometry": { "type": "Point", "coordinates": [ 120.3427383, 22.6341158 ] } },
{ "type": "Feature", "properties": { "name": "民族", "name:en": "Minzu", "railway": "station", "ele": null, "operator:type": null, "layer": null, "addr:full": null, "addr:city": "高雄市", "source": null, "name:zh": "民族", "osm_id": 3627058780, "osm_type": "nodes" }, "geometry": { "type": "Point", "coordinates": [ 120.3150956, 22.6387002 ] } },
{ "type": "Feature", "properties": { "name": "冬山", "name:en": "Dongshan", "railway": "station", "ele": null, "operator:type": null, "layer": null, "addr:full": "宜蘭縣冬山鄉冬山村中正路1-2號", "addr:city": "宜蘭縣", "source": null, "name:zh": "冬山", "osm_id": 3666872309, "osm_type": "nodes" }, "geometry": { "type": "Point", "coordinates": [ 121.7920744, 24.6368241 ] } },
{ "type": "Feature", "properties": { "name": "泰安", "name:en": "Tai'an", "railway": "station", "ele": null, "operator:type": null, "layer": null, "addr:full": "42156臺中市后里區安眉路37-12號", "addr:city": "臺中市", "source": null, "name:zh": "泰安", "osm_id": 3675776497, "osm_type": "nodes" }, "geometry": { "type": "Point", "coordinates": [ 120.741782, 24.3312191 ] } },
{ "type": "Feature", "properties": { "name": "苑裡", "name:en": "Yuanli", "railway": "station", "ele": null, "operator:type": null, "layer": null, "addr:full": null, "addr:city": null, "source": null, "name:zh": "苑裡", "osm_id": 3727909709, "osm_type": "nodes" }, "geometry": { "type": "Point", "coordinates": [ 120.6512083, 24.443494 ] } },
{ "type": "Feature", "properties": { "name": "彰化", "name:en": "Changhua", "railway": "station", "ele": null, "operator:type": null, "layer": null, "addr:full": "彰化縣田中鎮龍潭里站區路二段99號", "addr:city": "彰化縣", "source": null, "name:zh": "彰化", "osm_id": 3738855069, "osm_type": "nodes" }, "geometry": { "type": "Point", "coordinates": [ 120.5751947, 23.8741536 ] } },
{ "type": "Feature", "properties": { "name": "臺北", "name:en": "Taipei", "railway": "station", "ele": null, "operator:type": null, "layer": null, "addr:full": "10041臺北市中正區北平西路3號", "addr:city": "臺北市", "source": null, "name:zh": "臺北", "osm_id": 3799089099, "osm_type": "nodes" }, "geometry": { "type": "Point", "coordinates": [ 121.5170046, 25.0479308 ] } },
{ "type": "Feature", "properties": { "name": "台中", "name:en": "Taichung", "railway": "station", "ele": null, "operator:type": null, "layer": null, "addr:full": "41456臺中市烏日區站區二路8號", "addr:city": "臺中市", "source": null, "name:zh": "台中", "osm_id": 3833813273, "osm_type": "nodes" }, "geometry": { "type": "Point", "coordinates": [ 120.6158968, 24.1121054 ] } },
{ "type": "Feature", "properties": { "name": "烏日", "name:en": "Wuri", "railway": "station", "ele": null, "operator:type": null, "layer": null, "addr:full": "41442臺中市烏日區三民街258號", "addr:city": "臺中市", "source": null, "name:zh": "烏日", "osm_id": 3833813274, "osm_type": "nodes" }, "geometry": { "type": "Point", "coordinates": [ 120.6224404, 24.1089645 ] } },
{ "type": "Feature", "properties": { "name": "東里", "name:en": "Dongli", "railway": "station", "ele": null, "operator:type": null, "layer": null, "addr:full": null, "addr:city": null, "source": null, "name:zh": "東里", "osm_id": 3931764482, "osm_type": "nodes" }, "geometry": { "type": "Point", "coordinates": [ 121.303996, 23.2724277 ] } },
{ "type": "Feature", "properties": { "name": "新竹", "name:en": "Hsinchu", "railway": "station", "ele": null, "operator:type": null, "layer": null, "addr:full": null, "addr:city": null, "source": null, "name:zh": "新竹", "osm_id": 3933501989, "osm_type": "nodes" }, "geometry": { "type": "Point", "coordinates": [ 121.0402163, 24.8083247 ] } },
{ "type": "Feature", "properties": { "name": "台南", "name:en": "Tainan", "railway": "station", "ele": null, "operator:type": null, "layer": null, "addr:full": null, "addr:city": null, "source": null, "name:zh": "台南", "osm_id": 3933530679, "osm_type": "nodes" }, "geometry": { "type": "Point", "coordinates": [ 120.2864152, 22.924673 ] } },
{ "type": "Feature", "properties": { "name": "嘉義", "name:en": "Chiayi", "railway": "station", "ele": null, "operator:type": null, "layer": null, "addr:full": null, "addr:city": null, "source": null, "name:zh": "嘉義", "osm_id": 3933530680, "osm_type": "nodes" }, "geometry": { "type": "Point", "coordinates": [ 120.3237915, 23.4592368 ] } },
{ "type": "Feature", "properties": { "name": "板橋", "name:en": "Banqiao", "railway": "station", "ele": null, "operator:type": null, "layer": null, "addr:full": "220新北市板橋區縣民大道二段7號", "addr:city": "新北市", "source": null, "name:zh": "板橋", "osm_id": 3933530681, "osm_type": "nodes" }, "geometry": { "type": "Point", "coordinates": [ 121.4642616, 25.0137054 ] } },
{ "type": "Feature", "properties": { "name": "和平", "name:en": "Heping", "railway": "station", "ele": null, "operator:type": null, "layer": null, "addr:full": null, "addr:city": null, "source": null, "name:zh": "和平", "osm_id": 3949466802, "osm_type": "nodes" }, "geometry": { "type": "Point", "coordinates": [ 121.754702, 24.2978451 ] } },
{ "type": "Feature", "properties": { "name": "新城 (太魯閣)", "name:en": "Xincheng (Taroko)", "railway": "station", "ele": null, "operator:type": null, "layer": null, "addr:full": null, "addr:city": null, "source": null, "name:zh": "新城（太魯閣）", "osm_id": 3949466803, "osm_type": "nodes" }, "geometry": { "type": "Point", "coordinates": [ 121.6407022, 24.1280488 ] } },
{ "type": "Feature", "properties": { "name": "永樂", "name:en": "Yongle", "railway": "station", "ele": null, "operator:type": null, "layer": null, "addr:full": null, "addr:city": null, "source": null, "name:zh": "永樂", "osm_id": 3949466804, "osm_type": "nodes" }, "geometry": { "type": "Point", "coordinates": [ 121.8445574, 24.5683884 ] } },
{ "type": "Feature", "properties": { "name": "漢本", "name:en": "Hanben", "railway": "station", "ele": null, "operator:type": null, "layer": null, "addr:full": null, "addr:city": null, "source": null, "name:zh": "漢本", "osm_id": 3949466805, "osm_type": "nodes" }, "geometry": { "type": "Point", "coordinates": [ 121.7681257, 24.3338033 ] } },
{ "type": "Feature", "properties": { "name": "北埔", "name:en": "Beipu", "railway": "station", "ele": null, "operator:type": null, "layer": null, "addr:full": null, "addr:city": null, "source": null, "name:zh": "北埔", "osm_id": 3951206307, "osm_type": "nodes" }, "geometry": { "type": "Point", "coordinates": [ 121.6012598, 24.0326028 ] } },
{ "type": "Feature", "properties": { "name": "南澳", "name:en": "Nan'ao", "railway": "station", "ele": null, "operator:type": null, "layer": null, "addr:full": null, "addr:city": null, "source": null, "name:zh": "南澳", "osm_id": 3951206308, "osm_type": "nodes" }, "geometry": { "type": "Point", "coordinates": [ 121.8013418, 24.463079 ] } },
{ "type": "Feature", "properties": { "name": "和仁", "name:en": "Heren", "railway": "station", "ele": null, "operator:type": null, "layer": null, "addr:full": "花蓮縣秀林鄉和平村和仁路71號", "addr:city": "花蓮縣", "source": null, "name:zh": "和仁", "osm_id": 3951206309, "osm_type": "nodes" }, "geometry": { "type": "Point", "coordinates": [ 121.7124635, 24.2415832 ] } },
{ "type": "Feature", "properties": { "name": "崇德", "name:en": "Chongde", "railway": "station", "ele": null, "operator:type": null, "layer": null, "addr:full": "花蓮縣秀林鄉崇德村海濱路96號", "addr:city": "花蓮縣", "source": null, "name:zh": "崇德", "osm_id": 3951206310, "osm_type": "nodes" }, "geometry": { "type": "Point", "coordinates": [ 121.6556882, 24.1717336 ] } },
{ "type": "Feature", "properties": { "name": "景美", "name:en": "Jingmei", "railway": "station", "ele": null, "operator:type": null, "layer": null, "addr:full": null, "addr:city": null, "source": null, "name:zh": "景美", "osm_id": 3951206311, "osm_type": "nodes" }, "geometry": { "type": "Point", "coordinates": [ 121.610607, 24.0903947 ] } },
{ "type": "Feature", "properties": { "name": "東澳", "name:en": "Dong'ao", "railway": "station", "ele": null, "operator:type": null, "layer": null, "addr:full": null, "addr:city": null, "source": null, "name:zh": "東澳", "osm_id": 3951206312, "osm_type": "nodes" }, "geometry": { "type": "Point", "coordinates": [ 121.830712, 24.5177786 ] } },
{ "type": "Feature", "properties": { "name": "佳冬", "name:en": "Jiadong", "railway": "station", "ele": null, "operator:type": null, "layer": null, "addr:full": null, "addr:city": null, "source": null, "name:zh": "佳冬", "osm_id": 1021638246, "osm_type": "nodes" }, "geometry": { "type": "Point", "coordinates": [ 120.5475793, 22.4138262 ] } },
{ "type": "Feature", "properties": { "name": "西勢", "name:en": "Xishi", "railway": "station", "ele": null, "operator:type": null, "layer": null, "addr:full": null, "addr:city": null, "source": null, "name:zh": "西勢", "osm_id": 1021638300, "osm_type": "nodes" }, "geometry": { "type": "Point", "coordinates": [ 120.5265105, 22.6162442 ] } },
{ "type": "Feature", "properties": { "name": "林邊", "name:en": "Linbian", "railway": "station", "ele": null, "operator:type": null, "layer": null, "addr:full": null, "addr:city": null, "source": null, "name:zh": "林邊", "osm_id": 1021638434, "osm_type": "nodes" }, "geometry": { "type": "Point", "coordinates": [ 120.5150275, 22.4314927 ] } },
{ "type": "Feature", "properties": { "name": "南州", "name:en": "Nanzhou", "railway": "station", "ele": null, "operator:type": null, "layer": null, "addr:full": null, "addr:city": null, "source": null, "name:zh": "南州", "osm_id": 1021638945, "osm_type": "nodes" }, "geometry": { "type": "Point", "coordinates": [ 120.5120407, 22.4918196 ] } },
{ "type": "Feature", "properties": { "name": "內灣", "name:en": "Neiwan", "railway": "station", "ele": null, "operator:type": null, "layer": null, "addr:full": null, "addr:city": null, "source": null, "name:zh": "內灣", "osm_id": 1067352403, "osm_type": "nodes" }, "geometry": { "type": "Point", "coordinates": [ 121.1827511, 24.7052661 ] } },
{ "type": "Feature", "properties": { "name": "神木", "name:en": "Shenmu", "railway": "station", "ele": null, "operator:type": null, "layer": null, "addr:full": null, "addr:city": null, "source": null, "name:zh": "神木", "osm_id": 7384310302, "osm_type": "nodes" }, "geometry": { "type": "Point", "coordinates": [ 120.807946, 23.5187352 ] } },
{ "type": "Feature", "properties": { "name": "北門", "name:en": "Beimen", "railway": "station", "ele": null, "operator:type": null, "layer": null, "addr:full": null, "addr:city": null, "source": null, "name:zh": "北門", "osm_id": 7384310306, "osm_type": "nodes" }, "geometry": { "type": "Point", "coordinates": [ 120.4544504, 23.4878431 ] } },
{ "type": "Feature", "properties": { "name": "蘇澳新", "name:en": "Su'aoxin", "railway": "station", "ele": null, "operator:type": null, "layer": null, "addr:full": null, "addr:city": null, "source": null, "name:zh": "蘇澳新", "osm_id": 3951206313, "osm_type": "nodes" }, "geometry": { "type": "Point", "coordinates": [ 121.828149, 24.6082494 ] } },
{ "type": "Feature", "properties": { "name": "菁桐", "name:en": "Jingtong", "railway": "station", "ele": null, "operator:type": null, "layer": null, "addr:full": null, "addr:city": null, "source": null, "name:zh": "菁桐", "osm_id": 3951752488, "osm_type": "nodes" }, "geometry": { "type": "Point", "coordinates": [ 121.7238692, 25.023978 ] } },
{ "type": "Feature", "properties": { "name": "八堵", "name:en": "Badu", "railway": "station", "ele": null, "operator:type": null, "layer": null, "addr:full": null, "addr:city": "基隆市", "source": null, "name:zh": "八堵", "osm_id": 3984191719, "osm_type": "nodes" }, "geometry": { "type": "Point", "coordinates": [ 121.7290072, 25.1084954 ] } },
{ "type": "Feature", "properties": { "name": "百福", "name:en": "Baifu", "railway": "station", "ele": null, "operator:type": null, "layer": null, "addr:full": null, "addr:city": null, "source": null, "name:zh": "百福", "osm_id": 3984191720, "osm_type": "nodes" }, "geometry": { "type": "Point", "coordinates": [ 121.694768, 25.0781714 ] } },
{ "type": "Feature", "properties": { "name": "蘇澳", "name:en": "Su'ao", "railway": "station", "ele": null, "operator:type": null, "layer": null, "addr:full": null, "addr:city": null, "source": null, "name:zh": "蘇澳", "osm_id": 4032983974, "osm_type": "nodes" }, "geometry": { "type": "Point", "coordinates": [ 121.8514536, 24.5951769 ] } },
{ "type": "Feature", "properties": { "name": "礁溪", "name:en": "Jiaoxi", "railway": "station", "ele": null, "operator:type": null, "layer": null, "addr:full": null, "addr:city": null, "source": null, "name:zh": "礁溪", "osm_id": 4060936357, "osm_type": "nodes" }, "geometry": { "type": "Point", "coordinates": [ 121.7754851, 24.826803 ] } },
{ "type": "Feature", "properties": { "name": "鹿滿(鹿麻產)", "name:en": "Lumachan", "railway": "station", "ele": null, "operator:type": null, "layer": null, "addr:full": "嘉義縣竹崎鄉鹿滿村下溪心61之3號", "addr:city": "嘉義縣", "source": null, "name:zh": "鹿滿(鹿麻產)", "osm_id": 4127577205, "osm_type": "nodes" }, "geometry": { "type": "Point", "coordinates": [ 120.5315302, 23.5042637 ] } },
{ "type": "Feature", "properties": { "name": "大華", "name:en": "Dahua", "railway": "station", "ele": null, "operator:type": null, "layer": null, "addr:full": null, "addr:city": null, "source": null, "name:zh": "大華", "osm_id": 4131992947, "osm_type": "nodes" }, "geometry": { "type": "Point", "coordinates": [ 121.7974777, 25.0498565 ] } },
{ "type": "Feature", "properties": { "name": "對高岳", "name:en": "Duigaoyue", "railway": "station", "ele": null, "operator:type": null, "layer": null, "addr:full": null, "addr:city": null, "source": "survey", "name:zh": "對高岳", "osm_id": 4206985729, "osm_type": "nodes" }, "geometry": { "type": "Point", "coordinates": [ 120.8200348, 23.5171522 ] } },
{ "type": "Feature", "properties": { "name": "南港", "name:en": "Nangang", "railway": "station", "ele": null, "operator:type": null, "layer": null, "addr:full": null, "addr:city": null, "source": null, "name:zh": "南港", "osm_id": 4275358087, "osm_type": "nodes" }, "geometry": { "type": "Point", "coordinates": [ 121.6073062, 25.0532772 ] } },
{ "type": "Feature", "properties": { "name": "南港", "name:en": "Nangang", "railway": "station", "ele": null, "operator:type": null, "layer": null, "addr:full": "臺北市南港區南港里南港路一段313號", "addr:city": "臺北市", "source": null, "name:zh": "南港", "osm_id": 4275358088, "osm_type": "nodes" }, "geometry": { "type": "Point", "coordinates": [ 121.6072576, 25.0528686 ] } },
{ "type": "Feature", "properties": { "name": "香山", "name:en": "Xiangshan", "railway": "station", "ele": null, "operator:type": null, "layer": null, "addr:full": null, "addr:city": "新竹市", "source": null, "name:zh": "香山", "osm_id": 4329493559, "osm_type": "nodes" }, "geometry": { "type": "Point", "coordinates": [ 120.9140702, 24.7629187 ] } },
{ "type": "Feature", "properties": { "name": "日南", "name:en": "Rinan", "railway": "station", "ele": null, "operator:type": null, "layer": null, "addr:full": null, "addr:city": null, "source": null, "name:zh": "日南", "osm_id": 4393738595, "osm_type": "nodes" }, "geometry": { "type": "Point", "coordinates": [ 120.6543999, 24.3778315 ] } },
{ "type": "Feature", "properties": { "name": "栗林", "name:en": "Lilin", "railway": "station", "ele": null, "operator:type": null, "layer": null, "addr:full": "臺中市潭子區中山路二段352-1號", "addr:city": "臺中市", "source": null, "name:zh": "栗林", "osm_id": 4398958249, "osm_type": "nodes" }, "geometry": { "type": "Point", "coordinates": [ 120.7106275, 24.2345999 ] } },
{ "type": "Feature", "properties": { "name": "松竹", "name:en": "Songzhu", "railway": "station", "ele": null, "operator:type": null, "layer": null, "addr:full": "臺中市北屯區松竹路一段1473巷100號", "addr:city": "臺中市", "source": null, "name:zh": "松竹", "osm_id": 4399070164, "osm_type": "nodes" }, "geometry": { "type": "Point", "coordinates": [ 120.7019548, 24.1798722 ] } },
{ "type": "Feature", "properties": { "name": "頭家厝", "name:en": "Toujiacuo", "railway": "station", "ele": null, "operator:type": null, "layer": null, "addr:full": "臺中市潭子區頭家東里頭張東路43巷8號", "addr:city": "臺中市", "source": null, "name:zh": "頭家厝", "osm_id": 4399071720, "osm_type": "nodes" }, "geometry": { "type": "Point", "coordinates": [ 120.7039417, 24.1952609 ] } },
{ "type": "Feature", "properties": { "name": "精武", "name:en": "Jingwu", "railway": "station", "ele": null, "operator:type": null, "layer": null, "addr:full": "臺中市東區東光路161號", "addr:city": "台中市", "source": null, "name:zh": "精武", "osm_id": 4399076119, "osm_type": "nodes" }, "geometry": { "type": "Point", "coordinates": [ 120.6978007, 24.1493262 ] } },
{ "type": "Feature", "properties": { "name": "五權", "name:en": "Wuquan", "railway": "station", "ele": null, "operator:type": null, "layer": null, "addr:full": "臺中市南區建國南路二段201號", "addr:city": "臺中市", "source": null, "name:zh": "五權", "osm_id": 4399387313, "osm_type": "nodes" }, "geometry": { "type": "Point", "coordinates": [ 120.666686, 24.1288086 ] } },
{ "type": "Feature", "properties": { "name": "埔心", "name:en": "Puxin", "railway": "station", "ele": null, "operator:type": null, "layer": null, "addr:full": null, "addr:city": null, "source": null, "name:zh": "埔心", "osm_id": 4420612322, "osm_type": "nodes" }, "geometry": { "type": "Point", "coordinates": [ 121.1836192, 24.919647 ] } },
{ "type": "Feature", "properties": { "name": "林榮新光", "name:en": "Linrong Shin Kong", "railway": "station", "ele": null, "operator:type": null, "layer": null, "addr:full": "975花蓮縣鳳林鎮林榮里55號", "addr:city": "花蓮縣", "source": null, "name:zh": "林榮新光", "osm_id": 4447087998, "osm_type": "nodes" }, "geometry": { "type": "Point", "coordinates": [ 121.4620218, 23.8025895 ] } },
{ "type": "Feature", "properties": { "name": "潭子", "name:en": "Tanzi", "railway": "station", "ele": null, "operator:type": null, "layer": null, "addr:full": null, "addr:city": null, "source": null, "name:zh": "潭子", "osm_id": 4449243884, "osm_type": "nodes" }, "geometry": { "type": "Point", "coordinates": [ 120.7058646, 24.212502 ] } },
{ "type": "Feature", "properties": { "name": "臺中", "name:en": "Taichung", "railway": "station", "ele": null, "operator:type": null, "layer": null, "addr:full": "臺中市中區臺灣大道一段1號", "addr:city": "臺中市", "source": null, "name:zh": "臺中", "osm_id": 4449245395, "osm_type": "nodes" }, "geometry": { "type": "Point", "coordinates": [ 120.6868667, 24.1370662 ] } },
{ "type": "Feature", "properties": { "name": "豐原", "name:en": "Fengyuan", "railway": "station", "ele": null, "operator:type": null, "layer": null, "addr:full": "臺中市豐原區中正路1-1號", "addr:city": "臺中市", "source": null, "name:zh": "豐原", "osm_id": 4449245396, "osm_type": "nodes" }, "geometry": { "type": "Point", "coordinates": [ 120.7236842, 24.2545422 ] } },
{ "type": "Feature", "properties": { "name": "三姓橋", "name:en": "Sanxingqiao", "railway": "station", "ele": null, "operator:type": null, "layer": null, "addr:full": null, "addr:city": "新竹市", "source": null, "name:zh": "三姓橋", "osm_id": 4450762389, "osm_type": "nodes" }, "geometry": { "type": "Point", "coordinates": [ 120.9282199, 24.7872315 ] } },
{ "type": "Feature", "properties": { "name": "新市", "name:en": "Xinshi", "railway": "station", "ele": null, "operator:type": null, "layer": null, "addr:full": null, "addr:city": "臺南市", "source": null, "name:zh": "新市", "osm_id": 4573386309, "osm_type": "nodes" }, "geometry": { "type": "Point", "coordinates": [ 120.2897209, 23.0682229 ] } },
{ "type": "Feature", "properties": { "name": "永康", "name:en": "Yongkang", "railway": "station", "ele": null, "operator:type": null, "layer": null, "addr:full": null, "addr:city": "臺南市", "source": null, "name:zh": "永康", "osm_id": 4573389959, "osm_type": "nodes" }, "geometry": { "type": "Point", "coordinates": [ 120.2534441, 23.0385558 ] } },
{ "type": "Feature", "properties": { "name": "大橋", "name:en": "Daqiao", "railway": "station", "ele": null, "operator:type": null, "layer": null, "addr:full": null, "addr:city": "臺南市", "source": null, "name:zh": "大橋", "osm_id": 4573389962, "osm_type": "nodes" }, "geometry": { "type": "Point", "coordinates": [ 120.2243018, 23.0194271 ] } },
{ "type": "Feature", "properties": { "name": "南科", "name:en": "Nanke", "railway": "station", "ele": null, "operator:type": null, "layer": null, "addr:full": "臺南市新市區大營里大營287-300號", "addr:city": "台南市", "source": null, "name:zh": "南科", "osm_id": 4573410386, "osm_type": "nodes" }, "geometry": { "type": "Point", "coordinates": [ 120.3019684, 23.1072447 ] } },
{ "type": "Feature", "properties": { "name": "科工館", "name:en": "Science and Technology Museum", "railway": "station", "ele": null, "operator:type": null, "layer": null, "addr:full": null, "addr:city": null, "source": null, "name:zh": "科工館", "osm_id": 11633798276, "osm_type": "nodes" }, "geometry": { "type": "Point", "coordinates": [ 120.3262783, 22.6370618 ] } },
{ "type": "Feature", "properties": { "name": "行天宮", "name:en": "Xingtian Temple", "railway": "station", "ele": null, "operator:type": null, "layer": null, "addr:full": null, "addr:city": "臺北市", "source": null, "name:zh": "行天宮", "osm_id": 1493007672, "osm_type": "nodes" }, "geometry": { "type": "Point", "coordinates": [ 121.5331615, 25.0594133 ] } },
{ "type": "Feature", "properties": { "name": "高雄花卉農園中心站", "name:en": null, "railway": "station", "ele": null, "operator:type": null, "layer": null, "addr:full": null, "addr:city": null, "source": null, "name:zh": null, "osm_id": 2730669886, "osm_type": "nodes" }, "geometry": { "type": "Point", "coordinates": [ 120.3242846, 22.743041 ] } },
{ "type": "Feature", "properties": { "name": "蒜頭車站", "name:en": null, "railway": "station", "ele": null, "operator:type": null, "layer": null, "addr:full": null, "addr:city": null, "source": null, "name:zh": null, "osm_id": 2738933736, "osm_type": "nodes" }, "geometry": { "type": "Point", "coordinates": [ 120.3008946, 23.4795262 ] } },
{ "type": "Feature", "properties": { "name": "北投", "name:en": "Beitou", "railway": "station", "ele": null, "operator:type": null, "layer": null, "addr:full": "11246臺北市北投區光明路1號", "addr:city": "台北市", "source": null, "name:zh": "北投", "osm_id": 3495094882, "osm_type": "nodes" }, "geometry": { "type": "Point", "coordinates": [ 121.4985934, 25.1319307 ] } },
{ "type": "Feature", "properties": { "name": "竹崎", "name:en": "Zhuqi", "railway": "station", "ele": null, "operator:type": null, "layer": null, "addr:full": "嘉義縣竹崎鄉竹崎村舊車站11號", "addr:city": "嘉義縣", "source": null, "name:zh": "竹崎", "osm_id": 1151264469, "osm_type": "nodes" }, "geometry": { "type": "Point", "coordinates": [ 120.5536102, 23.5256223 ] } },
{ "type": "Feature", "properties": { "name": "沼平", "name:en": "Zhaoping", "railway": "station", "ele": "2274", "operator:type": null, "layer": null, "addr:full": null, "addr:city": null, "source": null, "name:zh": "沼平", "osm_id": 2368313064, "osm_type": "nodes" }, "geometry": { "type": "Point", "coordinates": [ 120.8139361, 23.5144467 ] } },
{ "type": "Feature", "properties": { "name": "二萬平", "name:en": "Erwanping", "railway": "station", "ele": "2000", "operator:type": null, "layer": null, "addr:full": null, "addr:city": null, "source": null, "name:zh": "二萬平", "osm_id": 2368313598, "osm_type": "nodes" }, "geometry": { "type": "Point", "coordinates": [ 120.7901441, 23.5089707 ] } },
{ "type": "Feature", "properties": { "name": "木屐寮", "name:en": "Mujiliao", "railway": "station", "ele": null, "operator:type": null, "layer": null, "addr:full": null, "addr:city": null, "source": null, "name:zh": "木屐寮", "osm_id": 2377637377, "osm_type": "nodes" }, "geometry": { "type": "Point", "coordinates": [ 120.5769979, 23.537402 ] } },
{ "type": "Feature", "properties": { "name": "樟腦寮", "name:en": "Zhangnaoliao", "railway": "station", "ele": null, "operator:type": null, "layer": null, "addr:full": null, "addr:city": null, "source": null, "name:zh": "樟腦寮", "osm_id": 2377637378, "osm_type": "nodes" }, "geometry": { "type": "Point", "coordinates": [ 120.6026707, 23.5327812 ] } },
{ "type": "Feature", "properties": { "name": "交力坪", "name:en": "Jiaoliping", "railway": "station", "ele": null, "operator:type": null, "layer": null, "addr:full": null, "addr:city": null, "source": null, "name:zh": "交力坪", "osm_id": 2377741630, "osm_type": "nodes" }, "geometry": { "type": "Point", "coordinates": [ 120.6437657, 23.5314477 ] } },
{ "type": "Feature", "properties": { "name": "梨園寮", "name:en": "Liyuanliao", "railway": "station", "ele": "904", "operator:type": null, "layer": null, "addr:full": null, "addr:city": null, "source": null, "name:zh": "梨園寮", "osm_id": 2377741631, "osm_type": "nodes" }, "geometry": { "type": "Point", "coordinates": [ 120.6200511, 23.542366 ] } },
{ "type": "Feature", "properties": { "name": "獨立山", "name:en": "Dulishan", "railway": "station", "ele": null, "operator:type": null, "layer": null, "addr:full": null, "addr:city": null, "source": null, "name:zh": "獨立山", "osm_id": 2377741633, "osm_type": "nodes" }, "geometry": { "type": "Point", "coordinates": [ 120.6074455, 23.5386106 ] } },
{ "type": "Feature", "properties": { "name": "祝山", "name:en": "Zhushan", "railway": "station", "ele": "2451", "operator:type": null, "layer": null, "addr:full": null, "addr:city": null, "source": null, "name:zh": "祝山", "osm_id": 2381046036, "osm_type": "nodes" }, "geometry": { "type": "Point", "coordinates": [ 120.8230003, 23.5101762 ] } },
{ "type": "Feature", "properties": { "name": "阿里山", "name:en": "Alishan", "railway": "station", "ele": "2216", "operator:type": null, "layer": null, "addr:full": null, "addr:city": null, "source": null, "name:zh": "阿里山", "osm_id": 2381221953, "osm_type": "nodes" }, "geometry": { "type": "Point", "coordinates": [ 120.8043442, 23.5100028 ] } },
{ "type": "Feature", "properties": { "name": "十字路", "name:en": "Shizilu", "railway": "station", "ele": "1534", "operator:type": null, "layer": null, "addr:full": null, "addr:city": null, "source": null, "name:zh": "十字路", "osm_id": 2381233201, "osm_type": "nodes" }, "geometry": { "type": "Point", "coordinates": [ 120.7539935, 23.49276 ] } },
{ "type": "Feature", "properties": { "name": "多林", "name:en": "Duolin", "railway": "station", "ele": "1516", "operator:type": null, "layer": null, "addr:full": null, "addr:city": null, "source": null, "name:zh": "多林", "osm_id": 2381259650, "osm_type": "nodes" }, "geometry": { "type": "Point", "coordinates": [ 120.7306512, 23.4986935 ] } },
{ "type": "Feature", "properties": { "name": "奮起湖", "name:en": "Fenqihu", "railway": "station", "ele": "1403", "operator:type": null, "layer": null, "addr:full": null, "addr:city": null, "source": null, "name:zh": "奮起湖", "osm_id": 2381259825, "osm_type": "nodes" }, "geometry": { "type": "Point", "coordinates": [ 120.6949203, 23.5053414 ] } },
{ "type": "Feature", "properties": { "name": "水社寮", "name:en": "Shuisheliao", "railway": "station", "ele": null, "operator:type": null, "layer": null, "addr:full": null, "addr:city": null, "source": null, "name:zh": "水社寮", "osm_id": 2381273050, "osm_type": "nodes" }, "geometry": { "type": "Point", "coordinates": [ 120.6595117, 23.5043486 ] } },
{ "type": "Feature", "properties": { "name": "第一分道", "name:en": "1st Switch", "railway": "station", "ele": null, "operator:type": null, "layer": null, "addr:full": null, "addr:city": null, "source": null, "name:zh": null, "osm_id": 7092439181, "osm_type": "nodes" }, "geometry": { "type": "Point", "coordinates": [ 120.795529, 23.5214148 ] } },
{ "type": "Feature", "properties": { "name": "加祿", "name:en": "Jialu", "railway": "station", "ele": null, "operator:type": null, "layer": null, "addr:full": null, "addr:city": null, "source": null, "name:zh": "加祿", "osm_id": 1021638102, "osm_type": "nodes" }, "geometry": { "type": "Point", "coordinates": [ 120.6249792, 22.330937 ] } },
{ "type": "Feature", "properties": { "name": "古莊號誌", "name:en": "Guzhuang Signal", "railway": "station", "ele": null, "operator:type": null, "layer": null, "addr:full": null, "addr:city": null, "source": null, "name:zh": "古莊號誌", "osm_id": 1741147817, "osm_type": "nodes" }, "geometry": { "type": "Point", "coordinates": [ 120.8776936, 22.3455988 ] } },
{ "type": "Feature", "properties": { "name": "康樂", "name:en": "Kangle", "railway": "station", "ele": null, "operator:type": null, "layer": null, "addr:full": "95060臺東縣臺東市博物館路51巷131號", "addr:city": "臺東縣", "source": null, "name:zh": "康樂", "osm_id": 3810777515, "osm_type": "nodes" }, "geometry": { "type": "Point", "coordinates": [ 121.093311, 22.7644726 ] } },
{ "type": "Feature", "properties": { "name": "故宮南院", "name:en": null, "railway": "station", "ele": null, "operator:type": null, "layer": null, "addr:full": null, "addr:city": null, "source": null, "name:zh": null, "osm_id": 11251662062, "osm_type": "nodes" }, "geometry": { "type": "Point", "coordinates": [ 120.2923053, 23.4761667 ] } },
{ "type": "Feature", "properties": { "name": "五分車高鐵站", "name:en": "Sugar Train High Speed Rail Station", "railway": "station", "ele": null, "operator:type": null, "layer": null, "addr:full": null, "addr:city": null, "source": null, "name:zh": null, "osm_id": 5641335316, "osm_type": "nodes" }, "geometry": { "type": "Point", "coordinates": [ 120.3227373, 23.4604896 ] } },
{ "type": "Feature", "properties": { "name": "火燒店車站", "name:en": null, "railway": "station", "ele": null, "operator:type": null, "layer": null, "addr:full": null, "addr:city": null, "source": null, "name:zh": null, "osm_id": 10569652843, "osm_type": "nodes" }, "geometry": { "type": "Point", "coordinates": [ 120.3021704, 23.2838621 ] } },
{ "type": "Feature", "properties": { "name": "南方小站", "name:en": null, "railway": "station", "ele": null, "operator:type": null, "layer": null, "addr:full": null, "addr:city": null, "source": null, "name:zh": null, "osm_id": 11242932174, "osm_type": "nodes" }, "geometry": { "type": "Point", "coordinates": [ 120.5363435, 22.5275754 ] } },
{ "type": "Feature", "properties": { "name": "槺榔驛", "name:en": null, "railway": "station", "ele": null, "operator:type": null, "layer": null, "addr:full": null, "addr:city": null, "source": null, "name:zh": null, "osm_id": 10752371756, "osm_type": "nodes" }, "geometry": { "type": "Point", "coordinates": [ 120.9444769, 24.8373883 ] } },
{ "type": "Feature", "properties": { "name": "佑聖宫站", "name:en": null, "railway": "station", "ele": null, "operator:type": null, "layer": null, "addr:full": null, "addr:city": null, "source": null, "name:zh": null, "osm_id": 10752371760, "osm_type": "nodes" }, "geometry": { "type": "Point", "coordinates": [ 120.9478328, 24.8347472 ] } },
{ "type": "Feature", "properties": { "name": "萬大樹林線LG09A站", "name:en": null, "railway": "station", "ele": null, "operator:type": null, "layer": null, "addr:full": null, "addr:city": null, "source": null, "name:zh": null, "osm_id": 12355394995, "osm_type": "nodes" }, "geometry": { "type": "Point", "coordinates": [ 121.470199, 24.989056 ] } },
{ "type": "Feature", "properties": { "name": "萬大樹林線LG10站", "name:en": null, "railway": "station", "ele": null, "operator:type": null, "layer": null, "addr:full": null, "addr:city": null, "source": null, "name:zh": null, "osm_id": 12355394996, "osm_type": "nodes" }, "geometry": { "type": "Point", "coordinates": [ 121.4569431, 24.983296 ] } },
{ "type": "Feature", "properties": { "name": "陽光小站", "name:en": null, "railway": "station", "ele": null, "operator:type": null, "layer": null, "addr:full": null, "addr:city": null, "source": null, "name:zh": null, "osm_id": 6816226168, "osm_type": "nodes" }, "geometry": { "type": "Point", "coordinates": [ 120.5262924, 22.5223159 ] } },
{ "type": "Feature", "properties": { "name": "臺糖新營車站", "name:en": null, "railway": "station", "ele": null, "operator:type": null, "layer": null, "addr:full": null, "addr:city": null, "source": null, "name:zh": null, "osm_id": 2905164030, "osm_type": "nodes" }, "geometry": { "type": "Point", "coordinates": [ 120.3215972, 23.3047139 ] } },
{ "type": "Feature", "properties": { "name": "鶯歌", "name:en": "Yingge", "railway": "station", "ele": null, "operator:type": null, "layer": null, "addr:full": null, "addr:city": "新北市", "source": null, "name:zh": "鶯歌", "osm_id": 4802842933, "osm_type": "nodes" }, "geometry": { "type": "Point", "coordinates": [ 121.3551582, 24.9545536 ] } },
{ "type": "Feature", "properties": { "name": "苗栗", "name:en": "Miaoli", "railway": "station", "ele": null, "operator:type": null, "layer": null, "addr:full": "苗栗縣後龍鎮高鐵三路268號", "addr:city": "苗栗縣", "source": null, "name:zh": "苗栗", "osm_id": 3870833272, "osm_type": "nodes" }, "geometry": { "type": "Point", "coordinates": [ 120.8256849, 24.6055644 ] } },
{ "type": "Feature", "properties": { "name": "花蓮港", "name:en": "Hualien Port", "railway": "station", "ele": null, "operator:type": null, "layer": null, "addr:full": null, "addr:city": null, "source": null, "name:zh": "花蓮港", "osm_id": 5700276131, "osm_type": "nodes" }, "geometry": { "type": "Point", "coordinates": [ 121.6357715, 23.9942118 ] } },
{ "type": "Feature", "properties": { "name": "雲林", "name:en": "Yunlin", "railway": "station", "ele": null, "operator:type": null, "layer": null, "addr:full": "雲林縣虎尾鎮站前東路301號", "addr:city": "雲林縣", "source": null, "name:zh": "雲林", "osm_id": 3870631861, "osm_type": "nodes" }, "geometry": { "type": "Point", "coordinates": [ 120.4161577, 23.7365203 ] } },
{ "type": "Feature", "properties": { "name": "左營", "name:en": "Zuoying", "railway": "station", "ele": null, "operator:type": null, "layer": null, "addr:full": null, "addr:city": "高雄市", "source": null, "name:zh": "左營", "osm_id": 3933501988, "osm_type": "nodes" }, "geometry": { "type": "Point", "coordinates": [ 120.3076744, 22.6872433 ] } },
{ "type": "Feature", "properties": { "name": "枋野", "name:en": "Fangye", "railway": "station", "ele": null, "operator:type": null, "layer": null, "addr:full": "屏東縣獅子鄉內獅村內獅巷88號", "addr:city": "屏東縣", "source": null, "name:zh": "枋野", "osm_id": 1231943662, "osm_type": "nodes" }, "geometry": { "type": "Point", "coordinates": [ 120.7169938, 22.2808724 ] } },
{ "type": "Feature", "properties": { "name": "愛河之心", "name:en": "Heart of Love River", "railway": "station", "ele": null, "operator:type": null, "layer": null, "addr:full": null, "addr:city": null, "source": "survay", "name:zh": "愛河之心", "osm_id": 9776227774, "osm_type": "nodes" }, "geometry": { "type": "Point", "coordinates": [ 120.303253, 22.6561709 ] } },
{ "type": "Feature", "properties": { "name": "龍華國小", "name:en": "Longhua Elementary School", "railway": "station", "ele": null, "operator:type": null, "layer": null, "addr:full": null, "addr:city": null, "source": "survay", "name:zh": "龍華國小", "osm_id": 9776227775, "osm_type": "nodes" }, "geometry": { "type": "Point", "coordinates": [ 120.2950847, 22.6544819 ] } },
{ "type": "Feature", "properties": { "name": "聯合醫院", "name:en": "Kaohsiung Municipal United Hospital", "railway": "station", "ele": null, "operator:type": null, "layer": null, "addr:full": null, "addr:city": null, "source": "survay", "name:zh": "聯合醫院", "osm_id": 9776227776, "osm_type": "nodes" }, "geometry": { "type": "Point", "coordinates": [ 120.2910873, 22.654805 ] } },
{ "type": "Feature", "properties": { "name": "美術館", "name:en": "Museum of Fine Arts", "railway": "station", "ele": null, "operator:type": null, "layer": null, "addr:full": null, "addr:city": null, "source": "survay", "name:zh": "美術館", "osm_id": 9776227777, "osm_type": "nodes" }, "geometry": { "type": "Point", "coordinates": [ 120.2872544, 22.6549882 ] } },
{ "type": "Feature", "properties": { "name": "內惟藝術中心", "name:en": "Neiwei Arts Center", "railway": "station", "ele": null, "operator:type": null, "layer": null, "addr:full": null, "addr:city": null, "source": "survay", "name:zh": "內惟藝術中心", "osm_id": 9776227778, "osm_type": "nodes" }, "geometry": { "type": "Point", "coordinates": [ 120.2828409, 22.6549695 ] } },
{ "type": "Feature", "properties": { "name": "聖功醫院", "name:en": "Saint Joseph Hospital", "railway": "station", "ele": null, "operator:type": null, "layer": null, "addr:full": null, "addr:city": null, "source": "survay", "name:zh": "聖功醫院", "osm_id": 11466206728, "osm_type": "nodes" }, "geometry": { "type": "Point", "coordinates": [ 120.3256124, 22.6327993 ] } },
{ "type": "Feature", "properties": { "name": "科工館", "name:en": "Science and Technology Museum", "railway": "station", "ele": null, "operator:type": null, "layer": null, "addr:full": null, "addr:city": null, "source": "survay", "name:zh": "科工館", "osm_id": 11466206737, "osm_type": "nodes" }, "geometry": { "type": "Point", "coordinates": [ 120.3271428, 22.6369232 ] } },
{ "type": "Feature", "properties": { "name": "樹德家商", "name:en": "Shu-Te Home-Economics & Commercial High School", "railway": "station", "ele": null, "operator:type": null, "layer": null, "addr:full": null, "addr:city": null, "source": "survay", "name:zh": "樹德家商", "osm_id": 11466206748, "osm_type": "nodes" }, "geometry": { "type": "Point", "coordinates": [ 120.3263305, 22.6438161 ] } },
{ "type": "Feature", "properties": { "name": "高雄高工", "name:en": "Kaohsiung Industrial High School", "railway": "station", "ele": null, "operator:type": null, "layer": null, "addr:full": null, "addr:city": null, "source": "survay", "name:zh": "高雄高工", "osm_id": 11466206751, "osm_type": "nodes" }, "geometry": { "type": "Point", "coordinates": [ 120.3241552, 22.6497954 ] } },
{ "type": "Feature", "properties": { "name": "大順民族", "name:en": "Dashun Minzu", "railway": "station", "ele": null, "operator:type": null, "layer": null, "addr:full": null, "addr:city": null, "source": "survay", "name:zh": "大順民族", "osm_id": 11466218769, "osm_type": "nodes" }, "geometry": { "type": "Point", "coordinates": [ 120.3154233, 22.6554849 ] } },
{ "type": "Feature", "properties": { "name": "新上國小", "name:en": "Sinshang Elementary School", "railway": "station", "ele": null, "operator:type": null, "layer": null, "addr:full": null, "addr:city": null, "source": "survay", "name:zh": "新上國小", "osm_id": 11466218770, "osm_type": "nodes" }, "geometry": { "type": "Point", "coordinates": [ 120.3088043, 22.6566418 ] } },
{ "type": "Feature", "properties": { "name": "果毅後旗站", "name:en": null, "railway": "station", "ele": null, "operator:type": null, "layer": null, "addr:full": null, "addr:city": null, "source": null, "name:zh": null, "osm_id": 1186336853, "osm_type": "nodes" }, "geometry": { "type": "Point", "coordinates": [ 120.3073316, 23.2909344 ] } },
{ "type": "Feature", "properties": { "name": "中興車站", "name:en": null, "railway": "station", "ele": null, "operator:type": null, "layer": null, "addr:full": null, "addr:city": null, "source": null, "name:zh": null, "osm_id": 1599191166, "osm_type": "nodes" }, "geometry": { "type": "Point", "coordinates": [ 120.3163156, 23.299875 ] } },
{ "type": "Feature", "properties": { "name": "嘉義", "name:en": "Chiayi", "railway": "station", "ele": null, "operator:type": null, "layer": null, "addr:full": null, "addr:city": null, "source": null, "name:zh": "嘉義", "osm_id": 2181107954, "osm_type": "nodes" }, "geometry": { "type": "Point", "coordinates": [ 120.4421253, 23.480433 ] } },
{ "type": "Feature", "properties": { "name": "麟光", "name:en": "Linguang", "railway": "station", "ele": null, "operator:type": null, "layer": null, "addr:full": "10676臺北市大安區和平東路三段410號", "addr:city": "臺北市", "source": null, "name:zh": "麟光", "osm_id": 689442955, "osm_type": "nodes" }, "geometry": { "type": "Point", "coordinates": [ 121.5589054, 25.0184395 ] } },
{ "type": "Feature", "properties": { "name": "辛亥", "name:en": "Xinhai", "railway": "station", "ele": null, "operator:type": null, "layer": null, "addr:full": "11694臺北市文山區辛亥路四段128號", "addr:city": "臺北市", "source": null, "name:zh": "辛亥", "osm_id": 689295008, "osm_type": "nodes" }, "geometry": { "type": "Point", "coordinates": [ 121.5570598, 25.0054814 ] } },
{ "type": "Feature", "properties": { "name": "萬芳醫院", "name:en": "Wanfang Hospital", "railway": "station", "ele": null, "operator:type": null, "layer": null, "addr:full": "11696臺北市文山區興隆路三段113號", "addr:city": "臺北市", "source": null, "name:zh": "萬芳醫院", "osm_id": 689354512, "osm_type": "nodes" }, "geometry": { "type": "Point", "coordinates": [ 121.558138, 24.9994306 ] } },
{ "type": "Feature", "properties": { "name": "萬芳社區", "name:en": "Wanfang Community", "railway": "station", "ele": null, "operator:type": null, "layer": null, "addr:full": "11653臺北市文山區萬芳路60號", "addr:city": "臺北市", "source": null, "name:zh": "萬芳社區", "osm_id": 689418701, "osm_type": "nodes" }, "geometry": { "type": "Point", "coordinates": [ 121.5681226, 24.9986089 ] } },
{ "type": "Feature", "properties": { "name": "木柵", "name:en": "Muzha", "railway": "station", "ele": null, "operator:type": null, "layer": null, "addr:full": "11656臺北市文山區木柵路四段135號", "addr:city": "臺北市", "source": null, "name:zh": "木柵", "osm_id": 689420115, "osm_type": "nodes" }, "geometry": { "type": "Point", "coordinates": [ 121.5731834, 24.9982458 ] } },
{ "type": "Feature", "properties": { "name": "動物園", "name:en": "Taipei Zoo", "railway": "station", "ele": null, "operator:type": null, "layer": null, "addr:full": "11656臺北市文山區新光路二段32號", "addr:city": "臺北市", "source": null, "name:zh": "動物園", "osm_id": 689422202, "osm_type": "nodes" }, "geometry": { "type": "Point", "coordinates": [ 121.5794478, 24.9983168 ] } },
{ "type": "Feature", "properties": { "name": "永寧", "name:en": "Yongning", "railway": "station", "ele": null, "operator:type": null, "layer": null, "addr:full": "新北市土城區中央路三段105號B1", "addr:city": "新北市", "source": null, "name:zh": "永寧", "osm_id": 373399546, "osm_type": "nodes" }, "geometry": { "type": "Point", "coordinates": [ 121.4362698, 24.9668719 ] } },
{ "type": "Feature", "properties": { "name": "土城", "name:en": "Tucheng", "railway": "station", "ele": null, "operator:type": null, "layer": null, "addr:full": "新北市土城區金城路一段105號B1", "addr:city": "新北市", "source": null, "name:zh": "土城", "osm_id": 373399553, "osm_type": "nodes" }, "geometry": { "type": "Point", "coordinates": [ 121.444391, 24.9731817 ] } },
{ "type": "Feature", "properties": { "name": "西湖", "name:en": "Xihu", "railway": "station", "ele": null, "operator:type": null, "layer": null, "addr:full": "11493臺北市內湖區內湖路一段256號", "addr:city": "臺北市", "source": null, "name:zh": "西湖", "osm_id": 373400459, "osm_type": "nodes" }, "geometry": { "type": "Point", "coordinates": [ 121.5673156, 25.0821916 ] } },
{ "type": "Feature", "properties": { "name": "興南", "name:en": "Xingnan", "railway": "station", "ele": null, "operator:type": null, "layer": null, "addr:full": "桃園市中壢區中豐北路一段685號", "addr:city": "桃園市", "source": null, "name:zh": "興南", "osm_id": 1256399260, "osm_type": "nodes" }, "geometry": { "type": "Point", "coordinates": [ 121.2164356, 24.9800328 ] } },
{ "type": "Feature", "properties": { "name": "桃園體育園區", "name:en": "Taoyuan Sports Park", "railway": "station", "ele": null, "operator:type": null, "layer": null, "addr:full": "桃園市中壢區高鐵南路二段350號", "addr:city": "桃園市", "source": null, "name:zh": "桃園體育園區", "osm_id": 1256418888, "osm_type": "nodes" }, "geometry": { "type": "Point", "coordinates": [ 121.2032715, 25.0017441 ] } },
{ "type": "Feature", "properties": { "name": "領航", "name:en": "Linghang", "railway": "station", "ele": null, "operator:type": null, "layer": null, "addr:full": "桃園市大園區領航北路四段351號", "addr:city": "桃園市", "source": null, "name:zh": "領航", "osm_id": 1256740763, "osm_type": "nodes" }, "geometry": { "type": "Point", "coordinates": [ 121.2210937, 25.0241007 ] } },
{ "type": "Feature", "properties": { "name": "高鐵桃園站", "name:en": "Taoyuan HSR Station", "railway": "station", "ele": null, "operator:type": null, "layer": null, "addr:full": "桃園市中壢區高鐵北路一段5號", "addr:city": "桃園市", "source": null, "name:zh": "高鐵桃園站", "osm_id": 1256740812, "osm_type": "nodes" }, "geometry": { "type": "Point", "coordinates": [ 121.2141381, 25.0137163 ] } },
{ "type": "Feature", "properties": { "name": "橫山", "name:en": "Hengshan", "railway": "station", "ele": null, "operator:type": null, "layer": null, "addr:full": "桃園市大園區大竹南路1180號", "addr:city": "桃園市", "source": null, "name:zh": "橫山", "osm_id": 1257929926, "osm_type": "nodes" }, "geometry": { "type": "Point", "coordinates": [ 121.2157962, 25.0364919 ] } },
{ "type": "Feature", "properties": { "name": "台電大樓", "name:en": "Taipower Building", "railway": "station", "ele": null, "operator:type": null, "layer": null, "addr:full": null, "addr:city": "臺北市", "source": null, "name:zh": "台電大樓", "osm_id": 253559357, "osm_type": "nodes" }, "geometry": { "type": "Point", "coordinates": [ 121.5283902, 25.0205325 ] } },
{ "type": "Feature", "properties": { "name": "新北投", "name:en": "Xinbeitou", "railway": "station", "ele": null, "operator:type": null, "layer": null, "addr:full": null, "addr:city": "臺北市", "source": null, "name:zh": "新北投", "osm_id": 269820830, "osm_type": "nodes" }, "geometry": { "type": "Point", "coordinates": [ 121.5031693, 25.1369644 ] } },
{ "type": "Feature", "properties": { "name": "文心中清", "name:en": "Wenxin Zhongqing (Tianjin Shopping District)", "railway": "station", "ele": null, "operator:type": null, "layer": null, "addr:full": null, "addr:city": null, "source": null, "name:zh": "文心中清", "osm_id": 1264707112, "osm_type": "nodes" }, "geometry": { "type": "Point", "coordinates": [ 120.6705879, 24.1736991 ] } },
{ "type": "Feature", "properties": { "name": "松江南京", "name:en": "Songjiang Nanjing", "railway": "station", "ele": null, "operator:type": null, "layer": null, "addr:full": "台北市中山區松江路126號B1", "addr:city": "台北市", "source": null, "name:zh": "松江南京", "osm_id": 1493007755, "osm_type": "nodes" }, "geometry": { "type": "Point", "coordinates": [ 121.5330358, 25.0520141 ] } },
{ "type": "Feature", "properties": { "name": "大直", "name:en": "Dazhi", "railway": "station", "ele": null, "operator:type": null, "layer": null, "addr:full": "10465臺北市中山區北安路534-1號", "addr:city": "臺北市", "source": null, "name:zh": "大直", "osm_id": 1681745146, "osm_type": "nodes" }, "geometry": { "type": "Point", "coordinates": [ 121.5474402, 25.0798652 ] } },
{ "type": "Feature", "properties": { "name": "東門", "name:en": "Dongmen", "railway": "station", "ele": null, "operator:type": null, "layer": null, "addr:full": "10650臺北市大安區信義路二段166號B1", "addr:city": "臺北市", "source": null, "name:zh": "東門", "osm_id": 1940469232, "osm_type": "nodes" }, "geometry": { "type": "Point", "coordinates": [ 121.5292584, 25.0338425 ] } },
{ "type": "Feature", "properties": { "name": "南港展覽館", "name:en": "Taipei Nangang Exhibition Center", "railway": "station", "ele": null, "operator:type": null, "layer": null, "addr:full": "台北市南港區研究院路一段1號", "addr:city": "臺北市", "source": null, "name:zh": "南港展覽館", "osm_id": 1945578205, "osm_type": "nodes" }, "geometry": { "type": "Point", "coordinates": [ 121.6172189, 25.0545687 ] } },
{ "type": "Feature", "properties": { "name": "秀朗橋", "name:en": "Xiulang Bridge", "railway": "station", "ele": null, "operator:type": null, "layer": null, "addr:full": null, "addr:city": null, "source": null, "name:zh": "秀朗橋", "osm_id": 2083320436, "osm_type": "nodes" }, "geometry": { "type": "Point", "coordinates": [ 121.5249012, 24.9903315 ] } },
{ "type": "Feature", "properties": { "name": "中原", "name:en": "Zhongyuan", "railway": "station", "ele": null, "operator:type": null, "layer": null, "addr:full": null, "addr:city": null, "source": null, "name:zh": "中原", "osm_id": 2083320640, "osm_type": "nodes" }, "geometry": { "type": "Point", "coordinates": [ 121.4842739, 25.0081782 ] } },
{ "type": "Feature", "properties": { "name": "頭前庄", "name:en": "Touqianzhuang", "railway": "station", "ele": null, "operator:type": null, "layer": null, "addr:full": "新北市新莊區思源路20號", "addr:city": "新北市", "source": null, "name:zh": "頭前庄", "osm_id": 2083320835, "osm_type": "nodes" }, "geometry": { "type": "Point", "coordinates": [ 121.4603193, 25.0399026 ] } },
{ "type": "Feature", "properties": { "name": "新北產業園區", "name:en": "New Taipei Industrial Park", "railway": "station", "ele": null, "operator:type": null, "layer": null, "addr:full": null, "addr:city": null, "source": null, "name:zh": "新北產業園區", "osm_id": 2083320848, "osm_type": "nodes" }, "geometry": { "type": "Point", "coordinates": [ 121.4598089, 25.0612686 ] } },
{ "type": "Feature", "properties": { "name": "九德", "name:en": "Jiude", "railway": "station", "ele": null, "operator:type": null, "layer": null, "addr:full": null, "addr:city": null, "source": null, "name:zh": "九德", "osm_id": 2347023682, "osm_type": "nodes" }, "geometry": { "type": "Point", "coordinates": [ 120.6343411, 24.1109492 ] } },
{ "type": "Feature", "properties": { "name": "幸福", "name:en": "Xingfu", "railway": "station", "ele": null, "operator:type": null, "layer": null, "addr:full": null, "addr:city": null, "source": null, "name:zh": "幸福", "osm_id": 2410061384, "osm_type": "nodes" }, "geometry": { "type": "Point", "coordinates": [ 121.459967, 25.0499888 ] } },
{ "type": "Feature", "properties": { "name": "新埔民生", "name:en": "Xinpu Minsheng", "railway": "station", "ele": null, "operator:type": null, "layer": null, "addr:full": "220030新北市板橋區民生路三段70號", "addr:city": "新北市", "source": null, "name:zh": "新埔民生", "osm_id": 2866559962, "osm_type": "nodes" }, "geometry": { "type": "Point", "coordinates": [ 121.4666661, 25.0261266 ] } },
{ "type": "Feature", "properties": { "name": "板橋", "name:en": "Banqiao", "railway": "station", "ele": null, "operator:type": null, "layer": null, "addr:full": null, "addr:city": null, "source": null, "name:zh": "板橋", "osm_id": 2866570655, "osm_type": "nodes" }, "geometry": { "type": "Point", "coordinates": [ 121.464592, 25.0151874 ] } },
{ "type": "Feature", "properties": { "name": "十四張", "name:en": "Shisizhang", "railway": "station", "ele": null, "operator:type": null, "layer": null, "addr:full": null, "addr:city": null, "source": null, "name:zh": "十四張", "osm_id": 2866571173, "osm_type": "nodes" }, "geometry": { "type": "Point", "coordinates": [ 121.5275892, 24.9844703 ] } },
{ "type": "Feature", "properties": { "name": "景平", "name:en": "Jingping", "railway": "station", "ele": null, "operator:type": null, "layer": null, "addr:full": null, "addr:city": null, "source": null, "name:zh": "景平", "osm_id": 2866571176, "osm_type": "nodes" }, "geometry": { "type": "Point", "coordinates": [ 121.5161735, 24.9921502 ] } },
{ "type": "Feature", "properties": { "name": "板新", "name:en": "Banxin", "railway": "station", "ele": null, "operator:type": null, "layer": null, "addr:full": "220076新北市板橋區板新路109號", "addr:city": "新北市", "source": null, "name:zh": "板新", "osm_id": 2866590585, "osm_type": "nodes" }, "geometry": { "type": "Point", "coordinates": [ 121.472418, 25.0145313 ] } },
{ "type": "Feature", "properties": { "name": "內湖", "name:en": "Neihu", "railway": "station", "ele": null, "operator:type": null, "layer": null, "addr:full": "11489臺北市內湖區成功路四段186號", "addr:city": "台北市", "source": null, "name:zh": "內湖", "osm_id": 2971714589, "osm_type": "nodes" }, "geometry": { "type": "Point", "coordinates": [ 121.5944358, 25.0837198 ] } },
{ "type": "Feature", "properties": { "name": "台大醫院", "name:en": "NTU Hospital", "railway": "station", "ele": null, "operator:type": null, "layer": null, "addr:full": "10048臺北市中正區公園路52號B1", "addr:city": "臺北市", "source": null, "name:zh": "台大醫院", "osm_id": 2973163775, "osm_type": "nodes" }, "geometry": { "type": "Point", "coordinates": [ 121.5161808, 25.0416464 ] } },
{ "type": "Feature", "properties": { "name": "北門", "name:en": "Beimen", "railway": "station", "ele": null, "operator:type": null, "layer": null, "addr:full": "10341臺北市大同區塔城街10號", "addr:city": "臺北市", "source": null, "name:zh": "北門", "osm_id": 3263840809, "osm_type": "nodes" }, "geometry": { "type": "Point", "coordinates": [ 121.5103289, 25.0493991 ] } },
{ "type": "Feature", "properties": { "name": "信義安和", "name:en": "Xinyi Anhe", "railway": "station", "ele": null, "operator:type": null, "layer": null, "addr:full": "10681臺北市大安區信義路四段212-1號B1", "addr:city": "臺北市", "source": null, "name:zh": "信義安和", "osm_id": 3494960747, "osm_type": "nodes" }, "geometry": { "type": "Point", "coordinates": [ 121.5527328, 25.033157 ] } },
{ "type": "Feature", "properties": { "name": "中正紀念堂", "name:en": "Chiang Kai-Shek Memorial Hall", "railway": "station", "ele": null, "operator:type": null, "layer": null, "addr:full": "10074臺北市中正區羅斯福路一段8-1號B1", "addr:city": "臺北市", "source": null, "name:zh": "中正紀念堂", "osm_id": 3494960750, "osm_type": "nodes" }, "geometry": { "type": "Point", "coordinates": [ 121.5177618, 25.0333942 ] } },
{ "type": "Feature", "properties": { "name": "忠孝敦化", "name:en": "Zhongxiao Dunhua", "railway": "station", "ele": null, "operator:type": null, "layer": null, "addr:full": null, "addr:city": "臺北市", "source": null, "name:zh": "忠孝敦化", "osm_id": 3639530945, "osm_type": "nodes" }, "geometry": { "type": "Point", "coordinates": [ 121.549479, 25.0415086 ] } },
{ "type": "Feature", "properties": { "name": "昆陽", "name:en": "Kunyang", "railway": "station", "ele": null, "operator:type": null, "layer": null, "addr:full": null, "addr:city": "臺北市", "source": null, "name:zh": "昆陽", "osm_id": 3639530947, "osm_type": "nodes" }, "geometry": { "type": "Point", "coordinates": [ 121.5933161, 25.0504897 ] } },
{ "type": "Feature", "properties": { "name": "世運", "name:en": "World Games", "railway": "station", "ele": null, "operator:type": null, "layer": null, "addr:full": null, "addr:city": null, "source": "survay;教育部", "name:zh": "世運", "osm_id": 4580827632, "osm_type": "nodes" }, "geometry": { "type": "Point", "coordinates": [ 120.3025096, 22.7017541 ] } },
{ "type": "Feature", "properties": { "name": "橋頭火車站", "name:en": "Ciaotou Station", "railway": "station", "ele": null, "operator:type": null, "layer": null, "addr:full": null, "addr:city": "高雄市", "source": "survay;教育部", "name:zh": "橋頭火車站", "osm_id": 4580928832, "osm_type": "nodes" }, "geometry": { "type": "Point", "coordinates": [ 120.3106932, 22.7609322 ] } },
{ "type": "Feature", "properties": { "name": "衛武營", "name:en": "Weiwuying", "railway": "station", "ele": null, "operator:type": null, "layer": null, "addr:full": null, "addr:city": null, "source": "survay;教育部", "name:zh": "衛武營", "osm_id": 4581495519, "osm_type": "nodes" }, "geometry": { "type": "Point", "coordinates": [ 120.3407993, 22.6251886 ] } },
{ "type": "Feature", "properties": { "name": "九張犁", "name:en": "Jiuzhangli", "railway": "station", "ele": null, "operator:type": null, "layer": null, "addr:full": null, "addr:city": null, "source": null, "name:zh": "九張犁", "osm_id": 4678587258, "osm_type": "nodes" }, "geometry": { "type": "Point", "coordinates": [ 120.6399052, 24.114382 ] } },
{ "type": "Feature", "properties": { "name": "忠孝新生", "name:en": "Zhongxiao Xinsheng", "railway": "station", "ele": null, "operator:type": null, "layer": null, "addr:full": null, "addr:city": "臺北市", "source": null, "name:zh": "忠孝新生", "osm_id": 3812564401, "osm_type": "nodes" }, "geometry": { "type": "Point", "coordinates": [ 121.5328383, 25.04229 ] } },
{ "type": "Feature", "properties": { "name": "新店", "name:en": "Xindian", "railway": "station", "ele": null, "operator:type": null, "layer": null, "addr:full": "23152新北市新店區北宜路一段2號", "addr:city": "新北市", "source": null, "name:zh": "新店", "osm_id": 3461854239, "osm_type": "nodes" }, "geometry": { "type": "Point", "coordinates": [ 121.5376308, 24.9580672 ] } },
{ "type": "Feature", "properties": { "name": "象山", "name:en": "Xiangshan", "railway": "station", "ele": null, "operator:type": null, "layer": null, "addr:full": "11080臺北市信義區信義路五段152號B1", "addr:city": "臺北市", "source": null, "name:zh": "象山", "osm_id": 3494960745, "osm_type": "nodes" }, "geometry": { "type": "Point", "coordinates": [ 121.5697576, 25.0328676 ] } },
{ "type": "Feature", "properties": { "name": "大安", "name:en": "Daan", "railway": "station", "ele": null, "operator:type": null, "layer": null, "addr:full": "台北市大安區信義路四段2號;台北市大安區信義路三段180號B1", "addr:city": "台北市", "source": null, "name:zh": "大安", "osm_id": 3494960748, "osm_type": "nodes" }, "geometry": { "type": "Point", "coordinates": [ 121.5435546, 25.0333294 ] } },
{ "type": "Feature", "properties": { "name": "大安森林公園", "name:en": "Daan Park", "railway": "station", "ele": null, "operator:type": null, "layer": null, "addr:full": "10656臺北市大安區信義路三段100號B1", "addr:city": "臺北市", "source": null, "name:zh": "大安森林公園", "osm_id": 3494960749, "osm_type": "nodes" }, "geometry": { "type": "Point", "coordinates": [ 121.5352793, 25.0335619 ] } },
{ "type": "Feature", "properties": { "name": "台北車站", "name:en": "Taipei main station", "railway": "station", "ele": null, "operator:type": null, "layer": null, "addr:full": "10041臺北市中正區忠孝西路一段49號", "addr:city": "臺北市", "source": null, "name:zh": "台北車站", "osm_id": 3495094870, "osm_type": "nodes" }, "geometry": { "type": "Point", "coordinates": [ 121.5174745, 25.0462432 ] } },
{ "type": "Feature", "properties": { "name": "中山", "name:en": "Zhongshan", "railway": "station", "ele": null, "operator:type": null, "layer": null, "addr:full": "台北市中山區南京西路16號B1", "addr:city": "台北市", "source": null, "name:zh": "中山", "osm_id": 3495094871, "osm_type": "nodes" }, "geometry": { "type": "Point", "coordinates": [ 121.5203914, 25.0526256 ] } },
{ "type": "Feature", "properties": { "name": "雙連", "name:en": "Shuanglian", "railway": "station", "ele": null, "operator:type": null, "layer": null, "addr:full": "10354臺北市大同區民生西路47號", "addr:city": "臺北市", "source": null, "name:zh": "雙連", "osm_id": 3495094872, "osm_type": "nodes" }, "geometry": { "type": "Point", "coordinates": [ 121.5206986, 25.057632 ] } },
{ "type": "Feature", "properties": { "name": "民權西路", "name:en": "Minquan W. Rd.", "railway": "station", "ele": null, "operator:type": null, "layer": null, "addr:full": "10365臺北市大同區民權西路72號", "addr:city": "臺北市", "source": null, "name:zh": "民權西路", "osm_id": 3495094873, "osm_type": "nodes" }, "geometry": { "type": "Point", "coordinates": [ 121.519403, 25.0628506 ] } },
{ "type": "Feature", "properties": { "name": "圓山", "name:en": "Yuanshan", "railway": "station", "ele": null, "operator:type": null, "layer": null, "addr:full": "10367臺北市大同區酒泉街9-1號", "addr:city": "臺北市", "source": null, "name:zh": "圓山", "osm_id": 3495094874, "osm_type": "nodes" }, "geometry": { "type": "Point", "coordinates": [ 121.5201361, 25.0714175 ] } },
{ "type": "Feature", "properties": { "name": "劍潭", "name:en": "Jiantan", "railway": "station", "ele": null, "operator:type": null, "layer": null, "addr:full": "11163臺北市士林區中山北路五段65號", "addr:city": "台北市", "source": null, "name:zh": "劍潭", "osm_id": 3495094875, "osm_type": "nodes" }, "geometry": { "type": "Point", "coordinates": [ 121.5249806, 25.0842913 ] } },
{ "type": "Feature", "properties": { "name": "士林", "name:en": "Shilin", "railway": "station", "ele": null, "operator:type": null, "layer": null, "addr:full": "11163臺北市士林區福德路1號", "addr:city": "台北市", "source": null, "name:zh": "士林", "osm_id": 3495094876, "osm_type": "nodes" }, "geometry": { "type": "Point", "coordinates": [ 121.5262468, 25.0934949 ] } },
{ "type": "Feature", "properties": { "name": "芝山", "name:en": "Zhishan", "railway": "station", "ele": null, "operator:type": null, "layer": null, "addr:full": "11158臺北市士林區福國路70號", "addr:city": "台北市", "source": null, "name:zh": "芝山", "osm_id": 3495094877, "osm_type": "nodes" }, "geometry": { "type": "Point", "coordinates": [ 121.5225195, 25.1030034 ] } },
{ "type": "Feature", "properties": { "name": "明德", "name:en": "Mingde", "railway": "station", "ele": null, "operator:type": null, "layer": null, "addr:full": "11280臺北市北投區明德路95號", "addr:city": "台北市", "source": null, "name:zh": "明德", "osm_id": 3495094878, "osm_type": "nodes" }, "geometry": { "type": "Point", "coordinates": [ 121.5187693, 25.1098593 ] } },
{ "type": "Feature", "properties": { "name": "石牌", "name:en": "Shipai", "railway": "station", "ele": null, "operator:type": null, "layer": null, "addr:full": "11271臺北市北投區石牌路一段200號", "addr:city": "台北市", "source": null, "name:zh": "石牌", "osm_id": 3495094879, "osm_type": "nodes" }, "geometry": { "type": "Point", "coordinates": [ 121.5155232, 25.1146071 ] } },
{ "type": "Feature", "properties": { "name": "唭哩岸", "name:en": "Qilian", "railway": "station", "ele": null, "operator:type": null, "layer": null, "addr:full": "11265臺北市北投區東華街二段301號", "addr:city": "台北市", "source": null, "name:zh": "唭哩岸", "osm_id": 3495094880, "osm_type": "nodes" }, "geometry": { "type": "Point", "coordinates": [ 121.5061304, 25.1209048 ] } },
{ "type": "Feature", "properties": { "name": "奇岩", "name:en": "Qiyan", "railway": "station", "ele": null, "operator:type": null, "layer": null, "addr:full": "11270臺北市北投區三合街二段489號", "addr:city": "台北市", "source": null, "name:zh": "奇岩", "osm_id": 3495094881, "osm_type": "nodes" }, "geometry": { "type": "Point", "coordinates": [ 121.5011369, 25.1256031 ] } },
{ "type": "Feature", "properties": { "name": "復興崗", "name:en": "Fuxinggang", "railway": "station", "ele": null, "operator:type": null, "layer": null, "addr:full": "11257臺北市北投區中央北路三段53巷10號", "addr:city": "台北市", "source": null, "name:zh": "復興崗", "osm_id": 3495094883, "osm_type": "nodes" }, "geometry": { "type": "Point", "coordinates": [ 121.4854979, 25.1374895 ] } },
{ "type": "Feature", "properties": { "name": "忠義", "name:en": "Zhongyi", "railway": "station", "ele": null, "operator:type": null, "layer": null, "addr:full": "11257臺北市北投區中央北路四段301號", "addr:city": "台北市", "source": null, "name:zh": "忠義", "osm_id": 3495094884, "osm_type": "nodes" }, "geometry": { "type": "Point", "coordinates": [ 121.473374, 25.1309506 ] } },
{ "type": "Feature", "properties": { "name": "關渡", "name:en": "Guandu", "railway": "station", "ele": null, "operator:type": null, "layer": null, "addr:full": "11259臺北市北投區大度路三段296巷51號", "addr:city": "台北市", "source": null, "name:zh": "關渡", "osm_id": 3495094885, "osm_type": "nodes" }, "geometry": { "type": "Point", "coordinates": [ 121.4671419, 25.1257006 ] } },
{ "type": "Feature", "properties": { "name": "竹圍", "name:en": "Zhuwei", "railway": "station", "ele": null, "operator:type": null, "layer": null, "addr:full": "25173新北市淡水區民權路50號", "addr:city": "新北市", "source": null, "name:zh": "竹圍", "osm_id": 3495094886, "osm_type": "nodes" }, "geometry": { "type": "Point", "coordinates": [ 121.4595099, 25.1369727 ] } },
{ "type": "Feature", "properties": { "name": "紅樹林", "name:en": "Hongshulin", "railway": "station", "ele": null, "operator:type": null, "layer": null, "addr:full": "25173新北市淡水區中正東路二段68號", "addr:city": "新北市", "source": null, "name:zh": "紅樹林", "osm_id": 3495094887, "osm_type": "nodes" }, "geometry": { "type": "Point", "coordinates": [ 121.4588321, 25.1544087 ] } },
{ "type": "Feature", "properties": { "name": "淡水", "name:en": "Tamsui", "railway": "station", "ele": null, "operator:type": null, "layer": null, "addr:full": "25158新北市淡水區中正路1號", "addr:city": "新北市", "source": null, "name:zh": "淡水", "osm_id": 3495094888, "osm_type": "nodes" }, "geometry": { "type": "Point", "coordinates": [ 121.4455744, 25.1677828 ] } },
{ "type": "Feature", "properties": { "name": "六張犁", "name:en": "Liuzhangli", "railway": "station", "ele": null, "operator:type": null, "layer": null, "addr:full": "10674臺北市大安區和平東路三段168號", "addr:city": "台北市", "source": null, "name:zh": "六張犁", "osm_id": 3497302603, "osm_type": "nodes" }, "geometry": { "type": "Point", "coordinates": [ 121.5531211, 25.0238183 ] } },
{ "type": "Feature", "properties": { "name": "科技大樓", "name:en": "Technology Building", "railway": "station", "ele": null, "operator:type": null, "layer": null, "addr:full": "10667臺北市大安區復興南路二段235號", "addr:city": "臺北市", "source": null, "name:zh": "科技大樓", "osm_id": 3497302604, "osm_type": "nodes" }, "geometry": { "type": "Point", "coordinates": [ 121.5434596, 25.0261012 ] } },
{ "type": "Feature", "properties": { "name": "忠孝復興", "name:en": "Zhongxiao Fuxing", "railway": "station", "ele": null, "operator:type": null, "layer": null, "addr:full": "台北市大安區忠孝東路三段302號;台北市大安區忠孝東路四段47號B1", "addr:city": "台北市", "source": null, "name:zh": "忠孝復興", "osm_id": 3497302605, "osm_type": "nodes" }, "geometry": { "type": "Point", "coordinates": [ 121.5437706, 25.0415409 ] } },
{ "type": "Feature", "properties": { "name": "南京復興", "name:en": "Nanjing Fuxing", "railway": "station", "ele": null, "operator:type": null, "layer": null, "addr:full": "10550臺北市松山區南京東路三段253號", "addr:city": "台北市", "source": null, "name:zh": "南京復興", "osm_id": 3497302606, "osm_type": "nodes" }, "geometry": { "type": "Point", "coordinates": [ 121.5439651, 25.051836 ] } },
{ "type": "Feature", "properties": { "name": "中山國中", "name:en": "Zhongshan Junior High School", "railway": "station", "ele": null, "operator:type": null, "layer": null, "addr:full": "10476臺北市中山區復興北路376號", "addr:city": "台北市", "source": null, "name:zh": "中山國中", "osm_id": 3497302607, "osm_type": "nodes" }, "geometry": { "type": "Point", "coordinates": [ 121.5442019, 25.0606868 ] } },
{ "type": "Feature", "properties": { "name": "松山機場", "name:en": "Songshan Airport", "railway": "station", "ele": null, "operator:type": null, "layer": null, "addr:full": "10576臺北市松山區敦化北路338號", "addr:city": "台北市", "source": null, "name:zh": "松山機場", "osm_id": 3497302608, "osm_type": "nodes" }, "geometry": { "type": "Point", "coordinates": [ 121.5516137, 25.063086 ] } },
{ "type": "Feature", "properties": { "name": "劍南路", "name:en": "Jiannan Road", "railway": "station", "ele": null, "operator:type": null, "layer": null, "addr:full": "10464臺北市中山區北安路798號", "addr:city": "臺北市", "source": null, "name:zh": "劍南路", "osm_id": 3497302610, "osm_type": "nodes" }, "geometry": { "type": "Point", "coordinates": [ 121.5556531, 25.0848493 ] } },
{ "type": "Feature", "properties": { "name": "港墘", "name:en": "Gangqian", "railway": "station", "ele": null, "operator:type": null, "layer": null, "addr:full": "11446臺北市內湖區內湖路一段663號", "addr:city": "臺北市", "source": null, "name:zh": "港墘", "osm_id": 3501186374, "osm_type": "nodes" }, "geometry": { "type": "Point", "coordinates": [ 121.5753301, 25.0800673 ] } },
{ "type": "Feature", "properties": { "name": "文德", "name:en": "Wende", "railway": "station", "ele": null, "operator:type": null, "layer": null, "addr:full": "11475臺北市內湖區文德路214號", "addr:city": "台北市", "source": null, "name:zh": "文德", "osm_id": 3501186375, "osm_type": "nodes" }, "geometry": { "type": "Point", "coordinates": [ 121.5849416, 25.0785562 ] } },
{ "type": "Feature", "properties": { "name": "大湖公園", "name:en": "Dahu Park", "railway": "station", "ele": null, "operator:type": null, "layer": null, "addr:full": "11477臺北市內湖區成功路五段11號", "addr:city": "台北市", "source": null, "name:zh": "大湖公園", "osm_id": 3501186376, "osm_type": "nodes" }, "geometry": { "type": "Point", "coordinates": [ 121.6023504, 25.0837705 ] } },
{ "type": "Feature", "properties": { "name": "葫洲", "name:en": "Huzhou", "railway": "station", "ele": null, "operator:type": null, "layer": null, "addr:full": "11486臺北市內湖區康寧路3段16號", "addr:city": "台北市", "source": null, "name:zh": "葫洲", "osm_id": 3501186377, "osm_type": "nodes" }, "geometry": { "type": "Point", "coordinates": [ 121.6073633, 25.0726385 ] } },
{ "type": "Feature", "properties": { "name": "東湖", "name:en": "Donghu", "railway": "station", "ele": null, "operator:type": null, "layer": null, "addr:full": "11486臺北市內湖區康寧路三段235號", "addr:city": "台北市", "source": null, "name:zh": "東湖", "osm_id": 3501186378, "osm_type": "nodes" }, "geometry": { "type": "Point", "coordinates": [ 121.6116839, 25.0673975 ] } },
{ "type": "Feature", "properties": { "name": "南港軟體園區", "name:en": "Nangang Software Park", "railway": "station", "ele": null, "operator:type": null, "layer": null, "addr:full": "11568臺北市南港區經貿二路183號", "addr:city": "台北市", "source": null, "name:zh": "南港軟體園區", "osm_id": 3501186379, "osm_type": "nodes" }, "geometry": { "type": "Point", "coordinates": [ 121.6159145, 25.0599554 ] } },
{ "type": "Feature", "properties": { "name": "南港展覽館", "name:en": "Taipei Nangang Exhibition Center", "railway": "station", "ele": null, "operator:type": null, "layer": null, "addr:full": "11568臺北市南港區南港路一段32號", "addr:city": "台北市", "source": null, "name:zh": "南港展覽館", "osm_id": 3501186380, "osm_type": "nodes" }, "geometry": { "type": "Point", "coordinates": [ 121.617896, 25.0553158 ] } },
{ "type": "Feature", "properties": { "name": "新店區公所", "name:en": "Xindian District Office", "railway": "station", "ele": null, "operator:type": null, "layer": null, "addr:full": "23147新北市新店區北新路一段295號", "addr:city": "新北市", "source": null, "name:zh": "新店區公所", "osm_id": 3502209233, "osm_type": "nodes" }, "geometry": { "type": "Point", "coordinates": [ 121.5413511, 24.9673862 ] } },
{ "type": "Feature", "properties": { "name": "七張", "name:en": "Qizhang", "railway": "station", "ele": null, "operator:type": null, "layer": null, "addr:full": "23143新北市新店區北新路二段150號", "addr:city": "新北市", "source": null, "name:zh": "七張", "osm_id": 3502209234, "osm_type": "nodes" }, "geometry": { "type": "Point", "coordinates": [ 121.5429203, 24.9750221 ] } },
{ "type": "Feature", "properties": { "name": "大坪林", "name:en": "Dapinglin", "railway": "station", "ele": null, "operator:type": null, "layer": null, "addr:full": "23143新北市新店區北新路三段190號", "addr:city": "新北市", "source": null, "name:zh": "大坪林", "osm_id": 3502209235, "osm_type": "nodes" }, "geometry": { "type": "Point", "coordinates": [ 121.5413291, 24.9829295 ] } },
{ "type": "Feature", "properties": { "name": "新北產業園區", "name:en": "New Taipei Industrial Park", "railway": "station", "ele": null, "operator:type": null, "layer": null, "addr:full": "新北市新莊區五工路37號", "addr:city": "新北市", "source": null, "name:zh": "新北產業園區", "osm_id": 3509945102, "osm_type": "nodes" }, "geometry": { "type": "Point", "coordinates": [ 121.4589414, 25.061706 ] } },
{ "type": "Feature", "properties": { "name": "市政府", "name:en": "Taipei City Hall", "railway": "station", "ele": null, "operator:type": null, "layer": null, "addr:full": null, "addr:city": "臺北市", "source": null, "name:zh": "市政府", "osm_id": 3512275767, "osm_type": "nodes" }, "geometry": { "type": "Point", "coordinates": [ 121.5660998, 25.0411283 ] } },
{ "type": "Feature", "properties": { "name": "景美", "name:en": "Jingmei", "railway": "station", "ele": null, "operator:type": null, "layer": null, "addr:full": "11674臺北市文山區羅斯福路六段393號", "addr:city": "臺北市", "source": null, "name:zh": "景美", "osm_id": 3530915061, "osm_type": "nodes" }, "geometry": { "type": "Point", "coordinates": [ 121.5408198, 24.992978 ] } },
{ "type": "Feature", "properties": { "name": "萬隆", "name:en": "Wanlong", "railway": "station", "ele": null, "operator:type": null, "layer": null, "addr:full": "11678臺北市文山區羅斯福路五段214號", "addr:city": "臺北市", "source": null, "name:zh": "萬隆", "osm_id": 3530915062, "osm_type": "nodes" }, "geometry": { "type": "Point", "coordinates": [ 121.5389958, 25.001899 ] } },
{ "type": "Feature", "properties": { "name": "公館", "name:en": "Gongguan", "railway": "station", "ele": null, "operator:type": null, "layer": null, "addr:full": "10091臺北市中正區羅斯福路四段74號B1", "addr:city": "臺北市", "source": null, "name:zh": "公館", "osm_id": 3530915063, "osm_type": "nodes" }, "geometry": { "type": "Point", "coordinates": [ 121.534264, 25.0149166 ] } },
{ "type": "Feature", "properties": { "name": "善導寺", "name:en": "Shandao Temple", "railway": "station", "ele": null, "operator:type": null, "layer": null, "addr:full": null, "addr:city": "臺北市", "source": null, "name:zh": "善導寺", "osm_id": 3578751641, "osm_type": "nodes" }, "geometry": { "type": "Point", "coordinates": [ 121.5234226, 25.0447619 ] } },
{ "type": "Feature", "properties": { "name": "亞東醫院", "name:en": "Far Eastern Hospital", "railway": "station", "ele": null, "operator:type": null, "layer": null, "addr:full": "新北市板橋區南雅南路二段17號B1", "addr:city": "新北市", "source": null, "name:zh": "亞東醫院", "osm_id": 3639530940, "osm_type": "nodes" }, "geometry": { "type": "Point", "coordinates": [ 121.4523632, 24.9975221 ] } },
{ "type": "Feature", "properties": { "name": "南港", "name:en": "Nangang", "railway": "station", "ele": null, "operator:type": null, "layer": null, "addr:full": null, "addr:city": "臺北市", "source": null, "name:zh": "南港", "osm_id": 3639530941, "osm_type": "nodes" }, "geometry": { "type": "Point", "coordinates": [ 121.607192, 25.0520905 ] } },
{ "type": "Feature", "properties": { "name": "國父紀念館", "name:en": "Sun Yat-Sen Memorial Hall", "railway": "station", "ele": null, "operator:type": null, "layer": null, "addr:full": null, "addr:city": "臺北市", "source": null, "name:zh": "國父紀念館", "osm_id": 3639530942, "osm_type": "nodes" }, "geometry": { "type": "Point", "coordinates": [ 121.5573918, 25.0413418 ] } },
{ "type": "Feature", "properties": { "name": "府中", "name:en": "Fuzhong", "railway": "station", "ele": null, "operator:type": null, "layer": null, "addr:full": "新北市板橋區縣民大道一段193號B1", "addr:city": "新北市", "source": null, "name:zh": "府中", "osm_id": 3639530943, "osm_type": "nodes" }, "geometry": { "type": "Point", "coordinates": [ 121.4592803, 25.0087697 ] } },
{ "type": "Feature", "properties": { "name": "後山埤", "name:en": "Houshanpi", "railway": "station", "ele": null, "operator:type": null, "layer": null, "addr:full": null, "addr:city": "臺北市", "source": null, "name:zh": "後山埤", "osm_id": 3639530944, "osm_type": "nodes" }, "geometry": { "type": "Point", "coordinates": [ 121.5823418, 25.0447285 ] } },
{ "type": "Feature", "properties": { "name": "新埔", "name:en": "Xinpu", "railway": "station", "ele": null, "operator:type": null, "layer": null, "addr:full": "新北市板橋區民生路三段2號B1", "addr:city": "新北市", "source": null, "name:zh": "新埔", "osm_id": 3639530946, "osm_type": "nodes" }, "geometry": { "type": "Point", "coordinates": [ 121.4683057, 25.0234603 ] } },
{ "type": "Feature", "properties": { "name": "板橋", "name:en": "Banqiao", "railway": "station", "ele": null, "operator:type": null, "layer": null, "addr:full": "新北市板橋區新民里縣民大道二段7號", "addr:city": "新北市", "source": null, "name:zh": "板橋", "osm_id": 3639530948, "osm_type": "nodes" }, "geometry": { "type": "Point", "coordinates": [ 121.462992, 25.0144988 ] } },
{ "type": "Feature", "properties": { "name": "永春", "name:en": "Yongchun", "railway": "station", "ele": null, "operator:type": null, "layer": null, "addr:full": null, "addr:city": "臺北市", "source": null, "name:zh": "永春", "osm_id": 3639530949, "osm_type": "nodes" }, "geometry": { "type": "Point", "coordinates": [ 121.5757045, 25.0408761 ] } },
{ "type": "Feature", "properties": { "name": "江子翠", "name:en": "Jiangzicui", "railway": "station", "ele": null, "operator:type": null, "layer": null, "addr:full": "新北市板橋區文化路二段296號B1", "addr:city": "新北市", "source": null, "name:zh": "江子翠", "osm_id": 3639530950, "osm_type": "nodes" }, "geometry": { "type": "Point", "coordinates": [ 121.4727783, 25.0304238 ] } },
{ "type": "Feature", "properties": { "name": "海山", "name:en": "Haishan", "railway": "station", "ele": null, "operator:type": null, "layer": null, "addr:full": "新北市土城區樂利街16號B2", "addr:city": "新北市", "source": null, "name:zh": "海山", "osm_id": 3639530951, "osm_type": "nodes" }, "geometry": { "type": "Point", "coordinates": [ 121.4487858, 24.9853177 ] } },
{ "type": "Feature", "properties": { "name": "西門", "name:en": "Ximen", "railway": "station", "ele": null, "operator:type": null, "layer": null, "addr:full": "台北市中正區寶慶路32之1號B1", "addr:city": "台北市", "source": null, "name:zh": "西門", "osm_id": 3639530979, "osm_type": "nodes" }, "geometry": { "type": "Point", "coordinates": [ 121.5086081, 25.0427128 ] } },
{ "type": "Feature", "properties": { "name": "頂埔", "name:en": "Dingpu", "railway": "station", "ele": null, "operator:type": null, "layer": null, "addr:full": "23671新北市土城區中央路四段51-6號B3", "addr:city": "新北市", "source": null, "name:zh": "頂埔", "osm_id": 3639530980, "osm_type": "nodes" }, "geometry": { "type": "Point", "coordinates": [ 121.4194769, 24.9597337 ] } },
{ "type": "Feature", "properties": { "name": "龍山寺", "name:en": "Longshan Temple", "railway": "station", "ele": null, "operator:type": null, "layer": null, "addr:full": "台北市萬華區西園路一段153號B1", "addr:city": "台北市", "source": null, "name:zh": "龍山寺", "osm_id": 3639530981, "osm_type": "nodes" }, "geometry": { "type": "Point", "coordinates": [ 121.4995813, 25.0352844 ] } },
{ "type": "Feature", "properties": { "name": "台北橋", "name:en": "Taipei Bridge", "railway": "station", "ele": null, "operator:type": null, "layer": null, "addr:full": "24142新北市三重區重新路一段108號B1", "addr:city": "新北市", "source": null, "name:zh": "台北橋", "osm_id": 3779252951, "osm_type": "nodes" }, "geometry": { "type": "Point", "coordinates": [ 121.5005513, 25.0631779 ] } },
{ "type": "Feature", "properties": { "name": "小碧潭", "name:en": "Xiaobitan", "railway": "station", "ele": null, "operator:type": null, "layer": null, "addr:full": "23150新北市新店區中央路151號4樓", "addr:city": "新北市", "source": null, "name:zh": "小碧潭", "osm_id": 3800658231, "osm_type": "nodes" }, "geometry": { "type": "Point", "coordinates": [ 121.5305995, 24.9717696 ] } },
{ "type": "Feature", "properties": { "name": "永安市場", "name:en": "Yongan Market", "railway": "station", "ele": null, "operator:type": null, "layer": null, "addr:full": "23574新北市中和區中和路388號", "addr:city": "新北市", "source": null, "name:zh": "永安市場", "osm_id": 3800717745, "osm_type": "nodes" }, "geometry": { "type": "Point", "coordinates": [ 121.5109003, 25.0024105 ] } },
{ "type": "Feature", "properties": { "name": "三和國中", "name:en": "Sanhe Junior High School", "railway": "station", "ele": null, "operator:type": null, "layer": null, "addr:full": "24152新北市三重區三和路四段107號B1", "addr:city": "新北市", "source": null, "name:zh": "三和國中", "osm_id": 3812564387, "osm_type": "nodes" }, "geometry": { "type": "Point", "coordinates": [ 121.4863784, 25.076814 ] } },
{ "type": "Feature", "properties": { "name": "三民高中", "name:en": "Sanmin Senior High School", "railway": "station", "ele": null, "operator:type": null, "layer": null, "addr:full": "24760新北市蘆洲區三民路105號B1", "addr:city": "新北市", "source": null, "name:zh": "三民高中", "osm_id": 3812564388, "osm_type": "nodes" }, "geometry": { "type": "Point", "coordinates": [ 121.4732993, 25.0855048 ] } },
{ "type": "Feature", "properties": { "name": "三重", "name:en": "Sanchong", "railway": "station", "ele": null, "operator:type": null, "layer": null, "addr:full": "新北市三重區捷運路36號B1", "addr:city": "新北市", "source": null, "name:zh": "三重", "osm_id": 3812564389, "osm_type": "nodes" }, "geometry": { "type": "Point", "coordinates": [ 121.4853768, 25.0559777 ] } },
{ "type": "Feature", "properties": { "name": "三重國小", "name:en": "Sanchong Elementary School", "railway": "station", "ele": null, "operator:type": null, "layer": null, "addr:full": "24149新北市三重區三和路三段5號B1", "addr:city": "新北市", "source": null, "name:zh": "三重國小", "osm_id": 3812564390, "osm_type": "nodes" }, "geometry": { "type": "Point", "coordinates": [ 121.4973001, 25.0700034 ] } },
{ "type": "Feature", "properties": { "name": "中山國小", "name:en": "Zhongshan Elementary School", "railway": "station", "ele": null, "operator:type": null, "layer": null, "addr:full": "台北市中山區民權東路一段71號B1", "addr:city": "台北市", "source": null, "name:zh": "中山國小", "osm_id": 3812564391, "osm_type": "nodes" }, "geometry": { "type": "Point", "coordinates": [ 121.5265984, 25.062674 ] } },
{ "type": "Feature", "properties": { "name": "丹鳳", "name:en": "Danfeng", "railway": "station", "ele": null, "operator:type": null, "layer": null, "addr:full": "24256新北市新莊區中正路624之1號B1", "addr:city": "新北市", "source": null, "name:zh": "丹鳳", "osm_id": 3812564392, "osm_type": "nodes" }, "geometry": { "type": "Point", "coordinates": [ 121.4226568, 25.0289264 ] } },
{ "type": "Feature", "properties": { "name": "先嗇宮", "name:en": "Xianse Temple", "railway": "station", "ele": null, "operator:type": null, "layer": null, "addr:full": "新北市三重區重新路五段515號B1", "addr:city": "新北市", "source": null, "name:zh": "先嗇宮", "osm_id": 3812564393, "osm_type": "nodes" }, "geometry": { "type": "Point", "coordinates": [ 121.4716805, 25.0464284 ] } },
{ "type": "Feature", "properties": { "name": "南京三民", "name:en": "Nanjing Sanmin", "railway": "station", "ele": null, "operator:type": null, "layer": null, "addr:full": "10569臺北市松山區南京東路五段237號", "addr:city": "臺北市", "source": null, "name:zh": "南京三民", "osm_id": 3812564394, "osm_type": "nodes" }, "geometry": { "type": "Point", "coordinates": [ 121.5643061, 25.0514279 ] } },
{ "type": "Feature", "properties": { "name": "南勢角", "name:en": "Nanshijiao", "railway": "station", "ele": null, "operator:type": null, "layer": null, "addr:full": "新北市中和區捷運路6號", "addr:city": "新北市", "source": null, "name:zh": "南勢角", "osm_id": 3812564395, "osm_type": "nodes" }, "geometry": { "type": "Point", "coordinates": [ 121.5088518, 24.9900264 ] } },
{ "type": "Feature", "properties": { "name": "古亭", "name:en": "Guting", "railway": "station", "ele": null, "operator:type": null, "layer": null, "addr:full": null, "addr:city": "臺北市", "source": null, "name:zh": "古亭", "osm_id": 3812564396, "osm_type": "nodes" }, "geometry": { "type": "Point", "coordinates": [ 121.522492, 25.0269376 ] } },
{ "type": "Feature", "properties": { "name": "台北小巨蛋", "name:en": "Taipei Arena", "railway": "station", "ele": null, "operator:type": null, "layer": null, "addr:full": "台北市松山區南京東路四段10之1號", "addr:city": "台北市", "source": null, "name:zh": "台北小巨蛋", "osm_id": 3812564397, "osm_type": "nodes" }, "geometry": { "type": "Point", "coordinates": [ 121.5514989, 25.0516857 ] } },
{ "type": "Feature", "properties": { "name": "大橋頭", "name:en": "Daqiaotou", "railway": "station", "ele": null, "operator:type": null, "layer": null, "addr:full": "台北市大同區民權西路223號B1", "addr:city": "臺北市", "source": null, "name:zh": "大橋頭", "osm_id": 3812564398, "osm_type": "nodes" }, "geometry": { "type": "Point", "coordinates": [ 121.5126944, 25.063198 ] } },
{ "type": "Feature", "properties": { "name": "小南門", "name:en": "Xiaonanmen", "railway": "station", "ele": null, "operator:type": null, "layer": null, "addr:full": "台北市中正區愛國西路22號B1", "addr:city": "台北市", "source": null, "name:zh": "小南門", "osm_id": 3812564399, "osm_type": "nodes" }, "geometry": { "type": "Point", "coordinates": [ 121.5108064, 25.035901 ] } },
{ "type": "Feature", "properties": { "name": "徐匯中學", "name:en": "St. Ignatius High School", "railway": "station", "ele": null, "operator:type": null, "layer": null, "addr:full": "24753新北市蘆洲區中山一路3號B1", "addr:city": "新北市", "source": null, "name:zh": "徐匯中學", "osm_id": 3812564400, "osm_type": "nodes" }, "geometry": { "type": "Point", "coordinates": [ 121.4802265, 25.0803359 ] } },
{ "type": "Feature", "properties": { "name": "新莊", "name:en": "Xinzhuang", "railway": "station", "ele": null, "operator:type": null, "layer": null, "addr:full": "24243新北市新莊區中正路138號B1", "addr:city": "新北市", "source": null, "name:zh": "新莊", "osm_id": 3812564402, "osm_type": "nodes" }, "geometry": { "type": "Point", "coordinates": [ 121.4533591, 25.0363332 ] } },
{ "type": "Feature", "properties": { "name": "景安", "name:en": "Jingan", "railway": "station", "ele": null, "operator:type": null, "layer": null, "addr:full": "新北市中和區景平路486號", "addr:city": "新北市", "source": null, "name:zh": "景安", "osm_id": 3812564403, "osm_type": "nodes" }, "geometry": { "type": "Point", "coordinates": [ 121.5050464, 24.9937859 ] } },
{ "type": "Feature", "properties": { "name": "松山", "name:en": "Songshan", "railway": "station", "ele": null, "operator:type": null, "layer": null, "addr:full": "10567臺北市松山區八德路四段742號", "addr:city": "臺北市", "source": null, "name:zh": "松山", "osm_id": 3812564404, "osm_type": "nodes" }, "geometry": { "type": "Point", "coordinates": [ 121.5774743, 25.0500706 ] } },
{ "type": "Feature", "properties": { "name": "菜寮", "name:en": "Cailiao", "railway": "station", "ele": null, "operator:type": null, "layer": null, "addr:full": "24143新北市三重區重新路三段150號B1", "addr:city": "新北市", "source": null, "name:zh": "菜寮", "osm_id": 3812564422, "osm_type": "nodes" }, "geometry": { "type": "Point", "coordinates": [ 121.4921055, 25.0602676 ] } },
{ "type": "Feature", "properties": { "name": "蘆洲", "name:en": "Luzhou", "railway": "station", "ele": null, "operator:type": null, "layer": null, "addr:full": "24760新北市蘆洲區三民路386號B1", "addr:city": "新北市", "source": null, "name:zh": "蘆洲", "osm_id": 3812564423, "osm_type": "nodes" }, "geometry": { "type": "Point", "coordinates": [ 121.465104, 25.091278 ] } },
{ "type": "Feature", "properties": { "name": "輔大", "name:en": "Fu Jen University", "railway": "station", "ele": null, "operator:type": null, "layer": null, "addr:full": "24205新北市新莊區中正路510-1號B1", "addr:city": "新北市", "source": null, "name:zh": "輔大", "osm_id": 3812564424, "osm_type": "nodes" }, "geometry": { "type": "Point", "coordinates": [ 121.4352746, 25.032722 ] } },
{ "type": "Feature", "properties": { "name": "迴龍", "name:en": "Huilong", "railway": "station", "ele": null, "operator:type": null, "layer": null, "addr:full": "24257新北市新莊區中正路758號B1", "addr:city": "新北市", "source": null, "name:zh": "迴龍", "osm_id": 3812564425, "osm_type": "nodes" }, "geometry": { "type": "Point", "coordinates": [ 121.4119025, 25.0220786 ] } },
{ "type": "Feature", "properties": { "name": "頂溪", "name:en": "Dingxi", "railway": "station", "ele": null, "operator:type": null, "layer": null, "addr:full": "新北市永和區永和路二段168號B1", "addr:city": "新北市", "source": null, "name:zh": "頂溪", "osm_id": 3812564426, "osm_type": "nodes" }, "geometry": { "type": "Point", "coordinates": [ 121.515472, 25.0136014 ] } },
{ "type": "Feature", "properties": { "name": "頭前庄", "name:en": "Touqianzhuang", "railway": "station", "ele": null, "operator:type": null, "layer": null, "addr:full": "新北市新莊區思源路18號B1", "addr:city": "新北市", "source": null, "name:zh": "頭前庄", "osm_id": 3812564427, "osm_type": "nodes" }, "geometry": { "type": "Point", "coordinates": [ 121.4613873, 25.0395009 ] } },
{ "type": "Feature", "properties": { "name": "台北", "name:en": "Taipei", "railway": "station", "ele": null, "operator:type": null, "layer": null, "addr:full": null, "addr:city": "臺北市", "source": null, "name:zh": "台北", "osm_id": 3933501987, "osm_type": "nodes" }, "geometry": { "type": "Point", "coordinates": [ 121.5170503, 25.047554 ] } },
{ "type": "Feature", "properties": { "name": "臺北海洋大學", "name:en": "Taipei University of Marine Technology", "railway": "station", "ele": null, "operator:type": null, "layer": null, "addr:full": null, "addr:city": null, "source": "教育部;新北市政府", "name:zh": "臺北海洋大學", "osm_id": 4014856069, "osm_type": "nodes" }, "geometry": { "type": "Point", "coordinates": [ 121.426285, 25.1911611 ] } },
{ "type": "Feature", "properties": { "name": "山鼻", "name:en": "Shanbi", "railway": "station", "ele": null, "operator:type": null, "layer": null, "addr:full": "桃園市蘆竹區南山路三段155號", "addr:city": "桃園市", "source": null, "name:zh": "山鼻", "osm_id": 4450092074, "osm_type": "nodes" }, "geometry": { "type": "Point", "coordinates": [ 121.2847775, 25.0808055 ] } },
{ "type": "Feature", "properties": { "name": "林口", "name:en": "Linkou", "railway": "station", "ele": null, "operator:type": null, "layer": null, "addr:full": null, "addr:city": "新北市", "source": null, "name:zh": "林口", "osm_id": 4456093778, "osm_type": "nodes" }, "geometry": { "type": "Point", "coordinates": [ 121.3614372, 25.0657846 ] } },
{ "type": "Feature", "properties": { "name": "景安", "name:en": "Jingan", "railway": "station", "ele": null, "operator:type": null, "layer": null, "addr:full": null, "addr:city": null, "source": null, "name:zh": "景安", "osm_id": 4571424110, "osm_type": "nodes" }, "geometry": { "type": "Point", "coordinates": [ 121.5057104, 24.9933996 ] } },
{ "type": "Feature", "properties": { "name": "凱旋瑞田", "name:en": "Kaisyuan Rueitian", "railway": "station", "ele": null, "operator:type": null, "layer": null, "addr:full": null, "addr:city": null, "source": "survay;教育部", "name:zh": "凱旋瑞田", "osm_id": 4576225717, "osm_type": "nodes" }, "geometry": { "type": "Point", "coordinates": [ 120.3197975, 22.5995711 ] } },
{ "type": "Feature", "properties": { "name": "籬仔內", "name:en": "Lizihnei", "railway": "station", "ele": null, "operator:type": null, "layer": null, "addr:full": null, "addr:city": null, "source": "survay;教育部", "name:zh": "籬仔內", "osm_id": 4576225718, "osm_type": "nodes" }, "geometry": { "type": "Point", "coordinates": [ 120.3246121, 22.604578 ] } },
{ "type": "Feature", "properties": { "name": "前鎮之星", "name:en": "Cianjhen Star", "railway": "station", "ele": null, "operator:type": null, "layer": null, "addr:full": null, "addr:city": null, "source": "survay;教育部", "name:zh": "前鎮之星", "osm_id": 4576225719, "osm_type": "nodes" }, "geometry": { "type": "Point", "coordinates": [ 120.3153928, 22.5954952 ] } },
{ "type": "Feature", "properties": { "name": "軟體園區", "name:en": "Software Technology Park", "railway": "station", "ele": null, "operator:type": null, "layer": null, "addr:full": null, "addr:city": null, "source": "survay;教育部", "name:zh": "軟體園區", "osm_id": 4579273014, "osm_type": "nodes" }, "geometry": { "type": "Point", "coordinates": [ 120.3008011, 22.6056852 ] } },
{ "type": "Feature", "properties": { "name": "凱旋中華", "name:en": "Kaisyuan Jhonghua", "railway": "station", "ele": null, "operator:type": null, "layer": null, "addr:full": null, "addr:city": null, "source": "survay;教育部", "name:zh": "凱旋中華", "osm_id": 4579273015, "osm_type": "nodes" }, "geometry": { "type": "Point", "coordinates": [ 120.3105357, 22.5936154 ] } },
{ "type": "Feature", "properties": { "name": "高雄展覽館", "name:en": "Kaohsiung Exhibition Center", "railway": "station", "ele": null, "operator:type": null, "layer": null, "addr:full": null, "addr:city": null, "source": "survay;教育部", "name:zh": "高雄展覽館", "osm_id": 4579273016, "osm_type": "nodes" }, "geometry": { "type": "Point", "coordinates": [ 120.2980082, 22.6101061 ] } },
{ "type": "Feature", "properties": { "name": "經貿園區", "name:en": "Commerce and Trade Park", "railway": "station", "ele": null, "operator:type": null, "layer": null, "addr:full": null, "addr:city": null, "source": "survay;教育部", "name:zh": "經貿園區", "osm_id": 4579273017, "osm_type": "nodes" }, "geometry": { "type": "Point", "coordinates": [ 120.3026381, 22.6008963 ] } },
{ "type": "Feature", "properties": { "name": "夢時代", "name:en": "Dream Mall", "railway": "station", "ele": null, "operator:type": null, "layer": null, "addr:full": null, "addr:city": null, "source": "survay;教育部", "name:zh": "夢時代", "osm_id": 4579273018, "osm_type": "nodes" }, "geometry": { "type": "Point", "coordinates": [ 120.3049144, 22.595005 ] } },
{ "type": "Feature", "properties": { "name": "高雄國際機場", "name:en": "Kaohsiung International Airport", "railway": "station", "ele": null, "operator:type": null, "layer": null, "addr:full": null, "addr:city": null, "source": "survay;教育部", "name:zh": "高雄國際機場", "osm_id": 4579346758, "osm_type": "nodes" }, "geometry": { "type": "Point", "coordinates": [ 120.3416274, 22.5701158 ] } },
{ "type": "Feature", "properties": { "name": "草衙", "name:en": "Caoya", "railway": "station", "ele": null, "operator:type": null, "layer": null, "addr:full": null, "addr:city": null, "source": "survay;教育部", "name:zh": "草衙", "osm_id": 4579346759, "osm_type": "nodes" }, "geometry": { "type": "Point", "coordinates": [ 120.3287686, 22.5805475 ] } },
{ "type": "Feature", "properties": { "name": "小港", "name:en": "Siaogang", "railway": "station", "ele": null, "operator:type": null, "layer": null, "addr:full": null, "addr:city": null, "source": "survay;教育部", "name:zh": "小港", "osm_id": 4579346760, "osm_type": "nodes" }, "geometry": { "type": "Point", "coordinates": [ 120.3538755, 22.5645135 ] } },
{ "type": "Feature", "properties": { "name": "凱旋", "name:en": "Kaisyuan", "railway": "station", "ele": null, "operator:type": null, "layer": null, "addr:full": null, "addr:city": null, "source": "survay;教育部", "name:zh": "凱旋", "osm_id": 4579352784, "osm_type": "nodes" }, "geometry": { "type": "Point", "coordinates": [ 120.3151134, 22.5970181 ] } },
{ "type": "Feature", "properties": { "name": "前鎮高中", "name:en": "Cianjhen Senior High School", "railway": "station", "ele": null, "operator:type": null, "layer": null, "addr:full": null, "addr:city": "高雄市", "source": "survay;教育部", "name:zh": "前鎮高中", "osm_id": 4579352785, "osm_type": "nodes" }, "geometry": { "type": "Point", "coordinates": [ 120.3217412, 22.5884118 ] } },
{ "type": "Feature", "properties": { "name": "獅甲", "name:en": "Shihjia", "railway": "station", "ele": null, "operator:type": null, "layer": null, "addr:full": null, "addr:city": null, "source": "survay;教育部", "name:zh": "獅甲", "osm_id": 4579353571, "osm_type": "nodes" }, "geometry": { "type": "Point", "coordinates": [ 120.3078782, 22.6061802 ] } },
{ "type": "Feature", "properties": { "name": "三多商圈", "name:en": "Sanduo Shopping District", "railway": "station", "ele": null, "operator:type": null, "layer": null, "addr:full": null, "addr:city": null, "source": "survay;教育部", "name:zh": "三多商圈", "osm_id": 4579363124, "osm_type": "nodes" }, "geometry": { "type": "Point", "coordinates": [ 120.3044216, 22.6141528 ] } },
{ "type": "Feature", "properties": { "name": "中央公園", "name:en": "Central Park", "railway": "station", "ele": null, "operator:type": null, "layer": null, "addr:full": null, "addr:city": null, "source": "survay;教育部", "name:zh": "中央公園", "osm_id": 4579367648, "osm_type": "nodes" }, "geometry": { "type": "Point", "coordinates": [ 120.3011177, 22.6248724 ] } },
{ "type": "Feature", "properties": { "name": "哈瑪星", "name:en": "Hamasen", "railway": "station", "ele": null, "operator:type": null, "layer": null, "addr:full": null, "addr:city": null, "source": "survay;教育部", "name:zh": "哈瑪星", "osm_id": 4580663523, "osm_type": "nodes" }, "geometry": { "type": "Point", "coordinates": [ 120.2748048, 22.621369 ] } },
{ "type": "Feature", "properties": { "name": "凹子底", "name:en": "Aozihdi", "railway": "station", "ele": null, "operator:type": null, "layer": null, "addr:full": null, "addr:city": null, "source": "survay;教育部", "name:zh": "凹子底", "osm_id": 4580663524, "osm_type": "nodes" }, "geometry": { "type": "Point", "coordinates": [ 120.3030787, 22.6571226 ] } },
{ "type": "Feature", "properties": { "name": "鹽埕埔", "name:en": "Yanchengpu", "railway": "station", "ele": null, "operator:type": null, "layer": null, "addr:full": null, "addr:city": null, "source": "survay;教育部", "name:zh": "鹽埕埔", "osm_id": 4580663525, "osm_type": "nodes" }, "geometry": { "type": "Point", "coordinates": [ 120.2840775, 22.6241553 ] } },
{ "type": "Feature", "properties": { "name": "美麗島", "name:en": "Formosa Boulevard", "railway": "station", "ele": null, "operator:type": null, "layer": null, "addr:full": null, "addr:city": "高雄市", "source": "survay;教育部", "name:zh": "美麗島", "osm_id": 4580663526, "osm_type": "nodes" }, "geometry": { "type": "Point", "coordinates": [ 120.3018602, 22.6313941 ] } },
{ "type": "Feature", "properties": { "name": "後驛", "name:en": "Houyi", "railway": "station", "ele": null, "operator:type": null, "layer": null, "addr:full": null, "addr:city": null, "source": "survay;教育部", "name:zh": "後驛", "osm_id": 4580663527, "osm_type": "nodes" }, "geometry": { "type": "Point", "coordinates": [ 120.3032208, 22.6477388 ] } },
{ "type": "Feature", "properties": { "name": "前金", "name:en": "Cianjin", "railway": "station", "ele": null, "operator:type": null, "layer": null, "addr:full": null, "addr:city": null, "source": "survay;教育部", "name:zh": "前金", "osm_id": 4580663528, "osm_type": "nodes" }, "geometry": { "type": "Point", "coordinates": [ 120.2946284, 22.6289683 ] } },
{ "type": "Feature", "properties": { "name": "生態園區", "name:en": "Ecological District", "railway": "station", "ele": null, "operator:type": null, "layer": "-1", "addr:full": null, "addr:city": null, "source": "survay;教育部", "name:zh": "生態園區", "osm_id": 4580663529, "osm_type": "nodes" }, "geometry": { "type": "Point", "coordinates": [ 120.3063428, 22.6764628 ] } },
{ "type": "Feature", "properties": { "name": "巨蛋", "name:en": "Kaohsiung Arena", "railway": "station", "ele": null, "operator:type": null, "layer": null, "addr:full": null, "addr:city": null, "source": "survay;教育部", "name:zh": "巨蛋", "osm_id": 4580663530, "osm_type": "nodes" }, "geometry": { "type": "Point", "coordinates": [ 120.3032563, 22.6656214 ] } },
{ "type": "Feature", "properties": { "name": "左營", "name:en": "Zuoying", "railway": "station", "ele": null, "operator:type": null, "layer": null, "addr:full": null, "addr:city": null, "source": "survay;教育部", "name:zh": "左營", "osm_id": 4580663531, "osm_type": "nodes" }, "geometry": { "type": "Point", "coordinates": [ 120.309019, 22.6881662 ] } },
{ "type": "Feature", "properties": { "name": "高雄車站", "name:en": "Kaohsiung Main Station", "railway": "station", "ele": null, "operator:type": null, "layer": null, "addr:full": null, "addr:city": "高雄市", "source": "survay;教育部", "name:zh": "高雄車站", "osm_id": 4580663532, "osm_type": "nodes" }, "geometry": { "type": "Point", "coordinates": [ 120.3026522, 22.6393352 ] } },
{ "type": "Feature", "properties": { "name": "油廠國小", "name:en": "Oil Refinery Elementary School", "railway": "station", "ele": null, "operator:type": null, "layer": null, "addr:full": null, "addr:city": null, "source": "survay;教育部", "name:zh": "油廠國小", "osm_id": 4580834623, "osm_type": "nodes" }, "geometry": { "type": "Point", "coordinates": [ 120.3023063, 22.7087537 ] } },
{ "type": "Feature", "properties": { "name": "楠梓科技園區", "name:en": "Nanzih Technology Industrial Park", "railway": "station", "ele": null, "operator:type": null, "layer": null, "addr:full": null, "addr:city": null, "source": "survay;教育部", "name:zh": "楠梓科技園區", "osm_id": 4580837515, "osm_type": "nodes" }, "geometry": { "type": "Point", "coordinates": [ 120.3071682, 22.7187124 ] } },
{ "type": "Feature", "properties": { "name": "都會公園", "name:en": "Metropolitan Park", "railway": "station", "ele": null, "operator:type": null, "layer": null, "addr:full": null, "addr:city": null, "source": "survay;教育部", "name:zh": "都會公園", "osm_id": 4580840208, "osm_type": "nodes" }, "geometry": { "type": "Point", "coordinates": [ 120.3209273, 22.7296101 ] } },
{ "type": "Feature", "properties": { "name": "後勁", "name:en": "Houjing", "railway": "station", "ele": null, "operator:type": null, "layer": null, "addr:full": null, "addr:city": null, "source": "survay;教育部", "name:zh": "後勁", "osm_id": 4580845736, "osm_type": "nodes" }, "geometry": { "type": "Point", "coordinates": [ 120.3162548, 22.7223496 ] } },
{ "type": "Feature", "properties": { "name": "青埔", "name:en": "Cingpu", "railway": "station", "ele": null, "operator:type": null, "layer": null, "addr:full": null, "addr:city": null, "source": "survay;教育部", "name:zh": "青埔", "osm_id": 4580850452, "osm_type": "nodes" }, "geometry": { "type": "Point", "coordinates": [ 120.3177237, 22.7444067 ] } },
{ "type": "Feature", "properties": { "name": "橋頭糖廠", "name:en": "Ciaotou Sugar Refinery", "railway": "station", "ele": null, "operator:type": null, "layer": null, "addr:full": null, "addr:city": "高雄市", "source": "survay;教育部", "name:zh": "橋頭糖廠", "osm_id": 4580876598, "osm_type": "nodes" }, "geometry": { "type": "Point", "coordinates": [ 120.3145546, 22.7535555 ] } },
{ "type": "Feature", "properties": { "name": "岡山高醫", "name:en": "Kaohsiung Medical University Gangshan Hospital", "railway": "station", "ele": null, "operator:type": null, "layer": null, "addr:full": null, "addr:city": null, "source": "survay;教育部", "name:zh": "岡山高醫", "osm_id": 4580928833, "osm_type": "nodes" }, "geometry": { "type": "Point", "coordinates": [ 120.3017302, 22.7807473 ] } },
{ "type": "Feature", "properties": { "name": "信義國小", "name:en": "Sinyi Elementary School", "railway": "station", "ele": null, "operator:type": null, "layer": null, "addr:full": null, "addr:city": null, "source": "survay;教育部", "name:zh": "信義國小", "osm_id": 4581486083, "osm_type": "nodes" }, "geometry": { "type": "Point", "coordinates": [ 120.3114522, 22.6307269 ] } },
{ "type": "Feature", "properties": { "name": "文化中心", "name:en": "Cultural Center", "railway": "station", "ele": null, "operator:type": null, "layer": null, "addr:full": null, "addr:city": null, "source": "survay;教育部", "name:zh": "文化中心", "osm_id": 4581486084, "osm_type": "nodes" }, "geometry": { "type": "Point", "coordinates": [ 120.3176229, 22.6302695 ] } },
{ "type": "Feature", "properties": { "name": "五塊厝", "name:en": "Wukuaicuo", "railway": "station", "ele": null, "operator:type": null, "layer": null, "addr:full": null, "addr:city": null, "source": "survay;教育部", "name:zh": "五塊厝", "osm_id": 4581491487, "osm_type": "nodes" }, "geometry": { "type": "Point", "coordinates": [ 120.3276476, 22.6294745 ] } },
{ "type": "Feature", "properties": { "name": "苓雅運動園區", "name:en": "Lingya Sports Park", "railway": "station", "ele": null, "operator:type": null, "layer": null, "addr:full": null, "addr:city": null, "source": "survay;教育部", "name:zh": "苓雅運動園區", "osm_id": 4581492319, "osm_type": "nodes" }, "geometry": { "type": "Point", "coordinates": [ 120.3346396, 22.6272511 ] } },
{ "type": "Feature", "properties": { "name": "鳳山西站", "name:en": "Fongshan West", "railway": "station", "ele": null, "operator:type": null, "layer": null, "addr:full": null, "addr:city": null, "source": "survay;教育部", "name:zh": "鳳山西站", "osm_id": 4581502018, "osm_type": "nodes" }, "geometry": { "type": "Point", "coordinates": [ 120.3480491, 22.6253627 ] } },
{ "type": "Feature", "properties": { "name": "旅運中心", "name:en": "Cruise Terminal", "railway": "station", "ele": null, "operator:type": null, "layer": null, "addr:full": null, "addr:city": null, "source": "survay;教育部", "name:zh": "旅運中心", "osm_id": 4801892825, "osm_type": "nodes" }, "geometry": { "type": "Point", "coordinates": [ 120.2933482, 22.6116371 ] } },
{ "type": "Feature", "properties": { "name": "真愛碼頭", "name:en": "Love Pier", "railway": "station", "ele": null, "operator:type": null, "layer": null, "addr:full": null, "addr:city": null, "source": "survay;教育部", "name:zh": "真愛碼頭", "osm_id": 4804112949, "osm_type": "nodes" }, "geometry": { "type": "Point", "coordinates": [ 120.2894256, 22.6192654 ] } },
{ "type": "Feature", "properties": { "name": "光榮碼頭", "name:en": "Glory Pier", "railway": "station", "ele": null, "operator:type": null, "layer": null, "addr:full": null, "addr:city": null, "source": "survay;教育部", "name:zh": "光榮碼頭", "osm_id": 4804112980, "osm_type": "nodes" }, "geometry": { "type": "Point", "coordinates": [ 120.2931506, 22.6166858 ] } },
{ "type": "Feature", "properties": { "name": "鳳山", "name:en": "Fongshan", "railway": "station", "ele": null, "operator:type": null, "layer": null, "addr:full": null, "addr:city": null, "source": "survay;教育部", "name:zh": "鳳山", "osm_id": 4581503591, "osm_type": "nodes" }, "geometry": { "type": "Point", "coordinates": [ 120.3552091, 22.6259919 ] } },
{ "type": "Feature", "properties": { "name": "大東", "name:en": "Dadong", "railway": "station", "ele": null, "operator:type": null, "layer": null, "addr:full": null, "addr:city": null, "source": "survay;教育部", "name:zh": "大東", "osm_id": 4582336214, "osm_type": "nodes" }, "geometry": { "type": "Point", "coordinates": [ 120.3633605, 22.6251921 ] } },
{ "type": "Feature", "properties": { "name": "鳳山國中", "name:en": "Fongshan Junior High School", "railway": "station", "ele": null, "operator:type": null, "layer": null, "addr:full": null, "addr:city": null, "source": "survay;教育部", "name:zh": "鳳山國中", "osm_id": 4582339822, "osm_type": "nodes" }, "geometry": { "type": "Point", "coordinates": [ 120.3718273, 22.6246291 ] } },
{ "type": "Feature", "properties": { "name": "文心崇德", "name:en": "Wenxin Chongde", "railway": "station", "ele": null, "operator:type": null, "layer": null, "addr:full": null, "addr:city": null, "source": null, "name:zh": "文心崇德", "osm_id": 4639688385, "osm_type": "nodes" }, "geometry": { "type": "Point", "coordinates": [ 120.6849892, 24.1721885 ] } },
{ "type": "Feature", "properties": { "name": "老街溪", "name:en": "Laojie River", "railway": "station", "ele": null, "operator:type": null, "layer": null, "addr:full": null, "addr:city": null, "source": null, "name:zh": "老街溪", "osm_id": 4653215487, "osm_type": "nodes" }, "geometry": { "type": "Point", "coordinates": [ 121.2193715, 24.9585814 ] } },
{ "type": "Feature", "properties": { "name": "泰山", "name:en": "Taishan", "railway": "station", "ele": null, "operator:type": null, "layer": null, "addr:full": "新北市泰山區新北大道四段431號", "addr:city": "新北市", "source": null, "name:zh": "泰山", "osm_id": 4653215488, "osm_type": "nodes" }, "geometry": { "type": "Point", "coordinates": [ 121.4395522, 25.0532646 ] } },
{ "type": "Feature", "properties": { "name": "大園", "name:en": "Dayuan", "railway": "station", "ele": null, "operator:type": null, "layer": null, "addr:full": "桃園市大園區橫湳一路50號", "addr:city": "桃園市", "source": null, "name:zh": "大園", "osm_id": 4653351589, "osm_type": "nodes" }, "geometry": { "type": "Point", "coordinates": [ 121.2106496, 25.0558139 ] } },
{ "type": "Feature", "properties": { "name": "台北車站", "name:en": "Taipei main station", "railway": "station", "ele": null, "operator:type": null, "layer": null, "addr:full": "臺北市中正區鄭州路8號", "addr:city": "臺北市", "source": null, "name:zh": "台北車站", "osm_id": 4653351592, "osm_type": "nodes" }, "geometry": { "type": "Point", "coordinates": [ 121.5143449, 25.0487037 ] } },
{ "type": "Feature", "properties": { "name": "三重", "name:en": "Sanchong", "railway": "station", "ele": null, "operator:type": null, "layer": null, "addr:full": "新北市三重區捷運路36號", "addr:city": "新北市", "source": null, "name:zh": "三重", "osm_id": 4653351593, "osm_type": "nodes" }, "geometry": { "type": "Point", "coordinates": [ 121.4828785, 25.0546988 ] } },
{ "type": "Feature", "properties": { "name": "新莊副都心", "name:en": "Xinzhuang Fuduxin", "railway": "station", "ele": null, "operator:type": null, "layer": null, "addr:full": "新北市新莊區新北大道四段188號", "addr:city": "新北市", "source": null, "name:zh": "新莊副都心", "osm_id": 4653351597, "osm_type": "nodes" }, "geometry": { "type": "Point", "coordinates": [ 121.4457893, 25.05921 ] } },
{ "type": "Feature", "properties": { "name": "泰山貴和", "name:en": "Taishan Guihe", "railway": "station", "ele": null, "operator:type": null, "layer": null, "addr:full": "新北市泰山區新北大道六段460號", "addr:city": "新北市", "source": null, "name:zh": "泰山貴和", "osm_id": 4653351598, "osm_type": "nodes" }, "geometry": { "type": "Point", "coordinates": [ 121.4229634, 25.0333454 ] } },
{ "type": "Feature", "properties": { "name": "環北", "name:en": "Huanbei", "railway": "station", "ele": null, "operator:type": null, "layer": null, "addr:full": "桃園市中壢區中豐北路一段26號", "addr:city": "桃園市", "source": null, "name:zh": "環北", "osm_id": 4653351599, "osm_type": "nodes" }, "geometry": { "type": "Point", "coordinates": [ 121.2208004, 24.9671663 ] } },
{ "type": "Feature", "properties": { "name": "機場旅館", "name:en": "Airport Hotel", "railway": "station", "ele": null, "operator:type": null, "layer": null, "addr:full": "桃園市大園區航站南路1之2號", "addr:city": "桃園市", "source": null, "name:zh": "機場旅館", "osm_id": 4653352235, "osm_type": "nodes" }, "geometry": { "type": "Point", "coordinates": [ 121.2206257, 25.0691793 ] } },
{ "type": "Feature", "properties": { "name": "機場第二航廈", "name:en": "Airport Terminal 2", "railway": "station", "ele": null, "operator:type": null, "layer": null, "addr:full": "桃園市大園區航站南路9之1號地下2層", "addr:city": "桃園市", "source": null, "name:zh": "機場第二航廈", "osm_id": 4653352237, "osm_type": "nodes" }, "geometry": { "type": "Point", "coordinates": [ 121.2322564, 25.0772273 ] } },
{ "type": "Feature", "properties": { "name": "機場第一航廈", "name:en": "Airport Terminal 1", "railway": "station", "ele": null, "operator:type": null, "layer": null, "addr:full": "桃園市大園區航站南路17之1號地下1層", "addr:city": "桃園市", "source": null, "name:zh": "機場第一航廈", "osm_id": 4653352238, "osm_type": "nodes" }, "geometry": { "type": "Point", "coordinates": [ 121.2383976, 25.080498 ] } },
{ "type": "Feature", "properties": { "name": "坑口", "name:en": "Kengkou", "railway": "station", "ele": null, "operator:type": null, "layer": null, "addr:full": "桃園市蘆竹區坑菓路460號", "addr:city": "桃園市", "source": null, "name:zh": "坑口", "osm_id": 4653352239, "osm_type": "nodes" }, "geometry": { "type": "Point", "coordinates": [ 121.2663561, 25.0864909 ] } },
{ "type": "Feature", "properties": { "name": "長庚醫院", "name:en": "Chang Gung Memorial Hospital", "railway": "station", "ele": null, "operator:type": null, "layer": null, "addr:full": "桃園市龜山區文化一路6號", "addr:city": "桃園市", "source": null, "name:zh": "長庚醫院", "osm_id": 4653352241, "osm_type": "nodes" }, "geometry": { "type": "Point", "coordinates": [ 121.3707965, 25.0604744 ] } },
{ "type": "Feature", "properties": { "name": "體育大學", "name:en": "National Taiwan Sport University", "railway": "station", "ele": null, "operator:type": null, "layer": null, "addr:full": "桃園市龜山區文化一路688號", "addr:city": "桃園市", "source": null, "name:zh": "體育大學", "osm_id": 4653352242, "osm_type": "nodes" }, "geometry": { "type": "Point", "coordinates": [ 121.3854083, 25.0413317 ] } },
{ "type": "Feature", "properties": { "name": "文心櫻花", "name:en": "Wenxin Yinghua", "railway": "station", "ele": null, "operator:type": null, "layer": null, "addr:full": null, "addr:city": null, "source": null, "name:zh": "文心櫻花", "osm_id": 4428051659, "osm_type": "nodes" }, "geometry": { "type": "Point", "coordinates": [ 120.6538902, 24.1677802 ] } },
{ "type": "Feature", "properties": { "name": "文華高中", "name:en": "Wenhua Senior High School", "railway": "station", "ele": null, "operator:type": null, "layer": null, "addr:full": null, "addr:city": null, "source": null, "name:zh": "文華高中", "osm_id": 4428067702, "osm_type": "nodes" }, "geometry": { "type": "Point", "coordinates": [ 120.6606519, 24.1715045 ] } },
{ "type": "Feature", "properties": { "name": "北屯總站", "name:en": "Beitun Main Station", "railway": "station", "ele": null, "operator:type": null, "layer": null, "addr:full": null, "addr:city": null, "source": null, "name:zh": "北屯總站", "osm_id": 4428739725, "osm_type": "nodes" }, "geometry": { "type": "Point", "coordinates": [ 120.7087947, 24.189106 ] } },
{ "type": "Feature", "properties": { "name": "橋和", "name:en": "Qiaohe", "railway": "station", "ele": null, "operator:type": null, "layer": null, "addr:full": null, "addr:city": "新北市", "source": null, "name:zh": "橋和", "osm_id": 5444300911, "osm_type": "nodes" }, "geometry": { "type": "Point", "coordinates": [ 121.4902458, 25.0046042 ] } },
{ "type": "Feature", "properties": { "name": "中和", "name:en": "Zhonghe", "railway": "station", "ele": null, "operator:type": null, "layer": null, "addr:full": null, "addr:city": null, "source": null, "name:zh": "中和", "osm_id": 5444300912, "osm_type": "nodes" }, "geometry": { "type": "Point", "coordinates": [ 121.4958503, 25.0023167 ] } },
{ "type": "Feature", "properties": { "name": "高鐵臺中站", "name:en": "HSR Taichung Station", "railway": "station", "ele": null, "operator:type": null, "layer": null, "addr:full": null, "addr:city": null, "source": null, "name:zh": "高鐵臺中站", "osm_id": 5528191582, "osm_type": "nodes" }, "geometry": { "type": "Point", "coordinates": [ 120.6138645, 24.1101114 ] } },
{ "type": "Feature", "properties": { "name": "文心森林公園", "name:en": "Wenxin Forest Park", "railway": "station", "ele": null, "operator:type": null, "layer": null, "addr:full": null, "addr:city": null, "source": null, "name:zh": "文心森林公園", "osm_id": 5730723095, "osm_type": "nodes" }, "geometry": { "type": "Point", "coordinates": [ 120.6467169, 24.1454324 ] } },
{ "type": "Feature", "properties": { "name": "市政府", "name:en": "Taichung City Hall", "railway": "station", "ele": null, "operator:type": null, "layer": null, "addr:full": null, "addr:city": null, "source": null, "name:zh": "市政府", "osm_id": 5730723096, "osm_type": "nodes" }, "geometry": { "type": "Point", "coordinates": [ 120.6492346, 24.1620975 ] } },
{ "type": "Feature", "properties": { "name": "舊社", "name:en": "Jiushe", "railway": "station", "ele": null, "operator:type": null, "layer": null, "addr:full": null, "addr:city": null, "source": null, "name:zh": "舊社", "osm_id": 5730723098, "osm_type": "nodes" }, "geometry": { "type": "Point", "coordinates": [ 120.707311, 24.1823336 ] } },
{ "type": "Feature", "properties": { "name": "烏日", "name:en": "Wuri", "railway": "station", "ele": null, "operator:type": null, "layer": null, "addr:full": null, "addr:city": null, "source": null, "name:zh": "烏日", "osm_id": 5730723106, "osm_type": "nodes" }, "geometry": { "type": "Point", "coordinates": [ 120.6248657, 24.1088771 ] } },
{ "type": "Feature", "properties": { "name": "大慶", "name:en": "Daqing (Chungshan Medical University)", "railway": "station", "ele": null, "operator:type": null, "layer": null, "addr:full": null, "addr:city": null, "source": null, "name:zh": "大慶", "osm_id": 5730724422, "osm_type": "nodes" }, "geometry": { "type": "Point", "coordinates": [ 120.6475045, 24.1190562 ] } },
{ "type": "Feature", "properties": { "name": "豐樂公園", "name:en": "Feng-le Park", "railway": "station", "ele": null, "operator:type": null, "layer": null, "addr:full": null, "addr:city": null, "source": null, "name:zh": "豐樂公園", "osm_id": 5730724445, "osm_type": "nodes" }, "geometry": { "type": "Point", "coordinates": [ 120.6464415, 24.1323601 ] } },
{ "type": "Feature", "properties": { "name": "南屯", "name:en": "Nantun (Wuquan West Wenxin)", "railway": "station", "ele": null, "operator:type": null, "layer": null, "addr:full": null, "addr:city": null, "source": null, "name:zh": "南屯", "osm_id": 5730724451, "osm_type": "nodes" }, "geometry": { "type": "Point", "coordinates": [ 120.6466919, 24.1405491 ] } },
{ "type": "Feature", "properties": { "name": "四維國小", "name:en": "Sihwei Elementary School", "railway": "station", "ele": null, "operator:type": null, "layer": null, "addr:full": null, "addr:city": null, "source": null, "name:zh": "四維國小", "osm_id": 5730724512, "osm_type": "nodes" }, "geometry": { "type": "Point", "coordinates": [ 120.6932542, 24.1712587 ] } },
{ "type": "Feature", "properties": { "name": "松竹", "name:en": "Songzhu", "railway": "station", "ele": null, "operator:type": null, "layer": null, "addr:full": null, "addr:city": null, "source": null, "name:zh": "松竹", "osm_id": 5731645678, "osm_type": "nodes" }, "geometry": { "type": "Point", "coordinates": [ 120.7013972, 24.1807297 ] } },
{ "type": "Feature", "properties": { "name": "大寮", "name:en": "Daliao", "railway": "station", "ele": null, "operator:type": null, "layer": null, "addr:full": null, "addr:city": null, "source": "survay;教育部", "name:zh": "大寮", "osm_id": 5792157308, "osm_type": "nodes" }, "geometry": { "type": "Point", "coordinates": [ 120.3905893, 22.6221173 ] } },
{ "type": "Feature", "properties": { "name": "竿蓁林", "name:en": "Ganzhenlin", "railway": "station", "ele": null, "operator:type": null, "layer": null, "addr:full": null, "addr:city": "新北市", "source": "教育部;新北市政府", "name:zh": "竿蓁林", "osm_id": 6155745375, "osm_type": "nodes" }, "geometry": { "type": "Point", "coordinates": [ 121.456225, 25.1621824 ] } },
{ "type": "Feature", "properties": { "name": "淡金鄧公", "name:en": "Danjin Denggong", "railway": "station", "ele": null, "operator:type": null, "layer": null, "addr:full": null, "addr:city": null, "source": "教育部;新北市政府", "name:zh": "淡金鄧公", "osm_id": 6155745376, "osm_type": "nodes" }, "geometry": { "type": "Point", "coordinates": [ 121.4608263, 25.1693035 ] } },
{ "type": "Feature", "properties": { "name": "淡江大學", "name:en": "Tamkang University", "railway": "station", "ele": null, "operator:type": null, "layer": null, "addr:full": null, "addr:city": null, "source": "教育部;新北市政府", "name:zh": "淡江大學", "osm_id": 6155745377, "osm_type": "nodes" }, "geometry": { "type": "Point", "coordinates": [ 121.4559765, 25.1770757 ] } },
{ "type": "Feature", "properties": { "name": "淡金北新", "name:en": "Danjin Beixin", "railway": "station", "ele": null, "operator:type": null, "layer": null, "addr:full": null, "addr:city": null, "source": "教育部;新北市政府", "name:zh": "淡金北新", "osm_id": 6155745378, "osm_type": "nodes" }, "geometry": { "type": "Point", "coordinates": [ 121.452165, 25.1812144 ] } },
{ "type": "Feature", "properties": { "name": "新市一路", "name:en": "Xinshi 1st Rd.", "railway": "station", "ele": null, "operator:type": null, "layer": null, "addr:full": null, "addr:city": null, "source": "教育部;新北市政府", "name:zh": "新市一路", "osm_id": 6155745379, "osm_type": "nodes" }, "geometry": { "type": "Point", "coordinates": [ 121.4481232, 25.1838978 ] } },
{ "type": "Feature", "properties": { "name": "鼓山區公所", "name:en": "Gushan District Office", "railway": "station", "ele": null, "operator:type": null, "layer": null, "addr:full": null, "addr:city": null, "source": "survay;教育部", "name:zh": "鼓山區公所", "osm_id": 5963967382, "osm_type": "nodes" }, "geometry": { "type": "Point", "coordinates": [ 120.2825911, 22.6360321 ] } },
{ "type": "Feature", "properties": { "name": "文武聖殿", "name:en": "Wenwu Temple", "railway": "station", "ele": null, "operator:type": null, "layer": null, "addr:full": null, "addr:city": null, "source": "survay;教育部", "name:zh": "文武聖殿", "osm_id": 5963969989, "osm_type": "nodes" }, "geometry": { "type": "Point", "coordinates": [ 120.2807283, 22.6295474 ] } },
{ "type": "Feature", "properties": { "name": "壽山公園", "name:en": "Shoushan Park", "railway": "station", "ele": null, "operator:type": null, "layer": null, "addr:full": null, "addr:city": null, "source": "survay;教育部", "name:zh": "壽山公園", "osm_id": 5963969990, "osm_type": "nodes" }, "geometry": { "type": "Point", "coordinates": [ 120.278669, 22.6265296 ] } },
{ "type": "Feature", "properties": { "name": "哈瑪星", "name:en": "Hamasen", "railway": "station", "ele": null, "operator:type": null, "layer": null, "addr:full": null, "addr:city": null, "source": "survay;教育部", "name:zh": "哈瑪星", "osm_id": 4934237745, "osm_type": "nodes" }, "geometry": { "type": "Point", "coordinates": [ 120.2758388, 22.6216116 ] } },
{ "type": "Feature", "properties": { "name": "駁二蓬萊", "name:en": "Penglai Pier-2", "railway": "station", "ele": null, "operator:type": null, "layer": null, "addr:full": null, "addr:city": null, "source": "survay;教育部", "name:zh": "駁二蓬萊", "osm_id": 4934237746, "osm_type": "nodes" }, "geometry": { "type": "Point", "coordinates": [ 120.2799183, 22.6204454 ] } },
{ "type": "Feature", "properties": { "name": "駁二大義", "name:en": "Dayi Pier-2", "railway": "station", "ele": null, "operator:type": null, "layer": null, "addr:full": null, "addr:city": null, "source": "survay;教育部", "name:zh": "駁二大義", "osm_id": 4934237755, "osm_type": "nodes" }, "geometry": { "type": "Point", "coordinates": [ 120.2842225, 22.6184985 ] } },
{ "type": "Feature", "properties": { "name": "濱海沙崙", "name:en": "Binhai Shalun", "railway": "station", "ele": null, "operator:type": null, "layer": null, "addr:full": null, "addr:city": null, "source": "教育部;新北市政府", "name:zh": "濱海沙崙", "osm_id": 6155745368, "osm_type": "nodes" }, "geometry": { "type": "Point", "coordinates": [ 121.4316345, 25.1904655 ] } },
{ "type": "Feature", "properties": { "name": "淡海新市鎮", "name:en": "Danhai New Town", "railway": "station", "ele": null, "operator:type": null, "layer": null, "addr:full": null, "addr:city": null, "source": "教育部;新北市政府", "name:zh": "淡海新市鎮", "osm_id": 6155745369, "osm_type": "nodes" }, "geometry": { "type": "Point", "coordinates": [ 121.4324753, 25.1956548 ] } },
{ "type": "Feature", "properties": { "name": "崁頂", "name:en": "Kanding", "railway": "station", "ele": null, "operator:type": null, "layer": null, "addr:full": null, "addr:city": null, "source": "教育部;新北市政府", "name:zh": "崁頂", "osm_id": 6155745370, "osm_type": "nodes" }, "geometry": { "type": "Point", "coordinates": [ 121.434621, 25.2009501 ] } },
{ "type": "Feature", "properties": { "name": "淡水行政中心", "name:en": "Tamsui District Office", "railway": "station", "ele": null, "operator:type": null, "layer": null, "addr:full": null, "addr:city": null, "source": "教育部;新北市政府", "name:zh": "淡水行政中心", "osm_id": 6155745371, "osm_type": "nodes" }, "geometry": { "type": "Point", "coordinates": [ 121.4445041, 25.1889533 ] } },
{ "type": "Feature", "properties": { "name": "濱海義山", "name:en": "Binhai Yishan", "railway": "station", "ele": null, "operator:type": null, "layer": null, "addr:full": null, "addr:city": null, "source": "教育部;新北市政府", "name:zh": "濱海義山", "osm_id": 6155745372, "osm_type": "nodes" }, "geometry": { "type": "Point", "coordinates": [ 121.4373723, 25.1897184 ] } },
{ "type": "Feature", "properties": { "name": "水安宮", "name:en": "Shui-an Temple", "railway": "station", "ele": null, "operator:type": null, "layer": null, "addr:full": null, "addr:city": null, "source": null, "name:zh": "水安宮", "osm_id": 8037404256, "osm_type": "nodes" }, "geometry": { "type": "Point", "coordinates": [ 120.6467803, 24.1532394 ] } },
{ "type": "Feature", "properties": { "name": "十四張", "name:en": "Shisizhang", "railway": "station", "ele": null, "operator:type": null, "layer": null, "addr:full": null, "addr:city": null, "source": null, "name:zh": "十四張", "osm_id": 8041597963, "osm_type": "nodes" }, "geometry": { "type": "Point", "coordinates": [ 121.5273077, 24.9843634 ] } },
{ "type": "Feature", "properties": { "name": "陽光運動公園", "name:en": "Sunshine Sports Park", "railway": "station", "ele": null, "operator:type": null, "layer": null, "addr:full": null, "addr:city": null, "source": "教育部;新北市政府", "name:zh": "陽光運動公園", "osm_id": 8041597965, "osm_type": "nodes" }, "geometry": { "type": "Point", "coordinates": [ 121.5195038, 24.9723043 ] } },
{ "type": "Feature", "properties": { "name": "安康", "name:en": "Ankang", "railway": "station", "ele": null, "operator:type": null, "layer": null, "addr:full": null, "addr:city": null, "source": "教育部;新北市政府", "name:zh": "安康", "osm_id": 8041597966, "osm_type": "nodes" }, "geometry": { "type": "Point", "coordinates": [ 121.517208, 24.965137 ] } },
{ "type": "Feature", "properties": { "name": "景文科大", "name:en": "Jinwen University of Science and Technology", "railway": "station", "ele": null, "operator:type": null, "layer": null, "addr:full": null, "addr:city": null, "source": "教育部;新北市政府", "name:zh": "景文科大", "osm_id": 8041597967, "osm_type": "nodes" }, "geometry": { "type": "Point", "coordinates": [ 121.5104047, 24.9555152 ] } },
{ "type": "Feature", "properties": { "name": "耕莘安康院區", "name:en": "Cardinal Tien Hospital An Kang Branch", "railway": "station", "ele": null, "operator:type": null, "layer": null, "addr:full": null, "addr:city": null, "source": "教育部;新北市政府", "name:zh": "耕莘安康院區", "osm_id": 8041597968, "osm_type": "nodes" }, "geometry": { "type": "Point", "coordinates": [ 121.50468, 24.95445 ] } },
{ "type": "Feature", "properties": { "name": "台北小城", "name:en": "Taipei Xiaocheng", "railway": "station", "ele": null, "operator:type": null, "layer": null, "addr:full": null, "addr:city": null, "source": "教育部;新北市政府", "name:zh": "台北小城", "osm_id": 8041597969, "osm_type": "nodes" }, "geometry": { "type": "Point", "coordinates": [ 121.4995311, 24.9537556 ] } },
{ "type": "Feature", "properties": { "name": "玫瑰中國城", "name:en": "Rose China Town", "railway": "station", "ele": null, "operator:type": null, "layer": null, "addr:full": null, "addr:city": null, "source": "教育部;新北市政府", "name:zh": "玫瑰中國城", "osm_id": 8041597970, "osm_type": "nodes" }, "geometry": { "type": "Point", "coordinates": [ 121.49406, 24.95092 ] } },
{ "type": "Feature", "properties": { "name": "雙城", "name:en": "Shuangcheng", "railway": "station", "ele": null, "operator:type": null, "layer": null, "addr:full": null, "addr:city": null, "source": "教育部;新北市政府", "name:zh": "雙城", "osm_id": 8041597971, "osm_type": "nodes" }, "geometry": { "type": "Point", "coordinates": [ 121.48985, 24.94657 ] } },
{ "type": "Feature", "properties": { "name": "淡水漁人碼頭", "name:en": "Tamsui Fisherman's Wharf", "railway": "station", "ele": null, "operator:type": null, "layer": null, "addr:full": null, "addr:city": null, "source": "教育部;新北市政府", "name:zh": "淡水漁人碼頭", "osm_id": 8043755931, "osm_type": "nodes" }, "geometry": { "type": "Point", "coordinates": [ 121.4186124, 25.1820049 ] } },
{ "type": "Feature", "properties": { "name": "沙崙", "name:en": "Shalun Station", "railway": "station", "ele": null, "operator:type": null, "layer": null, "addr:full": null, "addr:city": null, "source": "教育部;新北市政府", "name:zh": "沙崙", "osm_id": 8043755932, "osm_type": "nodes" }, "geometry": { "type": "Point", "coordinates": [ 121.41719, 25.18745 ] } },
{ "type": "Feature", "properties": { "name": "臺鐵美術館", "name:en": "TRA Museum of Fine Arts Station", "railway": "station", "ele": null, "operator:type": null, "layer": null, "addr:full": null, "addr:city": null, "source": "survay;教育部", "name:zh": "臺鐵美術館", "osm_id": 8057987300, "osm_type": "nodes" }, "geometry": { "type": "Point", "coordinates": [ 120.2817491, 22.6521144 ] } },
{ "type": "Feature", "properties": { "name": "馬卡道", "name:en": "Makatao", "railway": "station", "ele": null, "operator:type": null, "layer": null, "addr:full": null, "addr:city": null, "source": "survay;教育部", "name:zh": "馬卡道", "osm_id": 8057987301, "osm_type": "nodes" }, "geometry": { "type": "Point", "coordinates": [ 120.2814409, 22.6470427 ] } },
{ "type": "Feature", "properties": { "name": "輕軌機廠", "name:en": "LRT Depot", "railway": "station", "ele": null, "operator:type": null, "layer": null, "addr:full": null, "addr:city": null, "source": "survay;教育部", "name:zh": "輕軌機廠", "osm_id": 8057987303, "osm_type": "nodes" }, "geometry": { "type": "Point", "coordinates": [ 120.3260515, 22.6084757 ] } },
{ "type": "Feature", "properties": { "name": "凱旋二聖", "name:en": "Kaisyuan Ersheng", "railway": "station", "ele": null, "operator:type": null, "layer": null, "addr:full": null, "addr:city": null, "source": "survay;教育部", "name:zh": "凱旋二聖", "osm_id": 8057987304, "osm_type": "nodes" }, "geometry": { "type": "Point", "coordinates": [ 120.3271484, 22.6125106 ] } },
{ "type": "Feature", "properties": { "name": "凱旋武昌", "name:en": "Kaisyuan Wuchang", "railway": "station", "ele": null, "operator:type": null, "layer": null, "addr:full": null, "addr:city": null, "source": "survay;教育部", "name:zh": "凱旋武昌", "osm_id": 8057987305, "osm_type": "nodes" }, "geometry": { "type": "Point", "coordinates": [ 120.3268268, 22.6168915 ] } },
{ "type": "Feature", "properties": { "name": "五權國小", "name:en": "Wucyuan Elementary School", "railway": "station", "ele": null, "operator:type": null, "layer": null, "addr:full": null, "addr:city": null, "source": "survay;教育部", "name:zh": "五權國小", "osm_id": 8057987306, "osm_type": "nodes" }, "geometry": { "type": "Point", "coordinates": [ 120.32518, 22.6211709 ] } },
{ "type": "Feature", "properties": { "name": "衛生局", "name:en": "Department of Health", "railway": "station", "ele": null, "operator:type": null, "layer": null, "addr:full": null, "addr:city": null, "source": "survay;教育部", "name:zh": "衛生局", "osm_id": 8057987307, "osm_type": "nodes" }, "geometry": { "type": "Point", "coordinates": [ 120.3236496, 22.6251751 ] } },
{ "type": "Feature", "properties": { "name": "凱旋公園", "name:en": "Kaisyuan Park", "railway": "station", "ele": null, "operator:type": null, "layer": null, "addr:full": null, "addr:city": null, "source": "survay;教育部", "name:zh": "凱旋公園", "osm_id": 8057987308, "osm_type": "nodes" }, "geometry": { "type": "Point", "coordinates": [ 120.322824, 22.6294128 ] } },
{ "type": "Feature", "properties": { "name": "台北101/世貿", "name:en": "Taipei 101/World Trade Center", "railway": "station", "ele": null, "operator:type": null, "layer": null, "addr:full": "11049臺北市信義區信義路五段20號B1", "addr:city": "臺北市", "source": null, "name:zh": "台北101/世貿", "osm_id": 9974435156, "osm_type": "nodes" }, "geometry": { "type": "Point", "coordinates": [ 121.5624453, 25.0329794 ] } },
{ "type": "Feature", "properties": { "name": "捷運橋頭糖廠站", "name:en": null, "railway": "station", "ele": null, "operator:type": null, "layer": null, "addr:full": null, "addr:city": null, "source": null, "name:zh": null, "osm_id": 2730669876, "osm_type": "nodes" }, "geometry": { "type": "Point", "coordinates": [ 120.3146833, 22.7530305 ] } },
{ "type": "Feature", "properties": { "name": "Skytrain 第二航廈", "name:en": "Terminal 2", "railway": "station", "ele": null, "operator:type": null, "layer": null, "addr:full": null, "addr:city": null, "source": null, "name:zh": null, "osm_id": 11951446996, "osm_type": "nodes" }, "geometry": { "type": "Point", "coordinates": [ 121.233632, 25.0764579 ] } },
{ "type": "Feature", "properties": { "name": "中央號誌", "name:en": null, "railway": "station", "ele": null, "operator:type": null, "layer": null, "addr:full": null, "addr:city": null, "source": null, "name:zh": null, "osm_id": 11902411023, "osm_type": "nodes" }, "geometry": { "type": "Point", "coordinates": [ 120.742095, 22.2751142 ] } },
{ "type": "Feature", "properties": { "name": "濁水", "name:en": null, "railway": "station", "ele": null, "operator:type": null, "layer": null, "addr:full": null, "addr:city": null, "source": null, "name:zh": null, "osm_id": 11629563045, "osm_type": "nodes" }, "geometry": { "type": "Point", "coordinates": [ 120.4650595, 23.9303098 ] } },
{ "type": "Feature", "properties": { "name": "溪湖", "name:en": null, "railway": "station", "ele": null, "operator:type": null, "layer": null, "addr:full": null, "addr:city": null, "source": null, "name:zh": null, "osm_id": 11629563046, "osm_type": "nodes" }, "geometry": { "type": "Point", "coordinates": [ 120.4817648, 23.9520499 ] } },
{ "type": "Feature", "properties": { "name": "草埔", "name:en": null, "railway": "station", "ele": null, "operator:type": null, "layer": null, "addr:full": null, "addr:city": null, "source": null, "name:zh": null, "osm_id": 11953235639, "osm_type": "nodes" }, "geometry": { "type": "Point", "coordinates": [ 120.4720756, 23.9389581 ] } },
{ "type": "Feature", "properties": { "name": "紅樹林", "name:en": "Hongshulin", "railway": "station", "ele": null, "operator:type": null, "layer": null, "addr:full": null, "addr:city": null, "source": "教育部;新北市政府", "name:zh": null, "osm_id": 4014822910, "osm_type": "nodes" }, "geometry": { "type": "Point", "coordinates": [ 121.4589125, 25.15544 ] } },
{ "type": "Feature", "properties": { "name": "天送埤", "name:en": null, "railway": "station", "ele": null, "operator:type": null, "layer": null, "addr:full": null, "addr:city": null, "source": null, "name:zh": null, "osm_id": 11842724312, "osm_type": "nodes" }, "geometry": { "type": "Point", "coordinates": [ 121.6198247, 24.6625411 ] } },
{ "type": "Feature", "properties": { "name": "安坑機廠", "name:en": "Ankeng Depot", "railway": "station", "ele": null, "operator:type": null, "layer": null, "addr:full": null, "addr:city": null, "source": null, "name:zh": null, "osm_id": 12031041863, "osm_type": "nodes" }, "geometry": { "type": "Point", "coordinates": [ 121.4867799, 24.9431702 ] } },
{ "type": "Feature", "properties": { "name": "岡山車站", "name:en": "Gangshan Station", "railway": "station", "ele": null, "operator:type": null, "layer": null, "addr:full": null, "addr:city": null, "source": null, "name:zh": "岡山車站", "osm_id": 5731893016, "osm_type": "nodes" }, "geometry": { "type": "Point", "coordinates": [ 120.2990592, 22.7926035 ] } },
{ "type": "Feature", "properties": { "name": "灣仔內", "name:en": "Wanzihnei", "railway": "station", "ele": null, "operator:type": null, "layer": null, "addr:full": null, "addr:city": null, "source": "survay", "name:zh": "灣仔內", "osm_id": 11466206762, "osm_type": "nodes" }, "geometry": { "type": "Point", "coordinates": [ 120.31888, 22.653543 ] } },
{ "type": "Feature", "properties": { "name": "虎尾", "name:en": null, "railway": "station", "ele": null, "operator:type": null, "layer": null, "addr:full": null, "addr:city": null, "source": null, "name:zh": null, "osm_id": 5517685906, "osm_type": "nodes" }, "geometry": { "type": "Point", "coordinates": [ 120.4365564, 23.70411 ] } },
{ "type": "Feature", "properties": { "name": "大坪林", "name:en": null, "railway": "station", "ele": null, "operator:type": null, "layer": null, "addr:full": null, "addr:city": null, "source": null, "name:zh": null, "osm_id": 11556627094, "osm_type": "nodes" }, "geometry": { "type": "Point", "coordinates": [ 121.5416446, 24.9828172 ] } },
{ "type": "Feature", "properties": { "name": "後壁寮旗", "name:en": null, "railway": "station", "ele": null, "operator:type": null, "layer": null, "addr:full": null, "addr:city": null, "source": null, "name:zh": null, "osm_id": 11629563043, "osm_type": "nodes" }, "geometry": { "type": "Point", "coordinates": [ 120.4206443, 23.7133053 ] } },
{ "type": "Feature", "properties": { "name": "繁殖場", "name:en": null, "railway": "station", "ele": null, "operator:type": null, "layer": null, "addr:full": null, "addr:city": null, "source": null, "name:zh": null, "osm_id": 11629563044, "osm_type": "nodes" }, "geometry": { "type": "Point", "coordinates": [ 120.3655787, 23.7221902 ] } },
{ "type": "Feature", "properties": { "name": "廠前車站(廢)", "name:en": null, "railway": "station", "ele": null, "operator:type": null, "layer": null, "addr:full": null, "addr:city": null, "source": null, "name:zh": null, "osm_id": 1186336894, "osm_type": "nodes" }, "geometry": { "type": "Point", "coordinates": [ 120.3135561, 23.2992774 ] } }
]
}
